Zip,City,State,2018-11
10025,New York,NY,1300000.0
60657,Chicago,IL,585000.0
10023,New York,NY,2250000.0
77494,Katy,TX,399900.0
60614,Chicago,IL,799000.0
79936,El Paso,TX,220000.0
10002,New York,NY,1625000.0
60640,Chicago,IL,410000.0
94109,San Francisco,CA,2270000.0
11226,New York,NY,829500.0
10016,New York,NY,1505000.0
32162,The Villages,FL,349900.0
11375,New York,NY,995000.0
11235,New York,NY,936499.5
60647,Chicago,IL,539000.0
37211,Nashville,TN,402874.5
10029,New York,NY,921500.0
10009,New York,NY,1950000.0
60618,Chicago,IL,549650.0
77573,League City,TX,349900.0
77584,Pearland,TX,349450.0
28269,Charlotte,NC,330000.0
20002,Washington,DC,729949.5
78130,New Braunfels,TX,303749.5
30349,Riverdale,GA,374495.0
79912,El Paso,TX,249835.0
90046,Los Angeles,CA,1999000.0
78613,Cedar Park,TX,493990.0
75052,Grand Prairie,TX,355000.0
20009,Washington,DC,799555.0
37042,Clarksville,TN,239900.0
77433,Cypress,TX,389450.0
73099,Yukon,OK,247873.5
77429,Cypress,TX,379925.0
77479,Sugar Land,TX,475000.0
63376,Saint Peters,MO,309999.0
60613,Chicago,IL,510000.0
30044,Lawrenceville,GA,365000.0
11230,New York,NY,824000.0
10463,New York,NY,812450.0
30043,Lawrenceville,GA,372400.0
11209,New York,NY,1068000.0
60625,Chicago,IL,499000.0
07030,Hoboken,NJ,904997.0
28277,Charlotte,NC,424450.0
75287,Dallas,TX,531250.0
85032,Phoenix,AZ,412500.0
78704,Austin,TX,699000.0
33160,Sunny Isles Beach,FL,1150000.0
77077,Houston,TX,399000.0
78245,San Antonio,TX,311900.0
23464,Virginia Beach,VA,360000.0
30096,Duluth,GA,400000.0
78521,Brownsville,TX,195000.0
75243,Dallas,TX,445000.0
11214,New York,NY,725000.0
98052,Redmond,WA,990000.0
08701,Lakewood,NJ,659000.0
11221,New York,NY,850000.0
60610,Chicago,IL,649000.0
11229,New York,NY,819000.0
77379,Tomball,TX,359990.0
78666,San Marcos,TX,495000.0
10019,New York,NY,1795000.0
30024,Suwanee,GA,444250.0
94110,San Francisco,CA,1699800.0
33139,Miami Beach,FL,905000.0
33411,Royal Palm Beach,FL,459450.0
44107,Lakewood,OH,292000.0
78745,Austin,TX,450000.0
75067,Lewisville,TX,390047.0
33025,Miramar,FL,469995.0
11377,New York,NY,867000.0
66062,Olathe,KS,380950.0
23462,Virginia Beach,VA,357450.0
95630,Folsom,CA,646990.0
11234,New York,NY,775000.0
28027,Concord,NC,359912.0
11355,New York,NY,767444.0
60611,Chicago,IL,765000.0
10314,New York,NY,692450.0
37075,Hendersonville,TN,431445.0
90026,Los Angeles,CA,1199000.0
30281,Stockbridge,GA,349900.0
32210,Jacksonville,FL,430000.0
85225,Chandler,AZ,427450.0
11215,New York,NY,1180000.0
11211,New York,NY,1150000.0
80134,Parker,CO,610900.0
87114,Albuquerque,NM,315000.0
06010,Bristol,CT,335000.0
78240,San Antonio,TX,319945.0
17603,Lancaster,PA,338375.0
85308,Glendale,AZ,425000.0
93722,Fresno,CA,369731.5
85281,Tempe,AZ,426350.0
87111,Albuquerque,NM,399000.0
94533,Fairfield,CA,567500.0
43081,Westerville,OH,322900.0
43055,Newark,OH,359900.0
15601,Greensburg,PA,285625.0
95608,Carmichael,CA,649950.0
44060,Mentor,OH,279900.0
97229,Portland,OR,683950.0
11238,New York,NY,1199500.0
85364,Yuma,AZ,259900.0
11385,New York,NY,739000.0
77459,Missouri City,TX,384800.0
33024,Pembroke Pines,FL,558635.0
91709,Chino Hills,CA,748800.0
43123,Grove City,OH,302300.0
90066,Los Angeles,CA,1525000.0
98012,Bothell,WA,749995.0
76028,Burleson,TX,384950.0
14850,Ithaca,NY,419000.0
34787,Winter Garden,FL,421990.0
33908,Fort Myers,FL,499999.0
65807,Springfield,MO,245000.0
33647,Tampa,FL,374900.0
76063,Mansfield,TX,399500.0
44256,Medina,OH,299900.0
79938,El Paso,TX,190000.0
92677,Laguna Niguel,CA,1281000.0
30040,Cumming,GA,420900.0
75056,The Colony,TX,463990.0
33009,Hallandale,FL,541950.0
45011,Hamilton,OH,355000.0
06902,Stamford,CT,939900.0
27410,Greensboro,NC,279000.0
89121,Las Vegas,NV,449999.0
10028,New York,NY,2172500.0
07302,Jersey City,NJ,925000.0
65203,Columbia,MO,335000.0
27587,Wake Forest,NC,449999.0
47906,West Lafayette,IN,284900.0
08753,Toms River,NJ,779000.0
92336,Fontana,CA,500000.0
60634,Chicago,IL,359950.0
30188,Woodstock,GA,424550.0
46307,Crown Point,IN,394500.0
75228,Dallas,TX,365500.0
27406,Greensboro,NC,258885.0
98103,Seattle,WA,867249.5
77450,Cinco Ranch,TX,369900.0
99301,Pasco,WA,392400.0
77845,College Station,TX,381600.0
20011,Washington,DC,724500.0
29732,Rock Hill,SC,379900.0
90019,Los Angeles,CA,1277450.0
60016,Des Plaines,IL,350000.0
76244,Fort Worth,TX,374500.0
28314,Fayetteville,NC,218200.0
27610,Raleigh,NC,452450.0
77095,Houston,TX,319950.0
87120,Albuquerque,NM,333990.0
92503,Riverside,CA,595000.0
30318,Atlanta,GA,509950.0
28078,Huntersville,NC,379900.0
23320,Chesapeake,VA,424205.0
43230,Gahanna,OH,331400.0
89117,Las Vegas,NV,545000.0
34135,Bonita Springs,FL,474950.0
92592,Temecula,CA,580000.0
91730,Rancho Cucamonga,CA,512500.0
30080,Smyrna,GA,464900.0
74012,Broken Arrow,OK,245000.0
21117,Owings Mills,MD,489900.0
95747,Roseville,CA,589000.0
92109,San Diego,CA,1275000.0
30052,Loganville,GA,355345.0
30041,Cumming,GA,465000.0
92101,San Diego,CA,1154900.0
34711,Clermont,FL,359945.0
32218,Jacksonville,FL,316330.0
07093,West New York,NJ,874000.0
33186,The Crossings,FL,449000.0
32256,Jacksonville,FL,398900.0
30062,Marietta,GA,432950.0
78641,Leander,TX,486990.0
48103,Ann Arbor,MI,526497.5
30331,Atlanta,GA,363832.0
02155,Medford,MA,699000.0
38401,Columbia,TN,425500.0
37130,Murfreesboro,TN,424900.0
11372,New York,NY,779500.0
43026,Hilliard,OH,352990.0
80634,Greeley,CO,439900.0
89052,Henderson,NV,535000.0
29072,Lexington,SC,279900.0
93065,Simi Valley,CA,889900.0
23454,Virginia Beach,VA,499900.0
75206,Dallas,TX,499900.0
45840,Findlay,OH,289900.0
75035,Frisco,TX,499990.0
20001,Washington,DC,799000.0
92627,Costa Mesa,CA,1199900.0
33064,Pompano Beach,FL,1187000.0
32174,Ormond Beach,FL,363000.0
02360,Plymouth,MA,721950.0
30022,Johns Creek,GA,577000.0
23666,Hampton,VA,384900.0
20878,Gaithersburg,MD,749900.0
72401,Jonesboro,AR,229900.0
11218,New York,NY,922500.0
33027,Miramar,FL,475000.0
11223,New York,NY,865000.0
34953,Port Saint Lucie,FL,321000.0
08831,Monroe,NJ,699900.0
58103,Fargo,ND,332100.0
43701,Zanesville,OH,224450.0
90027,Los Angeles,CA,1798800.0
90025,Los Angeles,CA,1150000.0
44077,Painesville,OH,304000.0
10021,New York,NY,2157500.0
91710,Chino,CA,568400.0
20147,Ashburn,VA,672990.0
77082,Houston,TX,557500.0
60616,Chicago,IL,425000.0
55901,Rochester,MN,339900.0
30004,Milton,GA,665000.0
30127,Powder Springs,GA,424900.0
29730,Rock Hill,SC,358450.0
23452,Virginia Beach,VA,489500.0
77840,College Station,TX,379900.0
93727,Fresno,CA,353785.0
71913,Hot Springs,AR,349900.0
80015,Aurora,CO,549000.0
29464,Mount Pleasant,SC,696500.0
27713,Durham,NC,400000.0
80525,Fort Collins,CO,520000.0
37128,Murfreesboro,TN,384900.0
32225,Jacksonville,FL,397000.0
95687,Vacaville,CA,600950.0
27284,Kernersville,NC,279000.0
63123,Affton,MO,316450.0
40601,Frankfort,KY,255000.0
85251,Scottsdale,AZ,514900.0
60622,Chicago,IL,574373.5
33319,Lauderhill,FL,428000.0
73160,Moore,OK,269900.0
77007,Houston,TX,456000.0
98115,Seattle,WA,899000.0
77057,Houston,TX,669500.0
32828,Orlando,FL,349900.0
89123,Las Vegas,NV,408499.5
07087,Union City,NJ,699999.0
60615,Chicago,IL,499925.0
30135,Douglasville,GA,372417.0
45601,Chillicothe,OH,210000.0
27703,Durham,NC,372500.0
23451,Virginia Beach,VA,589350.0
14221,Amherst,NY,297000.0
19446,Lansdale,PA,397375.0
98682,Vancouver,WA,549900.0
76116,Fort Worth,TX,420000.0
89031,North Las Vegas,NV,366240.0
21122,Pasadena,MD,515990.0
93306,Bakersfield,CA,325000.0
78249,San Antonio,TX,302990.0
37064,Franklin,TN,639900.0
60641,Chicago,IL,449900.0
75043,Garland,TX,368950.0
14580,Webster,NY,298950.0
60453,Oak Lawn,IL,339900.0
19020,Bensalem,PA,389000.0
60660,Chicago,IL,449450.0
11204,New York,NY,754000.0
93257,Porterville,CA,325000.0
19720,New Castle,DE,460000.0
27707,Durham,NC,487500.0
66061,Olathe,KS,415000.0
31419,Savannah,GA,299375.0
93274,Tulare,CA,312050.0
33467,Greenacres,FL,473495.0
77521,Baytown,TX,383500.0
85282,Tempe,AZ,397450.0
10032,New York,NY,799000.0
22204,Arlington,VA,725000.0
93309,Bakersfield,CA,338000.0
93230,Hanford,CA,310700.0
37122,Mount Juliet,TN,440450.0
75002,Allen,TX,649950.0
92630,Lake Forest,CA,1067444.0
46143,Greenwood,IN,290000.0
60056,Mount Prospect,IL,369950.0
29223,Columbia,SC,317250.0
98133,Shoreline,WA,754500.0
33157,Village of Palmetto Bay,FL,595000.0
32246,Jacksonville,FL,388490.0
29681,Simpsonville,SC,326900.0
31088,Warner Robins,GA,249900.0
85142,Queen Creek,AZ,450000.0
28216,Charlotte,NC,399900.0
28601,Hickory,NC,319900.0
37167,Smyrna,TN,397400.0
30253,McDonough,GA,420200.0
32792,Winter Park,FL,410000.0
38655,Oxford,MS,420320.0
36117,Montgomery,AL,252000.0
90631,La Habra,CA,1269495.0
99208,Spokane,WA,414900.0
48823,East Lansing,MI,320000.0
30909,Augusta,GA,240500.0
37066,Gallatin,TN,472350.0
63021,Ballwin,MO,369900.0
98122,Seattle,WA,915000.0
32608,Gainesville,FL,379000.0
27705,Durham,NC,425000.0
28205,Charlotte,NC,449975.0
29485,Summerville,SC,442500.0
15301,Washington,PA,284000.0
33511,Brandon,FL,414990.0
17331,Penn,PA,299870.0
70726,Denham Springs,LA,262450.0
92104,San Diego,CA,925000.0
87124,Rio Rancho,NM,315000.0
97045,Oregon City,OR,594975.0
30263,Newnan,GA,418524.0
63129,Oakville,MO,319000.0
32765,Oviedo,FL,399900.0
37040,Clarksville,TN,238990.0
21224,Baltimore,MD,441500.0
85022,Phoenix,AZ,450000.0
89110,Las Vegas,NV,435500.0
20852,North Bethesda,MD,827450.0
34293,Venice,FL,424595.0
30066,Marietta,GA,443000.0
28215,Charlotte,NC,336950.0
74133,Tulsa,OK,262000.0
92646,Huntington Beach,CA,1050000.0
27519,Cary,NC,515000.0
95355,Modesto,CA,415000.0
83301,Twin Falls,ID,325999.0
33458,Jupiter,FL,646495.0
94568,Dublin,CA,1499000.0
77346,Atascocita,TX,347287.0
59901,Kalispell,MT,529500.0
98632,Longview,WA,399950.0
97401,Eugene,OR,455000.0
89148,Las Vegas,NV,412990.0
37027,Brentwood,TN,752490.0
29579,Forestbrook,SC,399900.0
37421,Chattanooga,TN,299000.0
60148,Lombard,IL,445000.0
42701,Elizabethtown,KY,259000.0
43015,Delaware,OH,385900.0
11216,New York,NY,889000.0
23322,Chesapeake,VA,420900.0
28227,Mint Hill,NC,365450.0
19067,Lower Makefield,PA,506497.5
60608,Chicago,IL,414000.0
45044,Middletown,OH,349450.0
92620,Irvine,CA,1220445.5
33414,Wellington,FL,629000.0
28210,Charlotte,NC,420000.0
85008,Phoenix,AZ,429000.0
45013,Hamilton,OH,297000.0
89103,Las Vegas,NV,459444.0
37129,Murfreesboro,TN,394500.0
33433,Boca Raton,FL,500000.0
55124,Apple Valley,MN,425000.0
67401,Salina,KS,252000.0
30101,Acworth,GA,414950.0
32825,Orlando,FL,359949.5
89074,Henderson,NV,429990.0
14094,Lockport,NY,256950.0
92122,San Diego,CA,925000.0
20910,Silver Spring,MD,654450.0
77375,Tomball,TX,444995.0
27265,High Point,NC,259900.0
47150,New Albany,IN,287900.0
23455,Virginia Beach,VA,440000.0
41042,Florence,KY,263650.0
12180,Troy,NY,374900.0
33015,Country Club,FL,438750.0
78254,San Antonio,TX,301990.0
30047,Lilburn,GA,383375.0
92648,Huntington Beach,CA,1489000.0
32303,Tallahassee,FL,349900.0
48439,Grand Blanc,MI,245450.0
07047,North Bergen,NJ,675000.0
78759,Austin,TX,554000.0
95648,Lincoln,CA,624000.0
84404,Ogden,UT,440000.0
76179,Fort Worth,TX,408990.0
19148,Philadelphia,PA,379450.0
33463,Greenacres,FL,429990.0
07305,Jersey City,NJ,749499.5
27407,Greensboro,NC,263125.0
83646,Meridian,ID,427450.0
33141,Miami Beach,FL,749000.0
77070,Houston,TX,349950.0
01201,Pittsfield,MA,425000.0
75204,Dallas,TX,479900.0
32771,Sanford,FL,449900.0
53711,Madison,WI,410000.0
92130,San Diego,CA,1419500.0
33436,Boynton Beach,FL,532000.0
11354,New York,NY,998000.0
75070,McKinney,TX,400000.0
89147,Las Vegas,NV,404500.0
06457,Middletown,CT,359900.0
54601,La Crosse,WI,307450.0
30075,Roswell,GA,499000.0
75034,Frisco,TX,545497.0
78209,San Antonio,TX,539500.0
90036,Los Angeles,CA,1995000.0
97124,Hillsboro,OR,571000.0
98034,Kirkland,WA,975000.0
33021,Hollywood,FL,469000.0
96815,Honolulu,HI,1438000.0
33324,Plantation,FL,777450.0
85255,Scottsdale,AZ,874900.0
59102,Billings,MT,359900.0
45140,Loveland,OH,399700.0
92562,Murrieta,CA,694000.0
02780,Taunton,MA,419999.0
30067,Marietta,GA,620000.0
92117,San Diego,CA,895000.0
73013,Edmond,OK,283778.0
63301,Saint Charles,MO,299900.0
22201,Arlington,VA,899900.0
60004,Arlington Heights,IL,399700.0
11746,Huntington,NY,819894.0
17601,Manheim,PA,348290.0
29483,Summerville,SC,484900.0
47130,Jeffersonville,IN,294900.0
08527,Jackson,NJ,675000.0
92563,Murrieta,CA,479900.0
29588,Socastee,SC,327745.0
79424,Lubbock,TX,287500.0
22192,Woodbridge,VA,649900.0
92128,San Diego,CA,877000.0
19711,Newark,DE,439000.0
75098,Wylie,TX,370057.0
85383,Peoria,AZ,450000.0
78748,Austin,TX,425000.0
83709,Boise,ID,391250.0
07728,Freehold,NJ,700000.0
94591,Vallejo,CA,560000.0
30907,Martinez,GA,358500.0
19380,West Chester,PA,491400.0
28025,Concord,NC,354000.0
19702,Newark,DE,380000.0
30144,Kennesaw,GA,350000.0
70065,Kenner,LA,339900.0
72034,Conway,AR,284000.0
38654,Olive Branch,MS,291925.0
23456,Virginia Beach,VA,465000.0
61761,Normal,IL,239900.0
45424,Huber Heights,OH,215000.0
45040,Mason,OH,457000.0
90042,Los Angeles,CA,999000.0
27106,Winston-Salem,NC,421997.5
28540,Jacksonville,NC,232450.0
80016,Aurora,CO,600000.0
76051,Grapevine,TX,425000.0
97504,Medford,OR,519950.0
78520,Brownsville,TX,185000.0
93308,Oildale,CA,332000.0
23112,Midlothian,VA,397995.0
92882,Corona,CA,584900.0
27603,Raleigh,NC,460000.0
34748,Leesburg,FL,375000.0
29229,Columbia,SC,235000.0
78253,San Antonio,TX,335700.0
24060,Blacksburg,VA,377475.0
32137,Palm Coast,FL,435000.0
92399,Yucaipa,CA,599000.0
98225,Bellingham,WA,625000.0
75115,Desoto,TX,389995.0
97206,Portland,OR,577000.0
60402,Berwyn,IL,357000.0
84015,Clearfield,UT,410000.0
77373,Spring,TX,301955.0
33308,Fort Lauderdale,FL,669000.0
33312,Fort Lauderdale,FL,549000.0
11374,New York,NY,799999.0
33437,Boynton Beach,FL,450000.0
92201,Indio,CA,599000.0
33578,Riverview,FL,336631.0
27529,Garner,NC,376850.0
65202,Columbia,MO,309999.0
75093,Plano,TX,588000.0
60638,Chicago,IL,352450.0
22030,Fairfax,VA,750000.0
99336,Kennewick,WA,438900.0
30319,Brookhaven,GA,625000.0
38016,Memphis,TN,248900.0
19382,West Chester,PA,557862.5
70119,New Orleans,LA,398000.0
44646,Massillon,OH,250200.0
30114,Canton,GA,389900.0
80538,Loveland,CO,624000.0
10036,New York,NY,1450000.0
97405,Eugene,OR,525000.0
78230,San Antonio,TX,369900.0
48187,Canton,MI,389900.0
19145,Philadelphia,PA,375000.0
95350,Modesto,CA,425000.0
34698,Dunedin,FL,415000.0
63303,Saint Charles,MO,310000.0
28645,Lenoir,NC,299900.0
34997,Stuart,FL,419000.0
60639,Chicago,IL,336500.0
63366,O Fallon,MO,275000.0
92618,Irvine,CA,1408944.0
27606,Raleigh,NC,564990.0
45069,West Chester,OH,336135.5
19146,Philadelphia,PA,497000.0
78045,Laredo,TX,244450.0
39503,Gulfport,MS,249900.0
33914,Cape Coral,FL,519950.0
92024,Encinitas,CA,1649000.0
27405,Greensboro,NC,198900.0
56001,Mankato,MN,343950.0
28546,Jacksonville,NC,224900.0
33418,Palm Beach Gardens,FL,649950.0
97702,Bend,OR,675000.0
34952,Port Saint Lucie,FL,353950.0
37043,Clarksville,TN,295000.0
95624,Elk Grove,CA,601470.0
75068,Little Elm,TX,384900.0
22003,Annandale,VA,657475.0
46032,Carmel,IN,480000.0
85326,Buckeye,AZ,394749.5
32068,Middleburg,FL,331850.0
80504,Longmont,CO,484775.0
92509,Riverside,CA,499999.0
85374,Surprise,AZ,412450.0
75007,Carrollton,TX,355000.0
75071,McKinney,TX,401945.0
78550,Harlingen,TX,189900.0
04401,Bangor,ME,284500.0
36830,Auburn,AL,370000.0
96720,Hilo,HI,625000.0
30606,Athens,GA,439900.0
11210,New York,NY,942000.0
44124,Lyndhurst,OH,450000.0
92626,Costa Mesa,CA,1060000.0
29720,Lancaster,SC,342990.0
33065,Coral Springs,FL,424450.0
75231,Dallas,TX,499871.0
96817,Honolulu,HI,1395000.0
89129,Las Vegas,NV,450000.0
92880,Eastvale,CA,570000.0
92253,La Quinta,CA,799000.0
85254,Phoenix,AZ,539900.0
85205,Mesa,AZ,512000.0
58104,Fargo,ND,376500.0
23185,Williamsburg,VA,425000.0
19320,Valley,PA,364950.0
29607,Greenville,SC,299700.0
77386,Spring,TX,371865.0
80020,Broomfield,CO,599000.0
78258,San Antonio,TX,399999.0
33810,Lakeland,FL,279900.0
27613,Raleigh,NC,504999.0
20850,Rockville,MD,699500.0
87109,Albuquerque,NM,301500.0
20774,Kettering,MD,625000.0
34221,Palmetto,FL,469745.0
27526,Fuquay Varina,NC,378600.0
21228,Catonsville,MD,463495.0
48044,Macomb,MI,344500.0
60630,Chicago,IL,399000.0
98109,Seattle,WA,999000.0
75703,Tyler,TX,335500.0
23188,Williamsburg,VA,429997.5
65802,Springfield,MO,300000.0
49009,Oshtemo,MI,314900.0
29501,Florence,SC,269990.0
33176,Kendall,FL,637000.0
17602,Lancaster,PA,349900.0
75025,Plano,TX,399450.0
33020,Hollywood,FL,450000.0
92234,Cathedral City,CA,549300.0
98125,Seattle,WA,815000.0
97501,Medford,OR,575000.0
70816,Baton Rouge,LA,300000.0
73072,Norman,OK,342140.0
80123,Denver,CO,760000.0
91786,Upland,CA,539375.0
43235,Columbus,OH,367000.0
47401,Bloomington,IN,399000.0
72701,Fayetteville,AR,435000.0
78681,Round Rock,TX,450000.0
93312,Bakersfield,CA,324000.0
87112,Albuquerque,NM,319500.0
29414,Charleston,SC,448615.0
80918,Colorado Springs,CO,485747.0
19147,Philadelphia,PA,515000.0
93003,Ventura,CA,865000.0
75080,Richardson,TX,432400.0
15642,North Huntingdon,PA,308445.0
19464,Pottstown,PA,348273.5
40214,Louisville,KY,325000.0
22554,Stafford,VA,619900.0
23434,Suffolk,VA,349949.5
85338,Goodyear,AZ,398900.0
62704,Springfield,IL,249950.0
38017,Collierville,TN,472040.5
55044,Lakeville,MN,450000.0
60643,Chicago,IL,399000.0
77407,Richmond,TX,364500.0
34741,Kissimmee,FL,372450.0
77042,Houston,TX,499000.0
70001,Metairie,LA,369900.0
12065,Clifton Park,NY,379950.0
30016,Covington,GA,359950.0
27215,Burlington,NC,279430.0
97223,Tigard,OR,575000.0
85248,Chandler,AZ,435000.0
78216,San Antonio,TX,349000.0
77063,Houston,TX,376600.0
76549,Killeen,TX,229900.0
10010,New York,NY,2084500.0
79928,Horizon City,TX,189000.0
77081,Houston,TX,490000.0
33322,Sunrise,FL,459250.0
15237,Ross,PA,298950.0
46360,Michigan City,IN,449000.0
67212,Wichita,KS,202500.0
92708,Fountain Valley,CA,934950.0
85224,Chandler,AZ,398900.0
33178,Doral,FL,520000.0
43615,Toledo,OH,259450.0
57701,Rapid City,SD,337500.0
10306,New York,NY,682500.0
33062,Pompano Beach,FL,639900.0
27360,Thomasville,NC,239900.0
07470,Wayne,NJ,699000.0
34655,New Port Richey,FL,362200.0
29910,Bluffton,SC,699000.0
73120,Oklahoma City,OK,385000.0
38111,Memphis,TN,330000.0
30032,Candler-Mcafee,GA,369000.0
37918,Knoxville,TN,284900.0
19335,East Brandywine,PA,455000.0
70506,Lafayette,LA,238000.0
27615,Raleigh,NC,517450.0
85375,Sun City West,AZ,417000.0
08054,Mt Laurel,NJ,399999.0
40324,Georgetown,KY,336855.0
85207,Mesa,AZ,549900.0
35405,Tuscaloosa,AL,259900.0
33615,Town 'n' Country,FL,449950.0
45324,Fairborn,OH,222900.0
93063,Simi Valley,CA,884900.0
66502,Manhattan,KS,269950.0
55303,Ramsey,MN,399450.0
92103,San Diego,CA,1242000.0
93277,Visalia,CA,322000.0
92223,Beaumont,CA,499925.0
28173,Waxhaw,NC,449900.0
65804,Springfield,MO,299900.0
75219,Dallas,TX,625000.0
70301,Thibodaux,LA,258900.0
78247,San Antonio,TX,296990.0
96744,Kaneohe,HI,1250000.0
37660,Kingsport,TN,279000.0
13760,Union,NY,209000.0
87105,South Valley,NM,330000.0
54115,De Pere,WI,309900.0
27612,Raleigh,NC,574900.0
14075,Hamburg,NY,289000.0
73071,Norman,OK,276485.0
30236,Jonesboro,GA,399900.0
39401,Hattiesburg,MS,303250.0
75074,Plano,TX,405000.0
85283,Tempe,AZ,405000.0
07024,Fort Lee,NJ,875000.0
77546,Friendswood,TX,484495.0
20171,Herndon,VA,659990.0
17701,Williamsport,PA,244400.0
93720,Fresno,CA,375000.0
28412,Wilmington,NC,396750.0
92507,Riverside,CA,478500.0
96003,Redding,CA,425000.0
80526,Fort Collins,CO,559500.0
12866,Saratoga Springs,NY,499900.0
87507,Santa Fe,NM,592500.0
48307,Rochester Hills,MI,382400.0
91367,Los Angeles,CA,1199000.0
28806,Asheville,NC,399000.0
32164,Palm Coast,FL,289900.0
74055,Owasso,OK,295000.0
06492,Wallingford,CT,399900.0
29526,Conway,SC,324900.0
08053,Evesham,NJ,395000.0
29651,Greer,SC,291990.0
28110,Monroe,NC,359900.0
27513,Cary,NC,459400.0
33617,Temple Terrace,FL,369450.0
18103,Allentown,PA,389900.0
98391,Bonney Lake,WA,743950.0
28403,Wilmington,NC,464500.0
37087,Lebanon,TN,429665.0
92346,Highland,CA,527450.0
85016,Phoenix,AZ,525000.0
32837,Orlando,FL,357450.0
28117,Mooresville,NC,499000.0
92037,San Diego,CA,2497000.0
34744,Kissimmee,FL,345000.0
19103,Philadelphia,PA,599900.0
75063,Irving,TX,505900.0
37221,Nashville,TN,439700.0
16001,Butler,PA,279950.0
90049,Los Angeles,CA,3572500.0
43016,Dublin,OH,439900.0
97330,Corvallis,OR,549900.0
42301,Owensboro,KY,229900.0
75024,Plano,TX,528000.0
29073,Lexington,SC,234900.0
76542,Killeen,TX,221100.0
92260,Palm Desert,CA,714000.0
44691,Wooster,OH,269950.0
77008,Houston,TX,484000.0
95616,Davis,CA,750000.0
27107,Winston-Salem,NC,277527.5
10312,New York,NY,748000.0
24502,Lynchburg,VA,239000.0
90277,Redondo Beach,CA,1399000.0
78665,Round Rock,TX,430000.0
75023,Plano,TX,400000.0
65201,Columbia,MO,369900.0
80537,Loveland,CO,634000.0
33180,Aventura,FL,625000.0
19403,West Norriton,PA,385000.0
48170,Plymouth,MI,449900.0
87123,Albuquerque,NM,315000.0
26505,Morgantown,WV,309000.0
85711,Tucson,AZ,349900.0
15108,Moon,PA,309900.0
48111,Van Buren,MI,310330.0
98226,Bellingham,WA,675000.0
30064,Marietta,GA,450000.0
87110,Albuquerque,NM,295000.0
93291,Visalia,CA,349900.0
40509,Lexington,KY,350830.5
32940,Melbourne,FL,389450.0
54703,Eau Claire,WI,240400.0
11758,Massapequa,NY,734000.0
44212,Brunswick,OH,264500.0
08401,Atlantic City,NJ,399450.0
52404,Cedar Rapids,IA,299950.0
21044,Columbia,MD,525000.0
84043,Lehi,UT,524950.0
95060,Santa Cruz,CA,1496500.0
47201,Columbus,IN,369900.0
70810,Baton Rouge,LA,489900.0
85365,Yuma,AZ,275535.5
26554,Fairmont,WV,209750.0
97202,Portland,OR,679900.0
65803,Springfield,MO,289900.0
44870,Sandusky,OH,299000.0
85382,Peoria,AZ,389900.0
30518,Sugar Hill,GA,403490.0
68516,Lincoln,NE,349900.0
30809,Evans,GA,299450.0
78155,Seguin,TX,346900.0
95628,Fair Oaks,CA,649900.0
92407,San Bernardino,CA,500679.5
32703,Apopka,FL,355140.0
30309,Atlanta,GA,707450.0
98501,Olympia,WA,469450.0
87108,Albuquerque,NM,315000.0
37343,Chattanooga,TN,299250.0
29615,Greenville,SC,364900.0
77396,Atascocita,TX,366291.5
49424,Holland,MI,349000.0
70115,New Orleans,LA,499900.0
54935,Fond du Lac,WI,247400.0
29412,Charleston,SC,549900.0
11101,New York,NY,1058789.0
85018,Phoenix,AZ,755000.0
46350,La Porte,IN,299000.0
85719,Tucson,AZ,338250.0
98004,Bellevue,WA,2055000.0
37209,Nashville,TN,474900.0
85260,Scottsdale,AZ,540000.0
30605,Athens,GA,369900.0
96822,Honolulu,HI,1425000.0
70508,Lafayette,LA,322000.0
90803,Long Beach,CA,1449000.0
37920,Knoxville,TN,315000.0
48843,Howell,MI,315000.0
39402,Hattiesburg,MS,295000.0
14450,Perinton,NY,262450.0
32514,Pensacola,FL,339900.0
77511,Alvin,TX,399000.0
77040,Houston,TX,335000.0
32708,Winter Springs,FL,379500.0
29687,Taylors,SC,289950.0
10022,New York,NY,1838875.0
52402,Cedar Rapids,IA,239950.0
85044,Phoenix,AZ,449947.5
98118,Seattle,WA,830000.0
21401,Annapolis,MD,598999.5
32746,Lake Mary,FL,469900.0
49423,Holland,MI,350000.0
02703,Attleboro,MA,469000.0
73034,Edmond,OK,379900.0
61554,Pekin,IL,239000.0
97006,Beaverton,OR,595000.0
14224,West Seneca,NY,289900.0
42240,Hopkinsville,KY,302500.0
07712,Ocean,NJ,735000.0
77406,Richmond,TX,349900.0
29576,Murrells Inlet,SC,337371.5
08081,Winslow,NJ,349900.0
92078,San Marcos,CA,899700.0
92026,Escondido,CA,891858.0
92692,Mission Viejo,CA,1099000.0
78201,San Antonio,TX,314900.0
18104,Allentown,PA,339500.0
80211,Denver,CO,675000.0
37076,Nashville,TN,398000.0
75062,Irving,TX,463000.0
23602,Newport News,VA,329990.0
36116,Montgomery,AL,299200.0
91762,Ontario,CA,509000.0
83686,Nampa,ID,439900.0
98258,Lake Stevens,WA,749950.0
06460,Milford,CT,414900.0
11432,New York,NY,1055000.0
37620,Bristol,TN,289250.0
97007,Beaverton,OR,579995.0
78028,Kerrville,TX,473500.0
24018,Roanoke,VA,349925.0
60126,Elmhurst,IL,599900.0
11222,New York,NY,1149500.0
60201,Evanston,IL,572000.0
91761,Ontario,CA,504500.0
77089,Houston,TX,349695.0
92129,San Diego,CA,874900.0
60014,Crystal Lake,IL,399000.0
27609,Raleigh,NC,592450.0
33179,Ives Estates,FL,569000.0
56560,Moorhead,MN,339900.0
53202,Milwaukee,WI,463900.0
21043,Ellicott City,MD,579999.0
18702,Wilkes-Barre,PA,235000.0
52302,Marion,IA,295000.0
32835,Orlando,FL,439949.5
07052,West Orange,NJ,782500.0
43551,Perrysburg,OH,299900.0
78213,San Antonio,TX,384000.0
23220,Richmond,VA,482475.0
32259,Fruit Cove,FL,404990.0
08816,East Brunswick,NJ,809990.0
33919,Fort Myers,FL,459000.0
50613,Cedar Falls,IA,289410.0
28562,New Bern,NC,274950.0
20148,Ashburn,VA,649000.0
29803,Aiken,SC,339900.0
30076,Roswell,GA,439000.0
28306,Fayetteville,NC,255000.0
34112,Naples,FL,695900.0
30097,Duluth,GA,565000.0
75214,Dallas,TX,587450.0
75126,Forney,TX,349995.0
44118,Cleveland Heights,OH,259450.0
46220,Indianapolis,IN,300000.0
32224,Jacksonville,FL,425000.0
63122,Kirkwood,MO,469950.0
96816,Honolulu,HI,1629000.0
84041,Layton,UT,464950.0
47905,Lafayette,IN,317450.0
19128,Philadelphia,PA,429950.0
75248,Dallas,TX,495000.0
77388,Spring,TX,334950.0
44240,Kent,OH,252350.0
76039,Euless,TX,426449.5
77469,Richmond,TX,336990.0
20772,Greater Upper Marlboro,MD,613990.0
78046,Laredo,TX,191990.0
30324,Atlanta,GA,578745.0
15317,North Strabane,PA,364900.0
83642,Meridian,ID,459900.0
80220,Denver,CO,699000.0
19460,Phoenixville,PA,489997.5
22903,Charlottesville,VA,664900.0
29621,Anderson,SC,298900.0
33161,North Miami,FL,485750.0
59101,Billings,MT,375000.0
85209,Mesa,AZ,379900.0
65109,Jefferson City,MO,287450.0
29407,Charleston,SC,515000.0
07960,Morris,NJ,925000.0
21502,Cumberland,MD,177450.0
63017,Chesterfield,MO,425000.0
97123,Hillsboro,OR,644900.0
44094,Willoughby,OH,310000.0
55416,Saint Louis Park,MN,599900.0
33165,University Park,FL,450000.0
18974,Warminster,PA,429000.0
32780,Titusville,FL,389000.0
34203,Bradenton,FL,434888.0
77339,Houston,TX,377000.0
32257,Jacksonville,FL,350000.0
63026,Fenton,MO,294989.0
91304,Los Angeles,CA,992405.0
30339,Vinings,GA,544500.0
15068,Lower Burrell,PA,265999.5
33904,Cape Coral,FL,471900.0
37604,Johnson City,TN,272400.0
32159,Lady Lake,FL,389900.0
11772,Patchogue,NY,702500.0
60605,Chicago,IL,525000.0
38501,Cookeville,TN,299450.0
44720,North Canton,OH,249999.0
80401,Golden,CO,770000.0
97756,Redmond,OR,689500.0
28226,Charlotte,NC,592000.0
80210,Denver,CO,750000.0
94010,Burlingame,CA,3788500.0
85234,Gilbert,AZ,425000.0
55125,Woodbury,MN,409900.0
98033,Kirkland,WA,1295000.0
44120,Cleveland,OH,280000.0
92211,Palm Desert,CA,575000.0
80127,Ken Caryl,CO,665000.0
46237,Indianapolis,IN,249990.0
37601,Johnson City,TN,299000.0
98042,Kent,WA,784950.0
13021,Auburn,NY,246900.0
34667,Hudson,FL,339000.0
20854,Potomac,MD,1249000.0
75104,Cedar Hill,TX,449900.0
70737,Gonzales,LA,299900.0
85020,Phoenix,AZ,542000.0
95336,Manteca,CA,499000.0
42303,Owensboro,KY,282400.0
48104,Ann Arbor,MI,627000.0
90045,Los Angeles,CA,1450000.0
23669,Hampton,VA,354450.0
60089,Buffalo Grove,IL,409900.0
10065,New York,NY,2400000.0
27103,Winston-Salem,NC,249592.5
77581,Pearland,TX,334900.0
60010,Barrington,IL,649900.0
59718,Bozeman,MT,729950.0
20176,Leesburg,VA,724950.0
99362,Walla Walla,WA,429000.0
48073,Royal Oak,MI,319900.0
44224,Stow,OH,294000.0
11217,New York,NY,1275000.0
83854,Post Falls,ID,599000.0
34786,Windermere,FL,739900.0
34746,Kissimmee,FL,354925.0
78109,Converse,TX,277232.5
32566,Navarre,FL,314900.0
13440,Rome,NY,209450.0
46514,Elkhart,IN,288500.0
54915,Appleton,WI,284900.0
92028,Fallbrook,CA,998500.0
98801,Wenatchee,WA,548000.0
97302,Salem,OR,439900.0
60609,Chicago,IL,440000.0
20003,Washington,DC,799000.0
21921,Elkton,MD,399900.0
90278,Redondo Beach,CA,1134450.0
46060,Noblesville,IN,289900.0
92116,San Diego,CA,999475.0
78414,Corpus Christi,TX,259997.0
21220,Middle River,MD,479900.0
91344,Los Angeles,CA,1094500.0
17055,Upper Allen,PA,320490.0
33175,Tamiami,FL,526000.0
34209,Bradenton,FL,554500.0
28376,Raeford,NC,240250.0
30350,Sandy Springs,GA,600000.0
40299,Louisville,KY,305250.0
92504,Riverside,CA,739000.0
30506,Gainesville,GA,495000.0
77024,Houston,TX,1250000.0
96734,Kailua,HI,1550000.0
28105,Matthews,NC,419900.0
92886,Yorba Linda,CA,1575000.0
33446,Delray Beach,FL,649000.0
89131,Las Vegas,NV,490000.0
89014,Henderson,NV,400000.0
34609,Spring Hill,FL,329518.0
32073,Orange Park,FL,374450.0
28311,Fayetteville,NC,236900.0
75019,Coppell,TX,505900.0
97701,Bend,OR,644950.0
76502,Temple,TX,229900.0
32034,Fernandina Beach,FL,465000.0
11205,New York,NY,942500.0
92530,Lake Elsinore,CA,525000.0
33844,Haines City,FL,240324.0
52722,Bettendorf,IA,389900.0
27516,Chapel Hill,NC,475000.0
94539,Fremont,CA,1699800.0
94107,San Francisco,CA,1787000.0
15235,Penn Hills,PA,279000.0
46383,Valparaiso,IN,399900.0
70003,Metairie,LA,303499.5
40356,Nicholasville,KY,414904.0
46140,Greenfield,IN,280945.0
30736,Ringgold,GA,309900.0
47909,Lafayette,IN,253000.0
97219,Portland,OR,674950.0
33177,South Miami Heights,FL,459500.0
77004,Houston,TX,411250.0
60462,Orland Park,IL,399900.0
92672,San Clemente,CA,1480000.0
24401,Staunton,VA,367450.0
92009,Carlsbad,CA,1140000.0
84790,Saint George,UT,512450.0
60062,Northbrook,IL,599000.0
21230,Baltimore,MD,475000.0
39564,Ocean Springs,MS,269000.0
54701,Eau Claire,WI,309900.0
17543,Warwick,PA,399000.0
30519,Buford,GA,399900.0
30328,Sandy Springs,GA,575000.0
43201,Columbus,OH,415000.0
60645,Chicago,IL,399900.0
70769,Prairieville,LA,309950.0
95376,Tracy,CA,485475.0
53211,Milwaukee,WI,482000.0
34231,Sarasota,FL,694000.0
77539,Dickinson,TX,346487.5
85021,Phoenix,AZ,549000.0
32712,Apopka,FL,362000.0
93010,Camarillo,CA,1084950.0
98102,Seattle,WA,1100000.0
14701,Jamestown,NY,179000.0
72076,Jacksonville,AR,219900.0
60067,Palatine,IL,489900.0
19808,Wilmington,DE,390000.0
93117,Goleta,CA,1476000.0
95762,El Dorado Hills,CA,798500.0
89509,Reno,NV,613500.0
32824,Orlando,FL,330345.0
53590,Sun Prairie,WI,375000.0
48188,Canton,MI,365000.0
33196,The Hammocks,FL,439000.0
93311,Bakersfield,CA,363000.0
33130,Miami,FL,595000.0
11561,Long Beach,NY,810000.0
18042,Easton,PA,505000.0
40291,Louisville,KY,283850.0
08234,Egg Harbor,NJ,325000.0
33134,Coral Gables,FL,750000.0
24153,Salem,VA,329500.0
60193,Schaumburg,IL,379900.0
72756,Rogers,AR,370000.0
07726,Manalapan,NJ,734000.0
77080,Houston,TX,334450.0
30039,Snellville,GA,350000.0
89436,Sparks,NV,520000.0
33928,Estero,FL,439900.0
19701,Bear,DE,397450.0
30120,Cartersville,GA,399900.0
49503,Grand Rapids,MI,416500.0
84770,Saint George,UT,523566.5
17050,Hampden,PA,360900.0
32955,Rockledge,FL,405000.0
98092,Auburn,WA,786975.0
33445,Delray Beach,FL,569900.0
27520,Clayton,NC,373439.0
92064,Poway,CA,1279000.0
33917,North Fort Myers,FL,399000.0
30813,Grovetown,GA,252715.0
32404,Panama City,FL,349900.0
02127,Boston,MA,899000.0
75013,Allen,TX,491594.5
92054,Oceanside,CA,931772.5
33410,Palm Beach Gardens,FL,645000.0
85249,Chandler,AZ,479900.0
43017,Dublin,OH,499990.0
91765,Diamond Bar,CA,1319000.0
55304,Andover,MN,449900.0
27030,Mount Airy,NC,232950.0
78412,Corpus Christi,TX,365000.0
32526,Pensacola,FL,292445.0
30228,Hampton,GA,382702.5
49441,Norton Shores,MI,259450.0
28054,Gastonia,NC,332000.0
27127,Winston-Salem,NC,233990.0
60188,Carol Stream,IL,342450.0
61701,Bloomington,IL,249900.0
45342,Miamisburg,OH,214990.0
32507,Pensacola,FL,416500.0
75165,Waxahachie,TX,359578.5
85716,Tucson,AZ,375000.0
85295,Gilbert,AZ,425000.0
30680,Winder,GA,432000.0
21093,Lutherville Timonium,MD,472400.0
32714,Altamonte Springs,FL,369950.0
93711,Fresno,CA,475000.0
18017,Bethlehem,PA,399450.0
63368,O Fallon,MO,319900.0
85296,Gilbert,AZ,456247.5
97303,Keizer,OR,375000.0
77055,Houston,TX,649000.0
82001,Cheyenne,WY,354900.0
70433,Covington,LA,429500.0
27320,Reidsville,NC,229450.0
15221,Wilkinsburg,PA,292000.0
27292,Lexington,NC,329900.0
55379,Shakopee,MN,418000.0
60477,Tinley Park,IL,369000.0
44122,Shaker Heights,OH,369900.0
72703,Fayetteville,AR,473250.0
53051,Menomonee Falls,WI,492900.0
30126,Mableton,GA,372200.0
60025,Glenview,IL,564900.0
10977,Ramapo,NY,675000.0
28304,Fayetteville,NC,208450.0
34145,Marco Island,FL,925000.0
77498,Sugar Land,TX,464992.5
90275,Rancho Palos Verdes,CA,1496250.0
87031,Los Lunas,NM,314900.0
78232,San Antonio,TX,310000.0
45385,Xenia,OH,318247.5
34119,Naples,FL,798000.0
92127,San Diego,CA,1400000.0
48430,Fenton,MI,299900.0
76522,Copperas Cove,TX,221622.0
97217,Portland,OR,550000.0
02130,Boston,MA,770000.0
85635,Sierra Vista,AZ,265950.0
33624,Greater Carrollwood,FL,343400.0
28411,Wilmington,NC,440000.0
92660,Newport Beach,CA,2300000.0
79423,Lubbock,TX,260950.0
72758,Rogers,AR,399900.0
42420,Henderson,KY,249900.0
27295,Lexington,NC,284990.0
46037,Fishers,IN,362990.0
28115,Mooresville,NC,348900.0
60707,Elmwood Park,IL,359900.0
50266,West Des Moines,IA,364800.0
80022,Commerce City,CO,564449.5
22901,Charlottesville,VA,538500.0
34761,Ocoee,FL,343490.0
84121,Cottonwood Heights,UT,724450.0
85704,Tucson,AZ,389000.0
85745,Tucson,AZ,425000.0
17042,Lebanon,PA,297350.0
22801,Harrisonburg,VA,359900.0
79925,El Paso,TX,190000.0
29577,Myrtle Beach,SC,339990.0
93611,Clovis,CA,410000.0
30038,Lithonia,GA,382500.0
36301,Dothan,AL,229320.0
95667,Placerville,CA,650000.0
38125,Memphis,TN,269900.0
43065,Powell,OH,425000.0
63385,Wentzville,MO,301900.0
77044,Houston,TX,369000.0
28451,Leland,NC,354500.0
80906,Colorado Springs,CO,650000.0
84010,Bountiful,UT,549900.0
83501,Lewiston,ID,384000.0
21045,Columbia,MD,438750.0
48047,Chesterfield,MI,289900.0
30115,Canton,GA,403455.0
73112,Oklahoma City,OK,325000.0
32707,Casselberry,FL,335000.0
60563,Naperville,IL,478995.0
95476,Sonoma,CA,1920000.0
33040,Key West,FL,1295000.0
46385,Valparaiso,IN,425000.0
30316,Atlanta,GA,455900.0
45373,Troy,OH,283495.0
92506,Riverside,CA,550000.0
60540,Naperville,IL,497000.0
95062,Santa Cruz,CA,1544500.0
78526,Brownsville,TX,199000.0
22033,Fairfax,VA,649900.0
11743,Huntington,NY,899999.0
19709,Middletown,DE,399675.0
85226,Chandler,AZ,422450.0
76513,Belton,TX,279505.0
75028,Flower Mound,TX,425500.0
75044,Garland,TX,359995.0
95926,Chico,CA,409950.0
70118,New Orleans,LA,575000.0
32724,Deland,FL,325000.0
72450,Paragould,AR,215000.0
83706,Boise,ID,427000.0
30019,Dacula,GA,375000.0
30165,Rome,GA,265450.0
60653,Chicago,IL,499450.0
70458,Slidell,LA,339250.0
76904,San Angelo,TX,319900.0
60090,Wheeling,IL,355500.0
08094,Monroe,NJ,358155.0
33428,Boca Raton,FL,506107.5
33881,Winter Haven,FL,256990.0
48105,Ann Arbor,MI,599900.0
07307,Jersey City,NJ,764000.0
80227,Lakewood,CO,634990.0
98382,Sequim,WA,499475.0
74136,Tulsa,OK,279000.0
61704,Bloomington,IL,264000.0
19130,Philadelphia,PA,450000.0
33016,Hialeah,FL,669500.0
30152,Kennesaw,GA,490000.0
73170,Oklahoma City,OK,266522.0
89128,Las Vegas,NV,425000.0
76107,Fort Worth,TX,499000.0
89015,Henderson,NV,430950.0
63701,Cape Girardeau,MO,310000.0
28803,Asheville,NC,500000.0
37363,Ooltewah,TN,339900.0
78413,Corpus Christi,TX,264000.0
30084,Tucker,GA,408900.0
33611,Tampa,FL,550000.0
40220,Louisville,KY,258500.0
46203,Indianapolis,IN,309900.0
08360,Vineland,NJ,199900.0
48310,Sterling Heights,MI,257250.0
19063,Middletown,PA,496490.0
37174,Spring Hill,TN,417900.0
97224,Tigard,OR,579900.0
11249,New York,NY,1630000.0
28273,Charlotte,NC,316715.0
87505,Santa Fe,NM,747500.0
70056,Gretna,LA,335000.0
70808,Baton Rouge,LA,414500.0
32127,Port Orange,FL,424995.0
33401,West Palm Beach,FL,719000.0
43110,Columbus,OH,317990.0
91320,Thousand Oaks,CA,920000.0
27330,Sanford,NC,229450.0
33172,Fountainbleau,FL,525000.0
30305,Atlanta,GA,799000.0
23111,Mechanicsville,VA,364950.0
84321,Logan,UT,349900.0
90291,Los Angeles,CA,2112500.0
85286,Chandler,AZ,435000.0
21060,Glen Burnie,MD,449950.0
33032,Princeton,FL,428950.0
28208,Charlotte,NC,376950.0
72712,Bentonville,AR,370000.0
80205,Denver,CO,645000.0
33018,Hialeah,FL,449900.0
80524,Fort Collins,CO,710000.0
97080,Gresham,OR,559950.0
80126,Highlands Ranch,CO,668200.0
30252,McDonough,GA,350490.0
78041,Laredo,TX,299900.0
31405,Savannah,GA,339950.0
30102,Acworth,GA,346600.0
64804,Joplin,MO,244950.0
34232,Sarasota,FL,449450.0
80228,Lakewood,CO,699000.0
91423,Los Angeles,CA,1495000.0
14612,Greece,NY,251950.0
30213,Fairburn,GA,359950.0
90065,Los Angeles,CA,1124500.0
33880,Winter Haven,FL,253445.0
75075,Plano,TX,364000.0
96753,Kihei,HI,1399000.0
17403,York,PA,372900.0
02128,Boston,MA,679900.0
31210,Macon,GA,329000.0
37207,Nashville,TN,423000.0
33155,Coral Terrace,FL,492000.0
95928,Chico,CA,475000.0
34983,Port Saint Lucie,FL,335000.0
35630,Florence,AL,236950.0
32506,Pensacola,FL,310000.0
33193,Kendall West,FL,450000.0
33131,Miami,FL,689950.0
58078,West Fargo,ND,412450.0
78006,Boerne,TX,436900.0
61832,Danville,IL,139700.0
70122,New Orleans,LA,357000.0
50023,Ankeny,IA,324900.0
28092,Lincolnton,NC,375450.0
70117,New Orleans,LA,385000.0
92584,Menifee,CA,479000.0
48917,Lansing,MI,239800.0
77009,Houston,TX,439000.0
85086,Anthem,AZ,475000.0
30132,Dallas,GA,358570.0
33133,Miami,FL,1250000.0
23231,Henrico,VA,349950.0
33014,Hialeah,FL,495000.0
98908,Yakima,WA,373950.0
84020,Draper,UT,686613.5
60302,Oak Park,IL,564900.0
64801,Joplin,MO,210000.0
75154,Glenn Heights,TX,397496.5
77096,Houston,TX,399000.0
33604,Tampa,FL,339900.0
92084,Vista,CA,915000.0
06040,Manchester,CT,339900.0
30458,Statesboro,GA,320000.0
76262,Trophy Club,TX,537900.0
33702,Saint Petersburg,FL,365000.0
76180,North Richland Hills,TX,375450.0
95404,Santa Rosa,CA,1295000.0
90292,Los Angeles,CA,1450000.0
27502,Apex,NC,426317.5
90069,West Hollywood,CA,3400000.0
44145,Westlake,OH,409900.0
60068,Park Ridge,IL,499000.0
78154,Schertz,TX,324983.0
87144,Rio Rancho,NM,328725.0
28607,Boone,NC,499000.0
89101,Las Vegas,NV,447450.0
92243,El Centro,CA,312500.0
21208,Pikesville,MD,500000.0
34110,Naples,FL,925000.0
54313,Howard,WI,312450.0
98026,Edmonds,WA,862475.0
40515,Lexington,KY,359900.0
63304,Weldon Spring,MO,363450.0
89012,Henderson,NV,475000.0
92019,El Cajon,CA,894950.0
19966,Millsboro,DE,417500.0
30338,Dunwoody,GA,524950.0
33952,Port Charlotte,FL,410000.0
90405,Santa Monica,CA,1750000.0
48154,Livonia,MI,269949.5
11365,New York,NY,955000.0
93313,Bakersfield,CA,302050.0
43147,Pickerington,OH,330990.0
89523,Reno,NV,579900.0
28625,Statesville,NC,442450.0
60031,Gurnee,IL,369450.0
55369,Maple Grove,MN,434900.0
08844,Hillsborough,NJ,769900.0
84096,Herriman,UT,535000.0
75081,Richardson,TX,353350.0
85614,Green Valley,AZ,369000.0
21014,Bel Air,MD,425000.0
51503,Council Bluffs,IA,335595.0
19958,Lewes,DE,449995.0
78749,Austin,TX,447000.0
55330,Elk River,MN,379900.0
63119,Webster Groves,MO,349900.0
38018,Memphis,TN,295450.0
99206,Spokane Valley,WA,375000.0
30294,Conley,GA,395275.0
37643,Elizabethton,TN,244700.0
40229,Louisville,KY,249900.0
92308,Apple Valley,CA,534950.0
89149,Las Vegas,NV,550000.0
76210,Denton,TX,368490.0
20814,Bethesda,MD,1219500.0
29063,Irmo,SC,281400.0
86442,Bullhead City,AZ,350000.0
17404,Manchester,PA,281000.0
48423,Davison,MI,221900.0
53066,Oconomowoc,WI,449900.0
60074,Palatine,IL,354995.0
86004,Flagstaff,AZ,604000.0
46260,Indianapolis,IN,349900.0
30701,Calhoun,GA,255900.0
77035,Houston,TX,364999.0
10013,New York,NY,3950000.0
23831,Chester,VA,329990.0
48127,Dearborn Heights,MI,359900.0
63901,Poplar Bluff,MO,239900.0
53188,Waukesha,WI,429900.0
92307,Apple Valley,CA,515000.0
73401,Ardmore,OK,226500.0
28214,Charlotte,NC,339900.0
11231,New York,NY,1649000.0
23060,Glen Allen,VA,389950.0
75069,McKinney,TX,437484.5
17112,Lower Paxton,PA,325000.0
33573,Sun City Center,FL,324900.0
38002,Lakeland,TN,314900.0
11367,New York,NY,929000.0
98502,Olympia,WA,564950.0
46112,Brownsburg,IN,323945.0
95757,Elk Grove,CA,549000.0
32163,The Villages,FL,409950.0
27560,Morrisville,NC,385000.0
92262,Palm Springs,CA,699000.0
77471,Rosenberg,TX,330000.0
99352,Richland,WA,438425.0
83201,Pocatello,ID,339900.0
30269,Peachtree City,GA,439950.0
52240,Iowa City,IA,389900.0
27217,Burlington,NC,227200.0
90266,Manhattan Beach,CA,2599000.0
95973,Chico,CA,479000.0
94582,San Ramon,CA,1499999.0
92505,Riverside,CA,499998.5
63146,Creve Coeur,MO,299450.0
01760,Natick,MA,807400.0
58503,Bismarck,ND,437500.0
98056,Renton,WA,926975.0
75220,Dallas,TX,837000.0
83815,Coeur d'Alene,ID,491292.0
15206,Pittsburgh,PA,364500.0
92705,North Tustin,CA,1325000.0
91360,Thousand Oaks,CA,845000.0
60047,Lake Zurich,IL,541195.0
92649,Huntington Beach,CA,1497000.0
17013,Carlisle,PA,318950.0
60030,Grayslake,IL,350000.0
30092,Peachtree Corners,GA,447450.0
26508,Brookhaven,WV,399000.0
91604,Los Angeles,CA,1929000.0
21042,Ellicott City,MD,685000.0
83401,Idaho Falls,ID,300000.0
13027,Lysander,NY,264990.0
58701,Minot,ND,359900.0
22015,Burke,VA,640000.0
92373,Redlands,CA,649950.0
29710,Clover,SC,377195.0
43402,Bowling Green,OH,237200.0
12020,Milton,NY,359450.0
44095,Eastlake,OH,314213.5
55082,Stillwater,MN,555000.0
80204,Denver,CO,649900.0
37919,Knoxville,TN,454450.0
40207,Louisville,KY,359999.0
43221,Upper Arlington,OH,465000.0
10304,New York,NY,924500.0
29466,Mount Pleasant,SC,548450.0
74014,Broken Arrow,OK,243900.0
95991,Yuba City,CA,347200.0
47403,Bloomington,IN,306900.0
72023,Cabot,AR,254900.0
85042,Phoenix,AZ,449000.0
80221,Sherrelwood,CO,549900.0
90505,Torrance,CA,1095000.0
72120,Sherwood,AR,269900.0
12901,Plattsburgh,NY,274700.0
60564,Naperville,IL,474900.0
33710,Saint Petersburg,FL,364900.0
60103,Bartlett,IL,375000.0
78586,San Benito,TX,229743.5
77356,Montgomery,TX,527900.0
89139,Las Vegas,NV,449990.0
57702,Rapid City,SD,429900.0
33884,Winter Haven,FL,275000.0
08302,Bridgeton,NJ,219945.0
30033,Decatur,GA,430000.0
43614,Toledo,OH,184900.0
29605,Greenville,SC,459900.0
60137,Glen Ellyn,IL,519450.0
20120,Centreville,VA,867450.0
18966,Northampton,PA,429900.0
28405,Wilmington,NC,729450.0
40391,Winchester,KY,315000.0
22031,Fairfax,VA,772450.0
28348,Hope Mills,NC,239900.0
17011,Lower Allen,PA,282400.0
98117,Seattle,WA,882000.0
78418,Corpus Christi,TX,310250.0
29650,Greer,SC,311990.0
85379,Surprise,AZ,379999.0
23235,Bon Air,VA,359000.0
85233,Gilbert,AZ,402499.5
47630,Newburgh,IN,257900.0
30180,Villa Rica,GA,379000.0
36526,Daphne,AL,369900.0
89102,Las Vegas,NV,499499.5
96707,Kapolei,HI,1074000.0
28792,Hendersonville,NC,401500.0
10583,Scarsdale,NY,1200000.0
21113,Odenton,MD,479900.0
15401,Uniontown,PA,279500.0
32084,Saint Augustine,FL,349950.0
31406,Savannah,GA,394750.0
21403,Annapolis,MD,578206.0
45503,Springfield,OH,189900.0
59715,Bozeman,MT,875000.0
49855,Marquette,MI,323950.0
85213,Mesa,AZ,458000.0
15001,Hopewell,PA,283900.0
34109,Naples,FL,777000.0
82009,Cheyenne,WY,417950.0
97322,Albany,OR,326400.0
85718,Tucson,AZ,625000.0
22980,Waynesboro,VA,349900.0
33950,Punta Gorda,FL,460300.0
45458,Centerville,OH,319900.0
60202,Evanston,IL,450000.0
98006,Bellevue,WA,1199950.0
17402,York,PA,285614.5
37922,Knoxville,TN,439900.0
21157,Westminster,MD,469900.0
99507,Anchorage,AK,594999.0
77079,Houston,TX,550000.0
30189,Woodstock,GA,384990.0
10075,New York,NY,1577000.0
01545,Shrewsbury,MA,540000.0
98155,Shoreline,WA,889500.0
77092,Houston,TX,344999.5
50265,West Des Moines,IA,335000.0
72762,Springdale,AR,362500.0
84401,Ogden,UT,420000.0
70817,Baton Rouge,LA,315000.0
21784,Sykesville,MD,537450.0
60504,Aurora,IL,349900.0
34491,Summerfield,FL,259900.0
77006,Houston,TX,599900.0
28303,Fayetteville,NC,259900.0
85257,Scottsdale,AZ,420000.0
23323,Chesapeake,VA,388995.0
10301,New York,NY,869000.0
98059,Renton,WA,874450.0
34285,Venice,FL,549000.0
84106,Salt Lake City,UT,500000.0
54311,Green Bay,WI,284900.0
08332,Millville,NJ,215000.0
08807,Bridgewater,NJ,699000.0
30329,North Druid Hills,GA,499900.0
02864,Cumberland,RI,437450.0
03102,Manchester,NH,360400.0
32812,Orlando,FL,366500.0
32250,Jacksonville Beach,FL,517900.0
97404,Eugene,OR,398700.0
50010,Ames,IA,299900.0
80920,Colorado Springs,CO,439900.0
97478,Springfield,OR,492000.0
30087,Stone Mountain,GA,405260.0
59801,Missoula,MT,440000.0
80031,Westminster,CO,604900.0
93619,Clovis,CA,452450.0
34243,Sarasota,FL,442500.0
32503,Pensacola,FL,349000.0
63010,Arnold,MO,275000.0
72143,Searcy,AR,247500.0
88011,Las Cruces,NM,299995.0
80206,Denver,CO,1075000.0
33060,Pompano Beach,FL,589999.5
63109,Saint Louis,MO,299900.0
13126,Oswego,NY,234950.0
19904,Dover,DE,297900.0
75038,Irving,TX,554490.0
34208,Bradenton,FL,695000.0
27104,Winston-Salem,NC,399000.0
44266,Ravenna,OH,234990.0
17111,Lower Paxton,PA,298200.0
75701,Tyler,TX,329700.0
77056,Houston,TX,999375.0
91748,Rowland Heights,CA,1129999.0
99223,Spokane,WA,449950.0
66614,Topeka,KS,199900.0
11590,Westbury,NY,699495.0
28677,Statesville,NC,374000.0
60586,Plainfield,IL,362450.0
33462,Lantana,FL,831200.0
76706,Waco,TX,280000.0
15212,Pittsburgh,PA,274950.0
59601,Helena,MT,391500.0
34108,Naples,FL,1299000.0
68521,Lincoln,NE,297539.0
44004,Ashtabula,OH,184700.0
92591,Temecula,CA,530000.0
33140,Miami Beach,FL,889000.0
23503,Norfolk,VA,399900.0
34759,Poinciana,FL,266494.5
40165,Shepherdsville,KY,268990.0
97209,Portland,OR,747000.0
36532,Fairhope,AL,449900.0
46123,Avon,IN,298990.0
63011,Ballwin,MO,352450.0
58801,Williston,ND,362500.0
85023,Phoenix,AZ,539500.0
54729,Chippewa Falls,WI,259900.0
32082,Ponte Vedra Beach,FL,796500.0
32258,Jacksonville,FL,319900.0
91607,Los Angeles,CA,1164450.0
94534,Fairfield,CA,642400.0
75087,Rockwall,TX,400932.5
24112,Martinsville,VA,179900.0
76248,Keller,TX,485000.0
80209,Denver,CO,899450.0
97214,Portland,OR,679000.0
08080,Washington,NJ,379900.0
30014,Covington,GA,449000.0
44039,North Ridgeville,OH,264490.0
32205,Jacksonville,FL,449900.0
70806,Baton Rouge,LA,375000.0
28358,Lumberton,NC,176800.0
16101,New Castle,PA,177000.0
37312,Cleveland,TN,289900.0
32904,West Melbourne,FL,349400.0
10012,New York,NY,3050000.0
60607,Chicago,IL,599000.0
32578,Niceville,FL,490000.0
92570,Perris,CA,595000.0
62269,O Fallon,IL,285000.0
92374,Redlands,CA,545000.0
93635,Los Banos,CA,368500.0
07666,Teaneck,NJ,734950.0
28031,Cornelius,NC,550000.0
60612,Chicago,IL,499450.0
48642,Midland,MI,289000.0
23321,Chesapeake,VA,395000.0
33029,Pembroke Pines,FL,510000.0
45036,Lebanon,OH,335745.0
19901,Dover,DE,314945.0
62301,Quincy,IL,199000.0
77381,The Woodlands,TX,469700.0
48312,Sterling Heights,MI,263700.0
23832,Chesterfield,VA,369450.0
33905,Fort Myers,FL,438673.0
61401,Galesburg,IL,156700.0
48313,Sterling Heights,MI,276900.0
54880,Superior,WI,245000.0
33404,Riviera Beach,FL,725000.0
98683,Vancouver,WA,575000.0
56601,Bemidji,MN,281350.0
34113,Naples,FL,790000.0
85367,Yuma,AZ,254950.0
37830,Oak Ridge,TN,315000.0
92879,Corona,CA,519450.0
96001,Redding,CA,449000.0
77354,The Woodlands,TX,425000.0
29301,Spartanburg,SC,265000.0
18951,Richland,PA,399900.0
27511,Cary,NC,518000.0
91362,Thousand Oaks,CA,1199000.0
78415,Corpus Christi,TX,433900.0
19606,Exeter,PA,269900.0
95380,Turlock,CA,524475.0
23059,Glen Allen,VA,524970.0
91311,Los Angeles,CA,1354497.0
20815,Chevy Chase,MD,1424856.0
77377,Tomball,TX,374500.0
60007,Elk Grove Village,IL,379900.0
53132,Franklin,WI,374700.0
06405,Branford,CT,535000.0
08723,Brick,NJ,749000.0
33713,Saint Petersburg,FL,349980.0
34683,Palm Harbor,FL,424900.0
90048,Los Angeles,CA,2150000.0
60565,Naperville,IL,476500.0
85339,Phoenix,AZ,399995.0
91701,Rancho Cucamonga,CA,579450.0
85258,Scottsdale,AZ,579000.0
89178,Las Vegas,NV,457000.0
78723,Austin,TX,449995.0
64068,Liberty,MO,342000.0
77706,Beaumont,TX,259900.0
97213,Portland,OR,599900.0
30341,Chamblee,GA,471395.0
45103,Batavia,OH,285000.0
11040,North New Hyde Park,NY,789999.0
34957,Jensen Beach,FL,420000.0
37206,Nashville,TN,465000.0
40245,Louisville,KY,405000.0
30342,Sandy Springs,GA,899000.0
14086,Lancaster,NY,299900.0
34120,Naples,FL,700000.0
15236,Whitehall,PA,249900.0
72653,Mountain Home,AR,289750.0
76131,Fort Worth,TX,339046.0
48178,South Lyon,MI,419990.0
98229,Bellingham,WA,632450.0
78210,San Antonio,TX,408750.0
95765,Rocklin,CA,599900.0
20817,Bethesda,MD,1390000.0
27614,Raleigh,NC,559000.0
78108,Cibolo,TX,305690.0
28079,Indian Trail,NC,330000.0
89521,Reno,NV,549900.0
95835,Sacramento,CA,545694.0
89113,Las Vegas,NV,494338.0
37110,Mc Minnville,TN,219900.0
79416,Lubbock,TX,220000.0
74105,Tulsa,OK,425000.0
45150,Milford,OH,319000.0
27540,Holly Springs,NC,439000.0
32092,Saint Augustine,FL,359000.0
60107,Streamwood,IL,369900.0
32065,Orange Park,FL,349945.0
43214,Columbus,OH,354400.0
63130,University City,MO,432000.0
20010,Washington,DC,792499.5
19083,Havertown,PA,363450.0
30161,Rome,GA,321950.0
98604,Battle Ground,WA,635000.0
34684,Palm Harbor,FL,342400.0
37814,Morristown,TN,239900.0
32541,Destin,FL,779000.0
46033,Carmel,IN,369900.0
92107,San Diego,CA,1087500.0
80521,Fort Collins,CO,675000.0
46062,Noblesville,IN,329995.0
98926,Ellensburg,WA,535000.0
77365,Porter,TX,395480.0
29708,Fort Mill,SC,419900.0
33764,Clearwater,FL,375900.0
46074,Westfield,IN,387900.0
11357,New York,NY,1180000.0
39532,Biloxi,MS,269900.0
49417,Grand Haven,MI,399900.0
98116,Seattle,WA,898950.0
27302,Mebane,NC,275000.0
76065,Midlothian,TX,373808.0
77304,Conroe,TX,432450.0
72032,Conway,AR,310000.0
44133,North Royalton,OH,329900.0
45215,Reading,OH,399000.0
33071,Coral Springs,FL,449900.0
92612,Irvine,CA,1025000.0
92264,Palm Springs,CA,794500.0
93555,Ridgecrest,CA,327000.0
19047,Middletown,PA,439900.0
95688,Vacaville,CA,687925.0
32571,Pace,FL,289000.0
93292,Visalia,CA,295950.0
37160,Shelbyville,TN,271500.0
32958,Sebastian,FL,484900.0
90068,Los Angeles,CA,1699500.0
98370,Poulsbo,WA,633894.0
20170,Herndon,VA,684950.0
93012,Camarillo,CA,1157500.0
97211,Portland,OR,639900.0
86001,Flagstaff,AZ,649000.0
21136,Reisterstown,MD,602490.0
92867,Orange,CA,1083500.0
85048,Phoenix,AZ,465000.0
46168,Plainfield,IN,290990.0
71270,Ruston,LA,317300.0
33334,Oakland Park,FL,475000.0
72956,Van Buren,AR,215000.0
84062,Pleasant Grove,UT,598000.0
02816,Coventry,RI,419900.0
91107,Pasadena,CA,1483400.0
29715,Fort Mill,SC,374995.0
98144,Seattle,WA,825000.0
29841,North Augusta,SC,279900.0
77025,Houston,TX,475000.0
30060,Marietta,GA,439900.0
33143,Glenvar Heights,FL,1250000.0
28409,Wilmington,NC,449250.0
48640,Midland,MI,255500.0
78717,Austin,TX,489900.0
03301,Concord,NH,399900.0
50401,Mason City,IA,226750.0
73012,Edmond,OK,299999.0
30315,Atlanta,GA,444950.0
33813,Lakeland Highlands,FL,294900.0
49341,Rockford,MI,339000.0
76227,Aubrey,TX,379278.5
54401,Wausau,WI,274900.0
33903,North Fort Myers,FL,388500.0
23229,Henrico,VA,563075.0
93401,San Luis Obispo,CA,999000.0
65714,Nixa,MO,299000.0
32301,Tallahassee,FL,278550.0
56401,Brainerd,MN,389000.0
33990,Cape Coral,FL,389700.0
62025,Edwardsville,IL,365000.0
77380,The Woodlands,TX,729900.0
40241,Louisville,KY,375000.0
75230,Dallas,TX,1100000.0
30030,Decatur,GA,599900.0
50701,Waterloo,IA,291468.0
81301,Durango,CO,874900.0
37923,Knoxville,TN,314000.0
38104,Memphis,TN,309900.0
89183,Las Vegas,NV,522945.0
28211,Charlotte,NC,662500.0
60543,Oswego,IL,349950.0
60659,Chicago,IL,399000.0
78628,Georgetown,TX,499900.0
42001,Paducah,KY,246250.0
60060,Mundelein,IL,410000.0
60005,Arlington Heights,IL,439462.5
71603,Pine Bluff,AR,152800.0
28270,Charlotte,NC,493750.0
10305,New York,NY,688999.5
36303,Dothan,AL,249900.0
50322,Urbandale,IA,287500.0
08820,Edison,NJ,799950.0
28056,Gastonia,NC,350000.0
33803,Lakeland,FL,385260.0
84003,American Fork,UT,699950.0
76132,Fort Worth,TX,406990.0
30308,Atlanta,GA,499900.0
40511,Lexington,KY,315242.0
60517,Woodridge,IL,377000.0
33460,Lake Worth,FL,564000.0
33823,Auburndale,FL,299000.0
61107,Rockford,IL,218500.0
71901,Hot Springs,AR,326950.0
36535,Foley,AL,379900.0
33432,Boca Raton,FL,1450000.0
32168,New Smyrna Beach,FL,394000.0
37876,Sevierville,TN,324999.0
20007,Washington,DC,1299499.5
42071,Murray,KY,287500.0
47711,Evansville,IN,210082.0
36832,Auburn,AL,356199.0
66049,Lawrence,KS,363500.0
29455,Charleston,SC,799000.0
37803,Maryville,TN,374900.0
33705,Saint Petersburg,FL,440900.0
34134,Bonita Springs,FL,789000.0
01810,Andover,MA,829000.0
61614,Peoria,IL,224900.0
77566,Lake Jackson,TX,369950.0
22102,McLean,VA,1499000.0
96740,Kailua Kona,HI,840000.0
14626,Greece,NY,252400.0
19426,Upper Providence,PA,460000.0
24073,Christiansburg,VA,279900.0
06340,Groton,CT,629900.0
29349,Inman,SC,249950.0
29642,Easley,SC,297900.0
15146,Monroeville,PA,289000.0
60101,Addison,IL,395000.0
30265,Newnan,GA,393785.0
55311,Maple Grove,MN,494900.0
85014,Phoenix,AZ,500000.0
06489,Southington,CT,414900.0
22630,Front Royal,VA,445490.0
54016,Hudson,WI,497400.0
92065,Ramona,CA,885000.0
84065,Riverton,UT,595900.0
75252,Dallas,TX,495000.0
65401,Rolla,MO,239900.0
34990,Palm City,FL,499900.0
84403,Ogden,UT,475000.0
40502,Lexington,KY,554350.0
74074,Stillwater,OK,283950.0
78731,Austin,TX,769000.0
95382,Turlock,CA,444450.0
70123,River Ridge,LA,382000.0
59105,Billings,MT,345000.0
87107,Albuquerque,NM,494900.0
77389,The Woodlands,TX,509995.0
92203,Indio,CA,552500.0
48152,Livonia,MI,309900.0
92629,Dana Point,CA,1602000.0
43560,Sylvania,OH,284900.0
95661,Roseville,CA,644000.0
97703,Bend,OR,775000.0
42003,Paducah,KY,240000.0
14424,Canandaigua,NY,319900.0
32086,Saint Augustine,FL,333100.0
44281,Wadsworth,OH,320897.5
30312,Atlanta,GA,485000.0
43420,Fremont,OH,199500.0
85268,Fountain Hills,AZ,592500.0
95301,Atwater,CA,395000.0
28752,Marion,NC,299500.0
33770,Largo,FL,475000.0
30068,Marietta,GA,524900.0
34652,New Port Richey,FL,475000.0
94526,Danville,CA,1599000.0
61821,Champaign,IL,227400.0
89135,Las Vegas,NV,599450.0
74820,Ada,OK,199900.0
29550,Hartsville,SC,259000.0
30005,Alpharetta,GA,479450.0
06770,Naugatuck,CT,325000.0
23505,Norfolk,VA,434700.0
27205,Asheboro,NC,264950.0
60532,Lisle,IL,429900.0
46142,Greenwood,IN,289950.0
77382,The Woodlands,TX,529500.0
95482,Ukiah,CA,652000.0
68025,Fremont,NE,275000.0
49426,Hudsonville,MI,319900.0
93245,Lemoore,CA,297000.0
80111,Greenwood Village,CO,799000.0
63108,Saint Louis,MO,399000.0
96813,Honolulu,HI,1188000.0
60174,Saint Charles,IL,479000.0
33317,Plantation,FL,469000.0
27253,Graham,NC,254800.0
06611,Trumbull,CT,655000.0
21212,Baltimore,MD,599999.5
95361,Oakdale,CA,495000.0
23606,Newport News,VA,384950.0
23518,Norfolk,VA,429924.0
60046,Lake Villa,IL,359450.0
52601,Burlington,IA,209900.0
75238,Dallas,TX,449000.0
91789,Walnut,CA,1292500.0
97355,Lebanon,OR,399900.0
29486,Summerville,SC,421100.0
43220,Upper Arlington,OH,469900.0
32909,Palm Bay,FL,309900.0
34689,Tarpon Springs,FL,388500.0
67846,Garden City,KS,249900.0
32570,Milton,FL,276000.0
34986,Port Saint Lucie,FL,359000.0
29212,Columbia,SC,299450.0
96002,Redding,CA,412375.0
32312,Tallahassee,FL,385000.0
98290,Snohomish,WA,799500.0
85140,Queen Creek,AZ,482000.0
30078,Snellville,GA,436771.0
32080,Saint Augustine,FL,439900.0
77550,Galveston,TX,432000.0
97304,Salem,OR,399900.0
44106,Cleveland,OH,399950.0
21144,Severn,MD,474150.0
32405,Panama City,FL,355374.0
11364,New York,NY,981500.0
37664,Kingsport,TN,294900.0
92270,Rancho Mirage,CA,779000.0
75033,Frisco,TX,491672.0
48236,Grosse Pointe Woods,MI,385000.0
80120,Littleton,CO,600000.0
53562,Middleton,WI,484100.0
69101,North Platte,NE,259900.0
29609,Greenville,SC,355000.0
40503,Lexington,KY,289900.0
15102,Bethel Park,PA,260000.0
17522,Ephrata,PA,313250.0
65536,Lebanon,MO,259900.0
64119,Kansas City,MO,314900.0
85212,Mesa,AZ,399900.0
98513,Lacey,WA,485000.0
48603,Saginaw,MI,229900.0
91711,Claremont,CA,1419500.0
60525,La Grange,IL,539500.0
02118,Boston,MA,1195000.0
97520,Ashland,OR,625000.0
55118,West Saint Paul,MN,649900.0
43040,Marysville,OH,319000.0
62226,Belleville,IL,265900.0
08016,Burlington,NJ,369999.0
32607,Gainesville,FL,361200.0
37072,Goodlettsville,TN,399900.0
58601,Dickinson,ND,357000.0
49546,Cascade,MI,400000.0
68701,Norfolk,NE,319900.0
08742,Point Pleasant,NJ,899900.0
63128,Concord,MO,389900.0
92807,Anaheim,CA,1039999.0
85298,Gilbert,AZ,448489.5
48322,West Bloomfield,MI,384450.0
47274,Seymour,IN,234550.0
52501,Ottumwa,IA,169000.0
66213,Overland Park,KS,379925.0
45005,Franklin,OH,299900.0
33441,Deerfield Beach,FL,574000.0
29640,Easley,SC,320000.0
74403,Muskogee,OK,169900.0
61008,Belvidere,IL,220000.0
91001,Altadena,CA,1100000.0
29582,North Myrtle Beach,SC,379900.0
84604,Provo,UT,810000.0
19087,Radnor,PA,750000.0
28560,New Bern,NC,250917.5
23453,Virginia Beach,VA,386000.0
73703,Enid,OK,245950.0
95409,Santa Rosa,CA,999000.0
45459,Centerville,OH,269700.0
48067,Royal Oak,MI,359000.0
15217,Pittsburgh,PA,482000.0
14127,Orchard Park,NY,379900.0
27455,Greensboro,NC,364950.0
44313,Akron,OH,260000.0
72601,Harrison,AR,229000.0
85050,Phoenix,AZ,549900.0
70809,Baton Rouge,LA,399000.0
89511,Reno,NV,1050000.0
85395,Goodyear,AZ,422490.0
95969,Paradise,CA,439000.0
60098,Woodstock,IL,399950.0
64114,Kansas City,MO,307450.0
46151,Martinsville,IN,337450.0
91326,Los Angeles,CA,1099000.0
29680,Simpsonville,SC,289900.0
32459,Santa Rosa Beach,FL,799850.0
02840,Newport,RI,729000.0
76049,Granbury,TX,448950.0
30705,Chatsworth,GA,250000.0
77019,Houston,TX,759000.0
12309,Niskayuna,NY,369900.0
45701,Athens,OH,298900.0
86406,Lake Havasu City,AZ,399900.0
76901,San Angelo,TX,259450.0
33594,Valrico,FL,349000.0
85750,Tucson,AZ,515000.0
53217,Whitefish Bay,WI,479000.0
70501,Lafayette,LA,227500.0
89002,Henderson,NV,419500.0
07840,Hackettstown,NJ,371450.0
32720,Deland,FL,349900.0
11554,East Meadow,NY,729000.0
33138,Miami,FL,714950.0
46205,Indianapolis,IN,340000.0
31404,Savannah,GA,405000.0
90064,Los Angeles,CA,1825000.0
95337,Manteca,CA,511744.5
55016,Cottage Grove,MN,406990.0
43537,Maumee,OH,275000.0
60441,Lockport,IL,359900.0
65721,Ozark,MO,299900.0
68116,Omaha,NE,308400.0
33326,Weston,FL,545000.0
78212,San Antonio,TX,495000.0
30215,Fayetteville,GA,459000.0
91941,La Mesa,CA,899000.0
74063,Sand Springs,OK,314275.0
97267,Oatfield,OR,585000.0
56308,Alexandria,MN,399900.0
50158,Marshalltown,IA,189900.0
79605,Abilene,TX,229000.0
54304,Green Bay,WI,362400.0
98119,Seattle,WA,1125000.0
97603,Klamath Falls,OR,359000.0
26101,Parkersburg,WV,208500.0
29625,Anderson,SC,344000.0
32309,Tallahassee,FL,369950.0
55372,Prior Lake,MN,502895.0
81001,Pueblo,CO,299900.0
95966,Oroville,CA,426500.0
19002,Upper Dublin,PA,581950.0
64015,Blue Springs,MO,325000.0
70005,Metairie,LA,399000.0
80602,Thornton,CO,575000.0
14534,Pittsford,NY,312000.0
87106,Albuquerque,NM,359500.0
34114,Naples,FL,719000.0
27332,Sanford,NC,259900.0
40004,Bardstown,KY,309900.0
08865,Phillipsburg,NJ,379000.0
92651,Laguna Beach,CA,2796500.0
80237,Denver,CO,595000.0
33076,Parkland,FL,646500.0
80218,Denver,CO,799000.0
78633,Georgetown,TX,497500.0
06512,East Haven,CT,369000.0
08043,Voorhees,NJ,424900.0
98038,Maple Valley,WA,787450.0
32937,Satellite Beach,FL,412000.0
23233,Henrico,VA,450000.0
29745,York,SC,375000.0
60451,New Lenox,IL,359808.0
13090,Liverpool,NY,224900.0
92131,San Diego,CA,1050000.0
16066,Cranberry,PA,390000.0
93422,Atascadero,CA,845000.0
27517,Chapel Hill,NC,596444.0
80214,Lakewood,CO,587000.0
96814,Honolulu,HI,2092000.0
97203,Portland,OR,564000.0
89130,Las Vegas,NV,412450.0
34223,Englewood,FL,549900.0
80122,Centennial,CO,574000.0
48446,Lapeer,MI,350000.0
49506,Grand Rapids,MI,425000.0
55116,Saint Paul,MN,458000.0
93561,Tehachapi,CA,350000.0
45230,Cincinnati,OH,349000.0
10038,New York,NY,1750000.0
33837,Davenport,FL,282837.5
97306,Salem,OR,429900.0
97321,Albany,OR,439000.0
28209,Charlotte,NC,485990.0
22042,Falls Church,VA,650000.0
50014,Ames,IA,310000.0
84095,South Jordan,UT,599949.5
49024,Portage,MI,279900.0
30214,Fayetteville,GA,415400.0
19119,Philadelphia,PA,404950.0
33156,Pinecrest,FL,1400000.0
29707,Fort Mill,SC,368900.0
60050,McHenry,IL,399000.0
60142,Huntley,IL,350000.0
75039,Irving,TX,527450.0
95682,Shingle Springs,CA,711000.0
21009,Abingdon,MD,431450.0
46804,Fort Wayne,IN,229900.0
17046,Lebanon,PA,279500.0
33183,Kendale Lakes,FL,450000.0
91780,Temple City,CA,1364000.0
83440,Rexburg,ID,435000.0
60714,Niles,IL,375000.0
33407,West Palm Beach,FL,539000.0
43050,Mount Vernon,OH,265000.0
80202,Denver,CO,805000.0
93638,Madera,CA,349000.0
43209,Bexley,OH,472500.0
16509,Millcreek,PA,224999.5
33434,Boca Raton,FL,575000.0
60189,Wheaton,IL,524950.0
12303,Schenectady,NY,354450.0
92110,San Diego,CA,970000.0
43212,Grandview Heights,OH,424900.0
55443,Brooklyn Park,MN,414900.0
89134,Las Vegas,NV,450000.0
73162,Oklahoma City,OK,259400.0
22601,Winchester,VA,424000.0
38117,Memphis,TN,365000.0
60631,Chicago,IL,425000.0
37659,Jonesborough,TN,281450.0
60527,Burr Ridge,IL,649900.0
81504,Grand Junction,CO,317000.0
60656,Chicago,IL,374000.0
60515,Downers Grove,IL,515000.0
21811,Berlin,MD,440990.0
45365,Sidney,OH,269900.0
97471,Roseburg,OR,404950.0
74464,Tahlequah,OK,219900.0
11358,New York,NY,1036601.0
33173,Kendall,FL,499000.0
90039,Los Angeles,CA,1249000.0
55426,Saint Louis Park,MN,387000.0
01089,West Springfield,MA,367450.0
37931,Knoxville,TN,300000.0
37067,Franklin,TN,549999.5
55060,Owatonna,MN,266950.0
95340,Merced,CA,365800.0
11801,Hicksville,NY,659000.0
12010,Amsterdam,NY,224900.0
48317,Shelby,MI,328400.0
54449,Marshfield,WI,248700.0
11787,Smithtown,NY,727000.0
32117,Holly Hill,FL,375000.0
33809,Lakeland,FL,275000.0
91739,Rancho Cucamonga,CA,728000.0
95993,Yuba City,CA,387450.0
34238,Sarasota,FL,489068.0
83814,Coeur d'Alene,ID,850000.0
21075,Elkridge,MD,499900.0
72205,Little Rock,AR,265900.0
30045,Lawrenceville,GA,374950.0
67207,Wichita,KS,247500.0
17022,Elizabethtown,PA,353028.5
32962,Vero Beach,FL,435000.0
16335,Meadville,PA,188950.0
27870,Roanoke Rapids,NC,181000.0
77027,Houston,TX,899999.0
06033,Glastonbury,CT,459700.0
22207,Arlington,VA,1480271.5
33073,Coconut Creek,FL,435000.0
77493,Katy,TX,387423.0
78132,New Braunfels,TX,428450.0
20155,Gainesville,VA,650000.0
55024,Farmington,MN,378950.0
33026,Pembroke Pines,FL,472450.0
75010,Carrollton,TX,423490.0
48045,Harrison,MI,394900.0
20165,Sterling,VA,664900.0
98335,Gig Harbor,WA,933000.0
33626,Westchase,FL,409000.0
60035,Highland Park,IL,649000.0
38506,Cookeville,TN,289000.0
77630,Orange,TX,270000.0
08822,Raritan,NJ,699950.0
98512,Tumwater,WA,479450.0
32408,Panama City,FL,434900.0
93420,Arroyo Grande,CA,979000.0
70364,Houma,LA,232500.0
12205,Colonie,NY,404900.0
55912,Austin,MN,267250.0
19038,Abington,PA,422000.0
43082,Westerville,OH,414750.0
43512,Defiance,OH,218000.0
30306,Atlanta,GA,860000.0
85331,Phoenix,AZ,599450.0
91403,Los Angeles,CA,1599000.0
15010,Chippewa,PA,277495.0
72113,Maumelle,AR,252000.0
28150,Shelby,NC,294750.0
37205,Nashville,TN,762200.0
75229,Dallas,TX,667450.0
60076,Skokie,IL,409900.0
28146,Salisbury,NC,429000.0
04330,Augusta,ME,286900.0
18015,Bethlehem,PA,555000.0
58554,Mandan,ND,414900.0
46131,Franklin,IN,269000.0
33137,Miami,FL,703500.0
27012,Clemmons,NC,305000.0
33870,Sebring,FL,244950.0
37801,Maryville,TN,299900.0
45431,Beavercreek,OH,249000.0
70503,Lafayette,LA,349900.0
97062,Tualatin,OR,591000.0
96825,Honolulu,HI,1250000.0
76548,Harker Heights,TX,239900.0
78552,Harlingen,TX,233000.0
37323,Cleveland,TN,259900.0
81007,Pueblo,CO,289000.0
06824,Fairfield,CT,999000.0
76182,North Richland Hills,TX,416450.0
78363,Kingsville,TX,239950.0
53095,West Bend,WI,386950.0
29205,Columbia,SC,343950.0
93021,Moorpark,CA,885000.0
21209,Pikesville,MD,539500.0
45236,Deer Park,OH,425000.0
15650,Unity,PA,311950.0
36561,Orange Beach,AL,514990.0
11937,East Hampton,NY,1662500.0
18901,Doylestown,PA,599000.0
12804,Queensbury,NY,324999.0
37743,Greeneville,TN,229900.0
91356,Los Angeles,CA,1699000.0
53105,Rochester,WI,399900.0
64151,Kansas City,MO,425000.0
27278,Hillsborough,NC,420000.0
37415,Chattanooga,TN,339900.0
97070,Wilsonville,OR,614995.0
54494,Wisconsin Rapids,WI,227000.0
85743,Tucson,AZ,329900.0
92675,San Juan Capistrano,CA,1679000.0
44883,Tiffin,OH,177400.0
32757,Mount Dora,FL,389500.0
77018,Houston,TX,415000.0
49686,Traverse City,MI,670000.0
37917,Knoxville,TN,384900.0
29115,Orangeburg,SC,199900.0
77532,Crosby,TX,398000.0
82801,Sheridan,WY,460000.0
94510,Benicia,CA,688000.0
60102,Algonquin,IL,350000.0
68601,Columbus,NE,285000.0
11566,Merrick,NY,799999.0
80301,Boulder,CO,973000.0
12302,Glenville,NY,394450.0
93637,Madera,CA,375000.0
28715,Candler,NC,427700.0
33913,Fort Myers,FL,423450.0
27545,Knightdale,NC,385362.0
28278,Charlotte,NC,390384.5
77535,Dayton,TX,351750.0
84660,Spanish Fork,UT,470462.5
24019,Roanoke,VA,283900.0
98273,Mount Vernon,WA,580250.0
54952,Menasha,WI,325000.0
80304,Boulder,CO,1192000.0
03062,Nashua,NH,400000.0
17110,Susquehanna,PA,299493.0
65616,Branson,MO,299900.0
42431,Madisonville,KY,169900.0
11050,Port Washington,NY,1250000.0
32773,Sanford,FL,335100.0
92869,Orange,CA,1299800.0
98029,Issaquah,WA,984490.0
52806,Davenport,IA,239900.0
33618,Greater Carrollwood,FL,384500.0
76016,Arlington,TX,382000.0
32548,Fort Walton Beach,FL,515000.0
48116,Brighton,MI,375000.0
78703,Austin,TX,950000.0
45750,Marietta,OH,249900.0
36542,Gulf Shores,AL,450000.0
29926,Hilton Head Island,SC,615000.0
34472,Ocala,FL,255000.0
50021,Ankeny,IA,324700.0
92008,Carlsbad,CA,1222000.0
53406,Mount Pleasant,WI,329900.0
77041,Houston,TX,438950.0
74066,Sapulpa,OK,274900.0
40065,Shelbyville,KY,314900.0
76048,Granbury,TX,489900.0
32550,Miramar Beach,FL,585000.0
70360,Houma,LA,344000.0
37311,Cleveland,TN,284950.0
76087,Weatherford,TX,425000.0
22309,Mount Vernon,VA,774000.0
30094,Conyers,GA,377450.0
75208,Dallas,TX,472500.0
98362,Port Angeles,WA,495000.0
23116,Mechanicsville,VA,399950.0
95356,Modesto,CA,487450.0
53072,Pewaukee,WI,552950.0
78626,Georgetown,TX,477614.5
18940,Newtown,PA,760000.0
75032,Rockwall,TX,484900.0
32533,Cantonment,FL,291900.0
18360,Jackson,PA,279900.0
97225,West Haven-Sylvan,OR,725000.0
22079,Lorton,VA,792450.0
83687,Nampa,ID,472495.0
91007,Arcadia,CA,1837500.0
58504,Bismarck,ND,399900.0
17815,Bloomsburg,PA,279000.0
47933,Crawfordsville,IN,229000.0
13905,Binghamton,NY,193700.0
23435,Suffolk,VA,392000.0
30082,Smyrna,GA,399950.0
74075,Stillwater,OK,249900.0
97132,Newberg,OR,682445.0
89141,Las Vegas,NV,489000.0
73132,Oklahoma City,OK,220000.0
83616,Eagle,ID,564900.0
01845,North Andover,MA,749900.0
18045,Palmer,PA,389995.0
28602,Hickory,NC,271950.0
55403,Minneapolis,MN,764500.0
72903,Fort Smith,AR,275000.0
02906,Providence,RI,590000.0
48309,Rochester Hills,MI,369900.0
89011,Henderson,NV,458990.0
46077,Zionsville,IN,484950.0
32806,Orlando,FL,425000.0
98607,Camas,WA,670000.0
43062,Pataskala,OH,298000.0
30013,Conyers,GA,350000.0
62221,Belleville,IL,275000.0
74137,Tulsa,OK,465900.0
34481,Ocala,FL,266043.5
13045,Cortland,NY,225000.0
80919,Colorado Springs,CO,453200.0
86301,Prescott,AZ,489900.0
60181,Villa Park,IL,369996.0
21842,Ocean City,MD,449900.0
78602,Bastrop,TX,484450.0
78260,San Antonio,TX,392495.0
02536,East Falmouth,MA,799000.0
60516,Downers Grove,IL,429450.0
80550,Windsor,CO,479900.0
76020,Azle,TX,407500.0
11710,Bellmore,NY,699000.0
72404,Jonesboro,AR,286400.0
19454,North Wales,PA,479900.0
08003,Cherry Hill,NJ,399000.0
32118,Daytona Beach,FL,468200.0
85742,Tucson,AZ,350000.0
30534,Dawsonville,GA,490000.0
08330,Hamilton,NJ,299000.0
20723,Laurel,MD,574990.0
78750,Austin,TX,587000.0
20191,Reston,VA,670000.0
78746,Austin,TX,1499000.0
22101,McLean,VA,1549000.0
51106,Sioux City,IA,278000.0
29566,Little River,SC,317000.0
19125,Philadelphia,PA,439000.0
98802,East Wenatchee Bench,WA,509000.0
06109,Wethersfield,CT,359900.0
48108,Pittsfield,MI,499900.0
95603,Auburn,CA,675000.0
07042,Montclair,NJ,799000.0
97086,Happy Valley,OR,629950.0
72211,Little Rock,AR,335000.0
08226,Ocean City,NJ,849900.0
80234,Westminster,CO,584975.0
94549,Lafayette,CA,1912500.0
32819,Doctor Phillips,FL,469900.0
77833,Brenham,TX,399950.0
97068,West Linn,OR,708950.0
28104,Stallings,NC,520000.0
21801,Salisbury,MD,437450.0
01757,Milford,MA,439900.0
55105,Saint Paul,MN,512450.0
22315,Franconia,VA,674990.0
27514,Chapel Hill,NC,699000.0
33772,Seminole,FL,327000.0
31324,Richmond Hill,GA,315175.0
44685,Uniontown,OH,270450.0
29673,Piedmont,SC,291900.0
34202,Bradenton,FL,599000.0
74011,Broken Arrow,OK,288000.0
37203,Nashville,TN,549900.0
73069,Norman,OK,311970.0
95677,Rocklin,CA,591245.0
77515,Angleton,TX,409681.0
95348,Merced,CA,339000.0
80138,Parker,CO,625000.0
70815,Baton Rouge,LA,249900.0
31021,Dublin,GA,249000.0
17325,Cumberland,PA,371495.0
77021,Houston,TX,398500.0
34471,Ocala,FL,325000.0
64093,Warrensburg,MO,287450.0
79606,Abilene,TX,264900.0
92595,Wildomar,CA,490000.0
55347,Eden Prairie,MN,575000.0
33703,Saint Petersburg,FL,489000.0
97035,Lake Oswego,OR,749900.0
37215,Nashville,TN,875000.0
70791,Zachary,LA,335000.0
08050,Ocean Acres,NJ,699000.0
77301,Conroe,TX,380450.0
38024,Dyersburg,TN,199900.0
98021,Bothell,WA,859950.0
48220,Ferndale,MI,269900.0
80923,Colorado Springs,CO,399450.0
80129,Highlands Ranch,CO,619900.0
29801,Aiken,SC,329900.0
60423,Frankfort,IL,449350.0
48042,Macomb,MI,332445.0
37849,Powell,TN,280000.0
46202,Indianapolis,IN,400000.0
30340,Doraville,GA,362450.0
32779,Longwood,FL,530000.0
21601,Easton,MD,995000.0
76710,Waco,TX,299950.0
99337,Kennewick,WA,420000.0
37388,Tullahoma,TN,307400.0
49418,Grandville,MI,344585.5
67037,Derby,KS,234108.5
33019,Hollywood,FL,682000.0
32789,Winter Park,FL,753450.0
55811,Duluth,MN,296950.0
29909,Okatie,SC,615670.0
33701,Saint Petersburg,FL,589450.0
60048,Libertyville,IL,525000.0
92663,Newport Beach,CA,2499000.0
28401,Wilmington,NC,497450.0
11228,New York,NY,998000.0
22602,Winchester,VA,401950.0
31322,Pooler,GA,317900.0
32778,Tavares,FL,543289.0
44136,Strongsville,OH,259900.0
77802,Bryan,TX,334000.0
46239,Indianapolis,IN,275495.0
33304,Fort Lauderdale,FL,838950.0
90274,Palos Verdes Estates,CA,2620000.0
33912,Fort Myers,FL,449350.0
33487,Boca Raton,FL,675000.0
93704,Fresno,CA,417500.0
08205,Galloway,NJ,298250.0
22310,Franconia,VA,649900.0
93035,Oxnard,CA,1095000.0
34476,Ocala,FL,234900.0
15216,Pittsburgh,PA,268675.0
80222,Denver,CO,577000.0
19468,Limerick,PA,389445.0
59602,Helena,MT,389900.0
97212,Portland,OR,760000.0
46750,Huntington,IN,187400.0
55419,Minneapolis,MN,529950.0
72223,Little Rock,AR,415000.0
74017,Claremore,OK,309000.0
78259,San Antonio,TX,349495.0
78624,Fredericksburg,TX,639950.0
20175,Leesburg,VA,743495.0
85340,Litchfield Park,AZ,459900.0
37379,Soddy-Daisy,TN,347400.0
25701,Huntington,WV,212400.0
70517,Breaux Bridge,LA,269900.0
11379,New York,NY,799000.0
06851,Norwalk,CT,690000.0
63118,Saint Louis,MO,279000.0
06776,New Milford,CT,525000.0
29316,Boiling Springs,SC,233500.0
61615,Peoria,IL,259350.0
33755,Clearwater,FL,399900.0
60134,Geneva,IL,429900.0
02891,Westerly,RI,719000.0
33145,Miami,FL,498500.0
80005,Arvada,CO,600000.0
15044,Richland,PA,404450.0
48335,Farmington Hills,MI,339000.0
03801,Portsmouth,NH,850000.0
43206,Columbus,OH,399900.0
91763,Montclair,CA,466500.0
99654,Tanaina,AK,465000.0
70461,Slidell,LA,375000.0
25177,Saint Albans,WV,160000.0
52405,Cedar Rapids,IA,249950.0
75218,Dallas,TX,474000.0
33852,Lake Placid,FL,260450.0
28461,Boiling Spring Lakes,NC,499000.0
95219,Stockton,CA,549000.0
48161,Monroe,MI,289900.0
74008,Bixby,OK,285600.0
48316,Shelby,MI,439900.0
63028,Festus,MO,284271.0
33455,Hobe Sound,FL,499000.0
78757,Austin,TX,527000.0
28081,Kannapolis,NC,315740.0
34275,Nokomis,FL,525000.0
60061,Vernon Hills,IL,454500.0
33408,North Palm Beach,FL,705000.0
78702,Austin,TX,549000.0
43035,Columbus,OH,359900.0
23236,Chesterfield,VA,367500.0
70634,Deridder,LA,209000.0
76240,Gainesville,TX,328950.0
37716,Clinton,TN,300000.0
68046,Papillion,NE,407323.5
32233,Atlantic Beach,FL,650000.0
45244,Dry Run,OH,424900.0
21015,Bel Air,MD,499388.0
31522,Saint Simons Island,GA,586250.0
75189,Royse City,TX,363299.0
47203,Columbus,IN,299900.0
38135,Bartlett,TN,256000.0
97201,Portland,OR,867000.0
32963,Vero Beach,FL,827000.0
63755,Jackson,MO,250000.0
62650,Jacksonville,IL,174900.0
40205,Louisville,KY,325850.0
84037,Kaysville,UT,649000.0
48433,Flushing,MI,229075.0
62864,Mount Vernon,IL,148750.0
30012,Conyers,GA,417450.0
04005,Biddeford,ME,669450.0
33496,Boca Raton,FL,1100000.0
33579,Riverview,FL,319951.0
60077,Skokie,IL,389250.0
29169,West Columbia,SC,292999.0
55318,Chaska,MN,499900.0
98011,Bothell,WA,824995.0
92782,Tustin,CA,1340000.0
64152,Parkville,MO,438000.0
55449,Blaine,MN,439900.0
48390,Commerce,MI,399950.0
86401,Kingman,AZ,346950.0
21771,Mount Airy,MD,595450.0
76712,Woodway,TX,310000.0
61350,Ottawa,IL,224900.0
95818,Sacramento,CA,650000.0
76708,Waco,TX,259995.0
65775,West Plains,MO,239450.0
49707,Alpena,MI,172200.0
67601,Hays,KS,302500.0
75089,Rowlett,TX,374950.0
63640,Farmington,MO,224900.0
47408,Bloomington,IN,350000.0
27028,Mocksville,NC,279950.0
60510,Batavia,IL,424500.0
08055,Medford,NJ,460000.0
33543,Wesley Chapel,FL,365000.0
34974,Okeechobee,FL,299000.0
29928,Hilton Head Island,SC,812500.0
30345,Decatur,GA,449450.0
31410,Wilmington Island,GA,399000.0
76123,Fort Worth,TX,340900.0
43004,Blacklick,OH,460115.0
98901,Yakima,WA,399000.0
55068,Rosemount,MN,400000.0
11413,New York,NY,639999.0
70131,New Orleans,LA,449000.0
88005,Las Cruces,NM,382330.0
37303,Athens,TN,239000.0
48167,Northville,MI,637500.0
19355,Malvern,PA,597450.0
47591,Vincennes,IN,239900.0
22802,Harrisonburg,VA,399900.0
60185,West Chicago,IL,389900.0
33629,Tampa,FL,744450.0
78023,Helotes,TX,359000.0
33570,Ruskin,FL,399900.0
54130,Kaukauna,WI,287250.0
38119,Memphis,TN,335000.0
72019,Benton,AR,314950.0
46304,Chesterton,IN,428900.0
85119,Apache Junction,AZ,515000.0
07631,Englewood,NJ,998000.0
76001,Arlington,TX,379990.0
49036,Coldwater,MI,234900.0
93105,Santa Barbara,CA,1399000.0
36109,Montgomery,AL,199900.0
83714,Garden City,ID,475950.0
33706,Saint Pete Beach,FL,624900.0
92653,Laguna Hills,CA,1775000.0
61611,East Peoria,IL,214950.0
22153,Springfield,VA,625000.0
55902,Rochester,MN,499900.0
60018,Des Plaines,IL,385000.0
60655,Chicago,IL,397400.0
98040,Mercer Island,WA,2149000.0
43054,New Albany,OH,551900.0
32003,Fleming Island,FL,359000.0
34747,Citrus Ridge,FL,432990.0
37355,Manchester,TN,269900.0
41051,Independence,KY,268385.0
30143,Jasper,GA,449900.0
91214,Glendale,CA,999000.0
85024,Phoenix,AZ,408000.0
85737,Oro Valley,AZ,379745.0
40206,Louisville,KY,315000.0
07090,Westfield,NJ,947000.0
17901,Pottsville,PA,174500.0
98685,Salmon Creek,WA,581400.0
88012,Las Cruces,NM,259583.5
48906,Lansing,MI,250450.0
97601,Klamath Falls,OR,350000.0
20152,Chantilly,VA,699000.0
98531,Centralia,WA,350000.0
70114,New Orleans,LA,330000.0
07039,Livingston,NJ,912000.0
32308,Tallahassee,FL,314028.0
95003,Aptos,CA,1495000.0
98110,Bainbridge Island,WA,896250.0
70130,New Orleans,LA,559900.0
19053,Lower Southampton,PA,379000.0
29201,Columbia,SC,264250.0
28786,Waynesville,NC,539999.0
76109,Fort Worth,TX,599000.0
74135,Tulsa,OK,244750.0
98221,Anacortes,WA,690000.0
02115,Boston,MA,1225000.0
60646,Chicago,IL,499900.0
76110,Fort Worth,TX,425000.0
02760,North Attleboro,MA,559900.0
60187,Wheaton,IL,515000.0
10956,Ramapo,NY,744500.0
92602,Irvine,CA,1425000.0
32563,Gulf Breeze,FL,355000.0
48315,Shelby,MI,412450.0
33708,Madeira Beach,FL,569900.0
60559,Westmont,IL,399000.0
34639,Land O Lakes,FL,374000.0
98367,Port Orchard,WA,598500.0
38053,Millington,TN,289200.0
43085,Worthington,OH,349900.0
78411,Corpus Christi,TX,389000.0
55378,Savage,MN,429990.0
07920,Bernards,NJ,912450.0
36067,Prattville,AL,251500.0
32803,Orlando,FL,399900.0
32223,Jacksonville,FL,389949.5
42718,Campbellsville,KY,208949.5
77586,Seabrook,TX,379949.5
18301,East Stroudsburg,PA,248500.0
54403,Wausau,WI,299900.0
38632,Hernando,MS,285000.0
40222,Louisville,KY,399900.0
32605,Gainesville,FL,309450.0
92673,San Clemente,CA,1312500.0
46236,Lawrence,IN,375000.0
27565,Oxford,NC,300000.0
53593,Verona,WI,419900.0
60544,Plainfield,IL,350990.0
43606,Toledo,OH,204450.0
44903,Mansfield,OH,249900.0
33825,Avon Park,FL,234900.0
30655,Monroe,GA,415000.0
83607,Caldwell,ID,449900.0
55305,Minnetonka,MN,549900.0
33030,Homestead,FL,469990.0
11572,Oceanside,NY,699000.0
85297,Gilbert,AZ,452450.0
30286,Thomaston,GA,223750.0
33325,Davie,FL,600000.0
33830,Bartow,FL,259900.0
63052,Imperial,MO,269900.0
90015,Los Angeles,CA,1499000.0
68803,Grand Island,NE,252000.0
17315,Dover,PA,256020.0
99645,Palmer,AK,549920.0
76226,Lantana,TX,465938.0
28203,Charlotte,NC,492450.0
92679,Coto de Caza,CA,1399000.0
95618,Davis,CA,745000.0
06074,South Windsor,CT,364400.0
32832,Orlando,FL,381600.0
32169,New Smyrna Beach,FL,439850.0
95242,Lodi,CA,528475.0
16506,Millcreek,PA,269900.0
77005,Houston,TX,1299000.0
19971,Rehoboth Beach,DE,599000.0
23113,Midlothian,VA,487480.0
22902,Charlottesville,VA,479900.0
27701,Durham,NC,559900.0
32606,Gainesville,FL,317450.0
46234,Indianapolis,IN,262750.0
29505,Florence,SC,189900.0
85629,Sahuarita,AZ,339000.0
23139,Powhatan,VA,414950.0
52246,Iowa City,IA,410000.0
92694,Ladera Ranch,CA,1179000.0
37804,Maryville,TN,329900.0
77627,Nederland,TX,229999.5
92883,Corona,CA,535490.0
91364,Los Angeles,CA,1289000.0
19810,Arden,DE,377000.0
01002,Amherst,MA,484950.0
45039,Maineville,OH,312900.0
86303,Prescott,AZ,575000.0
60091,Wilmette,IL,679000.0
32967,Vero Beach,FL,445000.0
06880,Westport,CT,1399000.0
70592,Youngsville,LA,240277.5
98072,Woodinville,WA,978990.0
90041,Los Angeles,CA,1089000.0
33967,Fort Myers,FL,439900.0
32960,Vero Beach,FL,550000.0
32966,Vero Beach,FL,380990.0
08755,Toms River,NJ,725000.0
83835,Hayden,ID,639000.0
49444,Muskegon Heights,MI,260900.0
34677,Oldsmar,FL,395000.0
06410,Cheshire,CT,439000.0
40508,Lexington,KY,362450.0
28012,Belmont,NC,355000.0
29045,Elgin,SC,286900.0
43215,Columbus,OH,456000.0
03054,Merrimack,NH,399900.0
07010,Cliffside Park,NJ,849000.0
28804,Asheville,NC,595000.0
60051,Lakemoor,IL,399900.0
97838,Hermiston,OR,329900.0
46375,Schererville,IN,425000.0
28681,Taylorsville,NC,285000.0
28787,Weaverville,NC,469000.0
54650,Onalaska,WI,354900.0
38138,Germantown,TN,364499.5
32043,Green Cove Springs,FL,368990.0
11570,Rockville Centre,NY,821750.0
33328,Davie,FL,579000.0
33625,Citrus Park,FL,368326.0
98516,Lacey,WA,524900.0
77023,Houston,TX,354000.0
34210,Bradenton,FL,529000.0
31763,Leesburg,GA,229700.0
83402,Idaho Falls,ID,335000.0
72116,North Little Rock,AR,234500.0
90254,Hermosa Beach,CA,1875000.0
52403,Cedar Rapids,IA,319000.0
32504,Pensacola,FL,315000.0
34219,Parrish,FL,470990.0
61822,Champaign,IL,334000.0
44116,Rocky River,OH,348500.0
07748,Middletown,NJ,729000.0
40223,Louisville,KY,369900.0
76801,Brownwood,TX,250000.0
53189,Waukesha,WI,379450.0
34105,Naples,FL,1072500.0
55014,Lino Lakes,MN,412400.0
30327,Atlanta,GA,1499000.0
49684,Traverse City,MI,499000.0
44319,Portage Lakes,OH,310000.0
32953,Merritt Island,FL,393990.0
02852,North Kingstown,RI,469900.0
28390,Spring Lake,NC,259900.0
33301,Fort Lauderdale,FL,1250000.0
04101,Portland,ME,525000.0
30028,Cumming,GA,372950.0
48326,Auburn Hills,MI,309000.0
33596,Valrico,FL,360000.0
85259,Scottsdale,AZ,875000.0
75205,University Park,TX,1625000.0
68022,Omaha,NE,434320.0
91752,Eastvale,CA,569999.5
78382,Rockport,TX,335000.0
71446,Leesville,LA,229900.0
27288,Eden,NC,249900.0
54751,Menomonie,WI,279900.0
89084,North Las Vegas,NV,387000.0
92231,Calexico,CA,296950.0
15101,Hampton,PA,325000.0
60002,Antioch,IL,425250.0
48329,Waterford,MI,299900.0
64155,Kansas City,MO,369950.0
07675,River Vale,NJ,828000.0
33901,Fort Myers,FL,619900.0
37862,Sevierville,TN,410000.0
89145,Las Vegas,NV,725000.0
34224,Englewood,FL,449000.0
11414,New York,NY,799000.0
28152,Shelby,NC,217900.0
78734,Lakeway,TX,649375.0
97116,Forest Grove,OR,586250.0
60642,Chicago,IL,535000.0
44012,Avon Lake,OH,349900.0
29020,Camden,SC,299450.0
21146,Severna Park,MD,599450.0
96007,Anderson,CA,415000.0
53916,Beaver Dam,WI,314900.0
33993,Cape Coral,FL,449450.0
30720,Dalton,GA,290000.0
61103,Rockford,IL,239900.0
79902,El Paso,TX,349000.0
99577,Anchorage,AK,524500.0
77551,Galveston,TX,364900.0
80516,Erie,CO,525000.0
28570,Newport,NC,494450.0
04210,Auburn,ME,275000.0
37934,Farragut,TN,427381.0
53150,Muskego,WI,450000.0
68135,Omaha,NE,316906.0
85641,Vail,AZ,363945.0
11731,East Northport,NY,699000.0
29036,Chapin,SC,264500.0
98248,Ferndale,WA,617500.0
29678,Seneca,SC,372200.0
80132,Monument,CO,539900.0
49464,Zeeland,MI,299900.0
07719,Wall,NJ,819900.0
76092,Southlake,TX,879000.0
75082,Richardson,TX,429900.0
15136,Stowe,PA,299900.0
80108,Castle Rock,CO,799000.0
45248,Bridgetown,OH,305900.0
85013,Phoenix,AZ,458000.0
31401,Savannah,GA,479900.0
44857,Norwalk,OH,189900.0
61111,Loves Park,IL,189900.0
61938,Mattoon,IL,179900.0
46256,Indianapolis,IN,374900.0
46725,Columbia City,IN,270000.0
89701,Carson City,NV,464950.0
56201,Willmar,MN,296944.0
38464,Lawrenceburg,TN,209000.0
79934,El Paso,TX,189000.0
60015,Deerfield,IL,635000.0
97071,Woodburn,OR,379900.0
64850,Neosho,MO,199427.0
77583,Arcola,TX,358364.0
27101,Winston-Salem,NC,265000.0
67502,Hutchinson,KS,214900.0
18064,Nazareth,PA,449900.0
77045,Houston,TX,365990.0
33916,Fort Myers,FL,372695.0
95829,Sacramento,CA,634750.0
70448,Mandeville,LA,386950.0
07430,Mahwah,NJ,950000.0
58703,Minot,ND,347449.5
34601,Brooksville,FL,375000.0
18062,Lower Macungie,PA,359900.0
45202,Cincinnati,OH,448200.0
37821,Newport,TN,179900.0
92508,Riverside,CA,529000.0
24551,Forest,VA,348000.0
78738,Bee Cave,TX,599945.0
27262,High Point,NC,339000.0
22180,Vienna,VA,954902.5
32801,Orlando,FL,399000.0
75225,Dallas,TX,1595000.0
55025,Forest Lake,MN,399949.5
10512,Lake Carmel,NY,754500.0
48306,Oakland,MI,532500.0
20653,Lexington Park,MD,393000.0
64014,Blue Springs,MO,342475.0
40383,Versailles,KY,397700.0
06473,North Haven,CT,369900.0
29575,Surfside Beach,SC,354250.0
78133,Canyon Lake,TX,459500.0
73003,Edmond,OK,258450.0
77357,Roman Forest,TX,349995.0
61571,Washington,IL,264900.0
77316,Montgomery,TX,415000.0
10708,Eastchester,NY,1335000.0
81401,Montrose,CO,445000.0
34654,New Port Richey,FL,375000.0
11530,Garden City,NY,999000.0
92604,Irvine,CA,1029895.0
10309,New York,NY,777000.0
27527,Clayton,NC,379990.0
77320,Huntsville,TX,425000.0
44113,Cleveland,OH,369937.5
84009,South Jordan,UT,489900.0
33556,Odessa,FL,400000.0
21114,Crofton,MD,516750.0
98272,Monroe,WA,736105.5
07006,West Caldwell,NJ,836995.0
16510,Erie,PA,229450.0
93314,Rosedale,CA,367749.5
95864,Arden-Arcade,CA,872752.5
80130,Highlands Ranch,CO,569000.0
40422,Danville,KY,289000.0
77355,Stagecoach,TX,519850.0
75160,Terrell,TX,425000.0
07724,Tinton Falls,NJ,749495.0
17036,Hummelstown,PA,399900.0
63104,Saint Louis,MO,371900.0
78410,Corpus Christi,TX,254675.0
30577,Toccoa,GA,279000.0
22032,Fairfax,VA,647344.0
77098,Houston,TX,699250.0
32327,Crawfordville,FL,296700.0
28112,Monroe,NC,353500.0
77414,Bay City,TX,269700.0
11542,Glen Head,NY,899000.0
45247,White Oak,OH,293555.0
66223,Overland Park,KS,365000.0
85085,Phoenix,AZ,449000.0
37615,Johnson City,TN,289900.0
70124,New Orleans,LA,498900.0
08204,Lower,NJ,899995.0
89044,Henderson,NV,444490.0
98597,Yelm,WA,518975.0
17408,Shiloh,PA,279900.0
28037,Denver,NC,399999.0
34772,Saint Cloud,FL,389837.0
55123,Eagan,MN,594900.0
21286,Towson,MD,499000.0
73044,Guthrie,OK,245940.0
37138,Nashville,TN,422400.0
27617,Raleigh,NC,464995.0
75078,Prosper,TX,498240.0
60467,Orland Park,IL,459900.0
11803,Plainview,NY,748888.0
76114,Fort Worth,TX,673158.0
90272,Los Angeles,CA,3647000.0
03051,Hudson,NH,392400.0
63367,Lake Saint Louis,MO,343900.0
80439,Evergreen,CO,797950.0
39601,Brookhaven,MS,280000.0
92011,Carlsbad,CA,1150000.0
19107,Philadelphia,PA,435000.0
80831,Peyton,CO,410620.0
48009,Birmingham,MI,752449.5
55446,Plymouth,MN,564785.0
33544,Wesley Chapel,FL,379000.0
30248,Locust Grove,GA,373015.0
17406,Springettsbury,PA,271092.0
10952,Ramapo,NY,799000.0
36801,Opelika,AL,340400.0
28613,Conover,NC,357000.0
08088,Southampton,NJ,461999.5
17078,Palmyra,PA,321643.0
60172,Roselle,IL,426500.0
98008,Bellevue,WA,895000.0
11725,Commack,NY,699900.0
32413,Panama City Beach,FL,425000.0
11361,New York,NY,973000.0
86404,Lake Havasu City,AZ,397500.0
11412,New York,NY,635000.0
74701,Durant,OK,215000.0
86403,Lake Havasu City,AZ,387400.0
05701,Rutland,VT,289650.0
25705,Huntington,WV,215000.0
33991,Cape Coral,FL,399450.0
76126,Benbrook,TX,441450.0
44138,Olmsted Falls,OH,264945.0
33584,Seffner,FL,335990.0
64081,Lees Summit,MO,367000.0
86305,Prescott,AZ,674900.0
63379,Troy,MO,330000.0
02050,Marshfield,MA,779000.0
06002,Bloomfield,CT,398500.0
32583,Milton,FL,299900.0
34212,Bradenton,FL,459900.0
28739,Hendersonville,NC,474900.0
84414,North Ogden,UT,454900.0
02879,South Kingstown,RI,599450.0
30307,Atlanta,GA,572400.0
46158,Mooresville,IN,359900.0
34103,Naples,FL,1385000.0
02186,Milton,MA,1089000.0
77043,Houston,TX,369999.5
27312,Pittsboro,NC,539900.0
33067,Coral Springs,FL,625000.0
75001,Addison,TX,378000.0
33558,Lutz,FL,383992.5
41071,Newport,KY,379900.0
91302,Calabasas,CA,2495000.0
75201,Dallas,TX,1112500.0
30549,Jefferson,GA,384990.0
71909,Hot Springs Village,AR,289450.0
29403,Charleston,SC,599900.0
46208,Indianapolis,IN,379000.0
97470,Roseburg,OR,355000.0
85396,Buckeye,AZ,403464.0
06877,Ridgefield,CT,930000.0
19977,Smyrna,DE,300000.0
47250,Madison,IN,249900.0
77384,Conroe,TX,419307.5
33547,Riverview,FL,436999.5
44024,Chardon,OH,349950.0
84780,Washington,UT,457777.0
79932,El Paso,TX,229074.5
22182,Vienna,VA,949999.0
32931,Cocoa Beach,FL,475000.0
10471,New York,NY,1395000.0
33150,Miami,FL,512000.0
22043,Falls Church,VA,899900.0
98671,Washougal,WA,648500.0
28443,Rocky Point,NC,379900.0
37405,Chattanooga,TN,397500.0
27607,Raleigh,NC,651750.0
53027,Hartford,WI,359900.0
66109,Kansas City,KS,323950.0
33127,Miami,FL,550000.0
99203,Spokane,WA,399000.0
46845,Fort Wayne,IN,287816.0
37865,Seymour,TN,289800.0
45066,Springboro,OH,335900.0
98028,Kenmore,WA,875950.0
97140,Sherwood,OR,689900.0
98074,Sammamish,WA,1199250.0
60561,Darien,IL,395500.0
48083,Troy,MI,341500.0
33480,Palm Beach,FL,1995000.0
30125,Cedartown,GA,194950.0
34613,North Weeki Wachee,FL,349900.0
77478,Sugar Land,TX,450000.0
19428,Conshohocken,PA,425000.0
60013,Cary,IL,410000.0
63401,Hannibal,MO,229900.0
33470,Loxahatchee Groves,FL,537500.0
76034,Colleyville,TX,672990.0
72901,Fort Smith,AR,218000.0
45242,Blue Ash,OH,528700.0
60706,Norridge,IL,396950.0
32750,Longwood,FL,365990.0
20190,Reston,VA,689999.0
52245,Iowa City,IA,339900.0
82718,Gillette,WY,365000.0
28120,Mount Holly,NC,400990.0
49428,Jenison,MI,338900.0
52241,Coralville,IA,405000.0
45102,Amelia,OH,270950.0
63090,Washington,MO,319400.0
91301,Agoura Hills,CA,1419000.0
40353,Mount Sterling,KY,239000.0
97239,Portland,OR,725000.0
24141,Radford,VA,314500.0
32926,Cocoa,FL,349900.0
98407,Tacoma,WA,947500.0
55129,Woodbury,MN,440000.0
56007,Albert Lea,MN,229400.0
33144,Miami,FL,425000.0
79602,Abilene,TX,309900.0
64836,Carthage,MO,239900.0
34292,Venice,FL,425000.0
53045,Brookfield,WI,516000.0
25526,Hurricane,WV,269000.0
98532,Chehalis,WA,380000.0
85006,Phoenix,AZ,409000.0
18944,Perkasie,PA,479798.0
90210,Beverly Hills,CA,6495000.0
48346,Clarkston,MI,349900.0
40342,Lawrenceburg,KY,272450.0
66216,Shawnee,KS,334975.0
59808,Missoula,MT,428700.0
32444,Lynn Haven,FL,399000.0
44236,Hudson,OH,384900.0
28202,Charlotte,NC,444999.0
44139,Solon,OH,389000.0
33444,Delray Beach,FL,739000.0
17015,South Middleton,PA,320900.0
80212,Denver,CO,680000.0
77345,Houston,TX,369450.0
10901,Ramapo,NY,812000.0
70002,Metairie,LA,397000.0
34638,Land O Lakes,FL,349500.0
60108,Bloomingdale,IL,399900.0
37774,Loudon,TN,448950.0
49534,Walker,MI,299900.0
98020,Edmonds,WA,1054950.0
44108,Cleveland,OH,425000.0
02043,Hingham,MA,1045000.0
76208,Denton,TX,394950.0
84109,East Millcreek,UT,569900.0
11421,New York,NY,639888.0
63141,Creve Coeur,MO,749000.0
65810,Springfield,MO,299400.0
33602,Tampa,FL,439000.0
60560,Yorkville,IL,372400.0
28712,Brevard,NC,436000.0
15090,Wexford,PA,422445.0
73064,Mustang,OK,254000.0
99224,Spokane,WA,422500.0
12533,East Fishkill,NY,675000.0
48371,Oxford,MI,379900.0
91741,Glendora,CA,1296750.0
91784,Upland,CA,674950.0
19438,Harleysville,PA,459990.0
45208,Cincinnati,OH,425000.0
84058,Orem,UT,490000.0
64506,Saint Joseph,MO,204900.0
17356,Windsor,PA,299900.0
47025,Hidden Valley,IN,292450.0
85250,Scottsdale,AZ,450000.0
38242,Paris,TN,227200.0
97754,Prineville,OR,453500.0
06437,Guilford,CT,575000.0
33761,Clearwater,FL,449000.0
18411,South Abington,PA,269000.0
95959,Nevada City,CA,795000.0
53913,Baraboo,WI,280000.0
97058,The Dalles,OR,405000.0
37857,Rogersville,TN,259450.0
85747,Tucson,AZ,332500.0
80124,Lone Tree,CO,807499.5
27537,Henderson,NC,250000.0
48134,Flat Rock,MI,289900.0
07869,Randolph,NJ,659395.0
33774,Largo,FL,357920.0
45322,Englewood,OH,220000.0
22406,Fredericksburg,VA,665000.0
08037,Hammonton,NJ,349900.0
60178,Sycamore,IL,350000.0
33606,Tampa,FL,650000.0
33166,Miami Springs,FL,499000.0
76308,Wichita Falls,TX,269000.0
06067,Rocky Hill,CT,424900.0
64083,Raymore,MO,329950.0
73020,Choctaw,OK,313500.0
84092,Sandy,UT,759900.0
60053,Morton Grove,IL,377500.0
48420,Vienna,MI,195000.0
33486,Boca Raton,FL,659000.0
83404,Idaho Falls,ID,324937.5
29016,Blythewood,SC,277490.0
43725,Cambridge,OH,189000.0
78735,Austin,TX,1046500.0
30233,Jackson,GA,364950.0
32217,Jacksonville,FL,500000.0
61920,Charleston,IL,179900.0
77385,Conroe,TX,337995.0
40047,Mount Washington,KY,289900.0
50131,Johnston,IA,382000.0
48375,Novi,MI,404400.0
33569,Riverview,FL,329450.0
78751,Austin,TX,571995.0
92835,Fullerton,CA,1212000.0
33477,Jupiter,FL,700000.0
39465,Petal,MS,239900.0
28374,Pinehurst,NC,513700.0
99502,Anchorage,AK,465000.0
53092,Mequon,WI,539900.0
92118,Coronado,CA,1980000.0
70471,Mandeville,LA,435000.0
48473,Swartz Creek,MI,219900.0
48842,Holt,MI,253900.0
34470,Ocala,FL,234990.0
60448,Mokena,IL,445000.0
64086,Lees Summit,MO,442500.0
14618,Brighton,NY,289900.0
39531,Biloxi,MS,305000.0
59802,Missoula,MT,550000.0
80023,Broomfield,CO,659997.5
70380,Morgan City,LA,180950.0
97013,Canby,OR,549000.0
07076,Scotch Plains,NJ,799000.0
37208,Nashville,TN,429900.0
96761,Lahaina,HI,1750000.0
92881,Corona,CA,607450.0
46563,Plymouth,IN,249900.0
85739,Catalina,AZ,437000.0
19803,Wilmington,DE,399900.0
21204,Towson,MD,549500.0
32726,Eustis,FL,425000.0
33811,Lakeland,FL,253999.0
61115,Machesney Park,IL,187200.0
92227,Brawley,CA,283500.0
48085,Troy,MI,371250.0
54913,Appleton,WI,340000.0
48864,Okemos,MI,369900.0
45371,Tipp City,OH,259900.0
55345,Minnetonka,MN,499900.0
29170,Oak Grove,SC,209070.0
38103,Memphis,TN,322450.0
05403,South Burlington,VT,448000.0
98296,Snohomish,WA,800000.0
02809,Bristol,RI,517000.0
32952,Merritt Island,FL,450000.0
33572,Apollo Beach,FL,437894.5
44087,Twinsburg,OH,295000.0
47546,Jasper,IN,299000.0
32176,Ormond Beach,FL,379950.0
60487,Tinley Park,IL,359000.0
70785,Walker,LA,316000.0
22209,Arlington,VA,956500.0
61802,Urbana,IL,279900.0
51104,Sioux City,IA,259950.0
19123,Philadelphia,PA,499900.0
32751,Maitland,FL,497250.0
23693,Yorktown,VA,429500.0
19064,Springfield,PA,379000.0
15143,Franklin Park,PA,569000.0
75771,Lindale,TX,294500.0
14845,Horseheads,NY,225000.0
45056,Oxford,OH,322400.0
53147,Lake Geneva,WI,539000.0
11360,New York,NY,880000.0
49783,Sault Sainte Marie,MI,209000.0
45227,Cincinnati,OH,424900.0
83647,Mountain Home,ID,284450.0
43452,Port Clinton,OH,349800.0
95377,Tracy,CA,559000.0
33028,Pembroke Pines,FL,455000.0
28805,Asheville,NC,432500.0
14830,Corning,NY,192499.5
41005,Burlington,KY,285900.0
20105,Aldie,VA,740492.5
48348,Clarkston,MI,459900.0
77657,Lumberton,TX,298950.0
74801,Shawnee,OK,233500.0
80238,Denver,CO,613950.0
27518,Cary,NC,454499.5
43616,Oregon,OH,254900.0
06488,Southbury,CT,422400.0
20112,Manassas,VA,625000.0
33154,Bal Harbour,FL,1269000.0
37216,Nashville,TN,384995.0
64116,Kansas City,MO,360000.0
31069,Perry,GA,228138.0
01945,Marblehead,MA,996750.0
27403,Greensboro,NC,299700.0
32713,Debary,FL,319900.0
33897,Davenport,FL,263990.0
15801,Boggs,PA,218750.0
27539,Apex,NC,459900.0
49315,Byron Center,MI,337947.5
48182,Temperance,MI,269900.0
31326,Rincon,GA,291400.0
49431,Ludington,MI,299000.0
97034,Lake Oswego,OR,1085000.0
20169,Haymarket,VA,714990.0
75088,Rowlett,TX,379945.0
44067,Northfield,OH,268450.0
32311,Tallahassee,FL,345000.0
32128,Port Orange,FL,364450.0
99403,Clarkston,WA,389000.0
29206,Forest Acres,SC,344499.5
46528,Goshen,IN,269900.0
90720,Los Alamitos,CA,1149999.0
35674,Tuscumbia,AL,269000.0
60008,Rolling Meadows,IL,399977.0
49456,Spring Lake,MI,417400.0
67114,Newton,KS,239000.0
19608,Spring,PA,342900.0
01720,Acton,MA,799900.0
48331,Farmington Hills,MI,379900.0
01056,Ludlow,MA,339900.0
19122,Philadelphia,PA,425745.0
13850,Vestal,NY,215000.0
15239,Plum,PA,282450.0
55447,Plymouth,MN,495000.0
29420,North Charleston,SC,455500.0
44001,Amherst,OH,259900.0
44131,Seven Hills,OH,269950.0
97338,Dallas,OR,367394.0
52317,North Liberty,IA,379900.0
34236,Sarasota,FL,858000.0
48176,Saline,MI,477900.0
73130,Midwest City,OK,231362.0
27591,Wendell,NC,387700.0
44011,Avon,OH,379400.0
31548,Kingsland,GA,277000.0
33931,Fort Myers Beach,FL,549000.0
12189,Watervliet,NY,408900.0
60439,Lemont,IL,489990.0
80224,Denver,CO,579000.0
34446,Homosassa,FL,259450.0
72802,Russellville,AR,249900.0
44202,Aurora,OH,359000.0
80207,Denver,CO,689000.0
44053,Lorain,OH,248945.0
31768,Moultrie,GA,254500.0
55410,Minneapolis,MN,569900.0
19348,East Marlborough,PA,489900.0
39507,Gulfport,MS,265000.0
48168,Northville,MI,544145.0
66047,Lawrence,KS,499500.0
49685,Garfield,MI,422500.0
19027,Cheltenham,PA,399000.0
50208,Newton,IA,235000.0
34233,Sarasota,FL,429900.0
62401,Effingham,IL,273900.0
31558,Saint Marys,GA,322500.0
77523,Baytown,TX,377900.0
79413,Lubbock,TX,224500.0
21613,Cambridge,MD,325000.0
30116,Carrollton,GA,415000.0
87501,Santa Fe,NM,962000.0
32836,Doctor Phillips,FL,585497.5
93950,Pacific Grove,CA,1166000.0
07652,Paramus,NJ,810000.0
20659,Mechanicsville,MD,449900.0
88007,Las Cruces,NM,337500.0
06905,Stamford,CT,659900.0
78261,San Antonio,TX,339700.0
90265,Malibu,CA,3600000.0
32804,Orlando,FL,569000.0
84098,Park City,UT,1907500.0
23061,Gloucester,VA,385000.0
85715,Tucson,AZ,315000.0
50263,Waukee,IA,354000.0
77632,Mauriceville,TX,225000.0
14072,Grand Island,NY,289945.0
36092,Wetumpka,AL,204000.0
61455,Macomb,IL,155000.0
75048,Sachse,TX,443350.0
89166,Las Vegas,NV,417500.0
89408,Fernley,NV,332500.0
01950,Newburyport,MA,865000.0
04074,Scarborough,ME,534450.0
26501,Morgantown,WV,342500.0
49445,Muskegon,MI,279000.0
02818,East Greenwich,RI,589000.0
94506,Danville,CA,1999900.0
32796,Titusville,FL,399000.0
33004,Dania Beach,FL,472000.0
43812,Coshocton,OH,175000.0
48813,Charlotte,MI,239900.0
67226,Wichita,KS,267000.0
93444,Nipomo,CA,860000.0
48314,Sterling Heights,MI,342400.0
37766,Lafollette,TN,439000.0
95363,Patterson,CA,405000.0
89118,Las Vegas,NV,572450.0
12477,Saugerties,NY,440000.0
87002,Belen,NM,349950.0
49316,Gaines,MI,319900.0
77069,Houston,TX,365000.0
82070,Laramie,WY,402500.0
29307,Spartanburg,SC,266700.0
07450,Ridgewood,NJ,1100000.0
24179,Vinton,VA,279925.0
48382,Commerce,MI,422450.0
21078,Havre de Grace,MD,402225.0
66030,Gardner,KS,337000.0
84721,Cedar City,UT,329900.0
20017,Washington,DC,619900.0
85028,Phoenix,AZ,459000.0
34465,Beverly Hills,FL,299900.0
07901,Summit,NJ,1125000.0
14526,Penfield,NY,279900.0
17552,Mount Joy,PA,289875.0
45245,Cincinnati,OH,333950.0
20018,Washington,DC,665000.0
21231,Baltimore,MD,459950.0
24523,Bedford,VA,296500.0
80403,Golden,CO,779000.0
93560,Rosamond,CA,305000.0
17545,Rapho,PA,300000.0
95448,Healdsburg,CA,1648000.0
35633,Florence,AL,219900.0
44641,Louisville,OH,199990.0
36066,Prattville,AL,246849.0
73521,Altus,OK,169900.0
19963,Milford,DE,377000.0
27712,Durham,NC,479990.0
33948,Port Charlotte,FL,377000.0
91361,Westlake Village,CA,1552500.0
33609,Tampa,FL,598888.0
95949,Grass Valley,CA,699000.0
19006,Lower Moreland,PA,517777.0
66209,Leawood,KS,499500.0
21037,Edgewater,MD,574990.0
11001,Floral Park,NY,699000.0
54937,North Fond du Lac,WI,314900.0
91307,Los Angeles,CA,1499999.0
21012,Arnold,MD,549945.0
96150,South Lake Tahoe,CA,719000.0
03246,Laconia,NH,509900.0
30017,Grayson,GA,379900.0
33483,Delray Beach,FL,965000.0
34442,Hernando,FL,288450.0
27896,Wilson,NC,249900.0
34482,Ocala,FL,400779.5
53589,Stoughton,WI,414900.0
95819,Sacramento,CA,679900.0
55038,Hugo,MN,439945.0
19010,Bryn Mawr,PA,899000.0
38555,Crossville,TN,339000.0
98108,Seattle,WA,757500.0
24503,Lynchburg,VA,349000.0
15644,Jeannette,PA,317445.0
41102,Ashland,KY,189900.0
27408,Greensboro,NC,387450.0
37321,Dayton,TN,249900.0
48169,Pinckney,MI,319900.0
97439,Florence,OR,575000.0
32141,Edgewater,FL,338800.0
31008,Byron,GA,217145.0
98264,Lynden,WA,625000.0
60661,Chicago,IL,442500.0
74134,Tulsa,OK,279000.0
74804,Shawnee,OK,215000.0
28326,Cameron,NC,236900.0
44147,Broadview Heights,OH,372449.5
60194,Schaumburg,IL,367900.0
60124,Elgin,IL,369900.0
48442,Holly,MI,319000.0
41101,Ashland,KY,199949.5
01890,Winchester,MA,1256500.0
21076,Hanover,MD,449994.5
22655,Stephens City,VA,349900.0
21158,Westminster,MD,456696.5
14760,Olean,NY,149900.0
55066,Red Wing,MN,331825.0
92596,Winchester,CA,479900.0
02129,Boston,MA,862000.0
29644,Fountain Inn,SC,324950.0
84005,Eagle Mountain,UT,482016.0
19106,Philadelphia,PA,662500.0
06850,Norwalk,CT,699999.0
12110,Colonie,NY,389900.0
91737,Rancho Cucamonga,CA,774888.0
55317,Chanhassen,MN,584900.0
54476,Weston,WI,274900.0
11791,Syosset,NY,1150000.0
84341,North Logan,UT,378950.0
16505,Millcreek,PA,248250.0
98506,Olympia,WA,528475.0
32407,Panama City Beach,FL,389000.0
76310,Wichita Falls,TX,217900.0
77578,Manvel,TX,347594.5
75022,Flower Mound,TX,611000.0
65251,Fulton,MO,274900.0
33185,Kendall West,FL,455000.0
53029,Merton,WI,596500.0
98230,Blaine,WA,748750.0
32097,Yulee,FL,348445.0
33323,Sunrise,FL,529500.0
84124,Holladay,UT,600000.0
19046,Abington,PA,559000.0
11021,Great Neck,NY,1282500.0
19422,Whitpain,PA,565000.0
03110,Bedford,NH,549900.0
85755,Oro Valley,AZ,405990.0
37725,Dandridge,TN,359900.0
31721,Albany,GA,239500.0
80921,Colorado Springs,CO,525000.0
60175,Campton Hills,IL,524950.0
97031,Hood River,OR,825000.0
17821,Danville,PA,360000.0
33603,Tampa,FL,359000.0
83634,Kuna,ID,419999.0
11795,Islip,NY,829000.0
62305,Quincy,IL,254900.0
14051,Amherst,NY,354900.0
74601,Ponca City,OK,139450.0
70520,Carencro,LA,227250.0
02649,Mashpee,MA,1075000.0
24014,Roanoke,VA,420000.0
98177,Shoreline,WA,960000.0
99501,Anchorage,AK,525000.0
23692,Yorktown,VA,406000.0
33037,Key Largo,FL,2192500.0
19605,Muhlenberg,PA,302900.0
37745,Greeneville,TN,249000.0
53005,Brookfield,WI,390000.0
60177,South Elgin,IL,396807.0
34695,Safety Harbor,FL,495500.0
06032,Farmington,CT,499900.0
46818,Fort Wayne,IN,233000.0
20871,Clarksburg,MD,689900.0
44223,Cuyahoga Falls,OH,269900.0
74037,Jenks,OK,319000.0
68130,Omaha,NE,439000.0
98075,Sammamish,WA,1235000.0
60502,Aurora,IL,405000.0
11423,New York,NY,949450.0
50125,Indianola,IA,317000.0
30009,Alpharetta,GA,586900.0
33431,Boca Raton,FL,767500.0
80528,Fort Collins,CO,649000.0
45030,Harrison,OH,304900.0
99515,Anchorage,AK,466450.0
29671,Pickens,SC,355000.0
27501,Angier,NC,249950.0
98053,Redmond,WA,998000.0
01581,Westborough,MA,579450.0
79065,Pampa,TX,175500.0
12534,Hudson,NY,577500.0
08260,North Wildwood,NJ,699900.0
85748,Tucson,AZ,350000.0
84040,Layton,UT,495000.0
95746,Granite Bay,CA,932500.0
85749,Tucson,AZ,469000.0
08057,Moorestown-Lenola,NJ,697000.0
11768,Fort Salonga,NY,899000.0
76067,Mineral Wells,TX,300000.0
48393,Wixom,MI,315000.0
33898,Lake Wales,FL,299999.0
18976,Warrington,PA,425000.0
70116,New Orleans,LA,449000.0
44149,Strongsville,OH,311400.0
97415,Brookings,OR,599000.0
33472,Boynton Beach,FL,589000.0
53538,Fort Atkinson,WI,275000.0
28630,Granite Falls,NC,319900.0
29204,Columbia,SC,270000.0
33469,Tequesta,FL,670000.0
60045,Lake Forest,IL,899000.0
86323,Chino Valley,AZ,469250.0
50009,Altoona,IA,309900.0
48837,Grand Ledge,MI,279750.0
19342,Glen Mills,PA,679000.0
06825,Fairfield,CT,650000.0
78114,Floresville,TX,370000.0
92106,San Diego,CA,1310000.0
53121,Elkhorn,WI,484450.0
76082,Springtown,TX,362449.5
37212,Nashville,TN,709900.0
28312,Fayetteville,NC,254950.0
39560,Long Beach,MS,238930.0
11747,Melville,NY,879000.0
80109,Castle Rock,CO,608850.0
30071,Norcross,GA,430500.0
48854,Mason,MI,258900.0
40031,La Grange,KY,348000.0
06037,Berlin,CT,362200.0
44126,Fairview Park,OH,259900.0
84108,Salt Lake City,UT,792500.0
15241,Upper Saint Clair,PA,368900.0
60491,Homer Glen,IL,435000.0
48094,Washington,MI,459900.0
92860,Norco,CA,624450.0
48114,Brighton,MI,379900.0
33129,Miami,FL,724950.0
48201,Detroit,MI,469000.0
35661,Muscle Shoals,AL,279900.0
84075,Syracuse,UT,439900.0
40204,Louisville,KY,402200.0
78380,Robstown,TX,349000.0
23114,Midlothian,VA,392090.0
44906,Mansfield,OH,229950.0
58401,Jamestown,ND,275000.0
34736,Groveland,FL,349000.0
97055,Sandy,OR,659900.0
34102,Naples,FL,2373000.0
06001,Avon,CT,489000.0
33405,West Palm Beach,FL,857500.0
11369,New York,NY,769999.5
07871,Sparta,NJ,725000.0
61550,Morton,IL,235000.0
44057,Madison,OH,252450.0
48334,Farmington Hills,MI,308814.0
65738,Republic,MO,267450.0
85284,Tempe,AZ,494500.0
02871,Portsmouth,RI,649500.0
28557,Morehead City,NC,499900.0
33132,Miami,FL,595000.0
72715,Bella Vista,AR,327900.0
18049,Emmaus,PA,387950.0
83703,Boise,ID,499900.0
31312,Guyton,GA,288900.0
55803,Duluth,MN,314700.0
02882,Narragansett,RI,702450.0
06443,Madison,CT,557500.0
55906,Rochester,MN,415000.0
19008,Broomall,PA,399900.0
78374,Portland,TX,269500.0
83716,Boise,ID,489000.0
06107,West Hartford,CT,399900.0
94105,San Francisco,CA,2075000.0
13903,Binghamton,NY,247250.0
70706,Denham Springs,LA,285000.0
26104,Parkersburg,WV,199950.0
59937,Whitefish,MT,799000.0
32226,Jacksonville,FL,349900.0
84045,Saratoga Springs,UT,450000.0
41091,Union,KY,349900.0
40059,Prospect,KY,514450.0
20037,Washington,DC,1250000.0
33704,Saint Petersburg,FL,634999.0
44333,Fairlawn,OH,384700.0
61073,Roscoe,IL,231900.0
86005,Flagstaff,AZ,744000.0
28387,Southern Pines,NC,369900.0
34480,Ocala,FL,389900.0
39553,Gautier,MS,225000.0
40014,Crestwood,KY,415000.0
92603,Irvine,CA,2288000.0
74021,Collinsville,OK,234825.0
34771,Saint Cloud,FL,345000.0
02842,Middletown,RI,530000.0
22911,Charlottesville,VA,485000.0
46703,Angola,IN,389875.0
32920,Cape Canaveral,FL,374900.0
30677,Watkinsville,GA,424900.0
53024,Grafton,WI,422495.0
19073,Newtown,PA,711995.0
34714,Citrus Ridge,FL,323490.0
44278,Tallmadge,OH,248500.0
54166,Shawano,WI,259900.0
87508,Santa Fe,NM,642473.0
11694,New York,NY,995000.0
33872,Sebring,FL,239900.0
10605,White Plains,NY,889000.0
21901,North East,MD,345690.5
31407,Port Wentworth,GA,275495.0
53012,Cedarburg,WI,429950.0
53597,Waunakee,WI,499650.0
73010,Blanchard,OK,272450.0
32934,Melbourne,FL,419950.0
70435,Covington,LA,375000.0
98642,Ridgefield,WA,558000.0
47172,Sellersburg,IN,314950.0
29492,Charleston,SC,725000.0
15228,Pittsburgh,PA,384900.0
97215,Portland,OR,635000.0
95437,Fort Bragg,CA,682000.0
30277,Sharpsburg,GA,399900.0
33566,Plant City,FL,342450.0
34474,Ocala,FL,267990.0
53149,Mukwonago,WI,399949.5
21409,Annapolis,MD,649950.0
78801,Uvalde,TX,242250.0
84032,Heber City,UT,1149000.0
85253,Paradise Valley,AZ,2250025.0
33983,Punta Gorda,FL,338350.0
50312,Des Moines,IA,369250.0
60513,Brookfield,IL,375000.0
70125,New Orleans,LA,430000.0
33767,Clearwater,FL,750000.0
98686,Barberton,WA,575747.5
34473,Ocala,FL,235000.0
34228,Longboat Key,FL,799000.0
66221,Overland Park,KS,593750.0
49401,Allendale,MI,319900.0
27546,Lillington,NC,269900.0
44241,Streetsboro,OH,247595.0
55127,Vadnais Heights,MN,725000.0
92532,Lake Elsinore,CA,489990.0
89146,Las Vegas,NV,499744.5
36804,Opelika,AL,301649.5
34685,Palm Harbor,FL,425300.0
13662,Massena,NY,194500.0
25302,Charleston,WV,177900.0
02066,Scituate,MA,842450.0
06840,New Canaan,CT,1592500.0
02878,Tiverton,RI,566950.0
39565,Vancleave,MS,266500.0
37938,Knoxville,TN,299900.0
74114,Tulsa,OK,539000.0
77979,Port Lavaca,TX,299900.0
89027,Mesquite,NV,442500.0
94563,Orinda,CA,1950782.5
33635,Town 'n' Country,FL,379990.0
55331,Shorewood,MN,702450.0
67206,Wichita,KS,359900.0
11946,Hampton Bays,NY,829000.0
84093,Sandy,UT,599400.0
78620,Dripping Springs,TX,532445.0
16117,Ellwood City,PA,180000.0
64064,Lees Summit,MO,388500.0
67901,Liberal,KS,179000.0
15017,South Fayette,PA,369900.0
60093,Winnetka,IL,1150000.0
76052,Fort Worth,TX,405965.5
73142,Oklahoma City,OK,332450.0
98282,Camano Island,WA,697000.0
54455,Kronenwetter,WI,276400.0
02790,Westport,MA,595000.0
62711,Springfield,IL,359900.0
60154,Westchester,IL,349000.0
98136,Seattle,WA,799975.0
34239,Sarasota,FL,850000.0
02492,Needham,MA,1344000.0
28801,Asheville,NC,584500.0
33777,Seminole,FL,455558.0
30548,Hoschton,GA,384000.0
33331,Weston,FL,699450.0
23508,Norfolk,VA,399000.0
53185,Waterford,WI,377900.0
70563,New Iberia,LA,284950.0
11968,Southampton,NY,2188000.0
33525,Dade City,FL,499000.0
12054,Bethlehem,NY,351450.0
18902,Buckingham,PA,632000.0
84720,Cedar City,UT,377000.0
85901,Show Low,AZ,419000.0
06820,Darien,CT,1649000.0
14468,Parma,NY,254900.0
65613,Bolivar,MO,267450.0
44089,Vermilion,OH,285000.0
02747,Dartmouth,MA,479900.0
72022,Bryant,AR,272400.0
33316,Fort Lauderdale,FL,1199000.0
24210,Abingdon,VA,269985.0
06804,Brookfield,CT,750000.0
92029,Escondido,CA,921000.0
59106,Billings,MT,454900.0
17070,New Cumberland,PA,289900.0
74354,Miami,OK,145000.0
17745,Lock Haven,PA,235000.0
60585,Plainfield,IL,409450.0
28075,Harrisburg,NC,385750.0
70507,Lafayette,LA,231200.0
48386,White Lake,MI,319700.0
22551,Spotsylvania,VA,699000.0
32829,Orlando,FL,342250.0
16701,Bradford,PA,129900.0
24572,Madison Heights,VA,267500.0
17019,Carroll,PA,299945.0
33598,Wimauma,FL,330440.0
48098,Troy,MI,439950.0
28779,Sylva,NC,450000.0
15025,Jefferson Hills,PA,322195.0
37932,Knoxville,TN,359950.0
45419,Oakwood,OH,275000.0
60140,Pingree Grove,IL,349900.0
52807,Davenport,IA,304900.0
28574,Richlands,NC,200000.0
08085,Woolwich,NJ,384995.0
18013,Washington,PA,374500.0
84737,Hurricane,UT,424900.0
74019,Claremore,OK,274252.0
85118,Gold Canyon,AZ,635000.0
28327,Whispering Pines,NC,339350.0
14052,East Aurora,NY,339450.0
34242,Siesta Key,FL,869000.0
93103,Santa Barbara,CA,1695000.0
01060,Northampton,MA,495733.0
85262,Scottsdale,AZ,975000.0
18302,East Stroudsburg,PA,260000.0
92585,Menifee,CA,471280.0
29306,Spartanburg,SC,419900.0
98332,Gig Harbor,WA,750000.0
48230,Grosse Pointe Park,MI,425000.0
37069,Franklin,TN,686950.0
64157,Kansas City,MO,379000.0
06385,Waterford,CT,439900.0
76234,Decatur,TX,475000.0
31005,Bonaire,GA,275000.0
67205,Wichita,KS,289900.0
98942,Selah,WA,379900.0
96746,Kapaa,HI,987000.0
78676,Wimberley,TX,749500.0
35473,Northport,AL,244473.5
41075,Fort Thomas,KY,394450.0
29302,Spartanburg,SC,375000.0
98274,Mount Vernon,WA,619000.0
23005,Ashland,VA,449500.0
75209,Dallas,TX,799000.0
37771,Lenoir City,TN,312500.0
36305,Dothan,AL,285000.0
55391,Wayzata,MN,942000.0
95602,Auburn,CA,724000.0
06518,Hamden,CT,347500.0
34996,Stuart,FL,825000.0
13031,Camillus,NY,274900.0
47725,Evansville,IN,250650.0
23430,Smithfield,VA,377000.0
60304,Oak Park,IL,421900.0
92082,Valley Center,CA,957450.0
44022,Chagrin Falls,OH,472450.0
75094,Murphy,TX,415000.0
48820,Dewitt,MI,289900.0
01075,South Hadley,MA,377450.0
76177,Fort Worth,TX,341725.0
02865,Lincoln,RI,567000.0
34420,Belleview,FL,246950.0
62656,Lincoln,IL,162900.0
16301,Oil City,PA,154450.0
66503,Manhattan,KS,324900.0
76528,Gatesville,TX,274950.0
44023,Chagrin Falls,OH,400000.0
49301,Forest Hills,MI,499000.0
78070,Spring Branch,TX,446710.0
29070,Batesburg-Leesville,SC,319900.0
77303,Conroe,TX,380000.0
60404,Shorewood,IL,369900.0
62298,Waterloo,IL,307450.0
84025,Farmington,UT,494099.5
12831,Wilton,NY,399700.0
17033,Hershey,PA,359950.0
48072,Berkley,MI,299950.0
99516,Anchorage,AK,534500.0
27282,High Point,NC,239700.0
62035,Godfrey,IL,325000.0
15012,Rostraver,PA,294900.0
28462,Holden Beach,NC,499950.0
45504,Springfield,OH,196500.0
92887,Yorba Linda,CA,1284444.0
16323,Franklin,PA,149700.0
64029,Grain Valley,MO,329900.0
37204,Nashville,TN,699000.0
15501,Somerset,PA,204750.0
60542,North Aurora,IL,364900.0
29568,Little River,SC,324900.0
41001,Alexandria,KY,291820.0
72210,Little Rock,AR,374000.0
11581,Valley Stream,NY,749500.0
50325,Clive,IA,384171.0
32081,Ponte Vedra,FL,430947.5
48084,Troy,MI,338700.0
27596,Youngsville,NC,389500.0
38261,Union City,TN,169000.0
21050,Forest Hill,MD,482437.0
91011,La Canada Flintridge,CA,1896500.0
89403,Dayton,NV,399600.0
97210,Portland,OR,912500.0
72058,Greenbrier,AR,249000.0
74401,Muskogee,OK,199949.5
07928,Chatham,NJ,1275000.0
33616,Tampa,FL,449450.0
77318,Willis,TX,398310.0
37763,Kingston,TN,375000.0
20015,Washington,DC,1100000.0
12118,Halfmoon,NY,356000.0
68124,Omaha,NE,412500.0
95330,Lathrop,CA,485000.0
43528,Holland,OH,265200.0
48304,Bloomfield Hills,MI,574900.0
78566,Los Fresnos,TX,250000.0
07086,Weehawken,NJ,1199500.0
63034,Spanish Lake,MO,297444.0
05201,Bennington,VT,349900.0
53158,Pleasant Prairie,WI,442450.0
02459,Newton,MA,1574500.0
85310,Phoenix,AZ,476000.0
48059,Fort Gratiot,MI,339999.0
45377,Vandalia,OH,238200.0
37398,Winchester,TN,429000.0
73118,Oklahoma City,OK,374750.0
77437,El Campo,TX,280000.0
19610,Wyomissing,PA,384900.0
45209,Cincinnati,OH,299999.5
07650,Palisades Park,NJ,785000.0
63049,High Ridge,MO,307500.0
06029,Ellington,CT,399900.0
72002,Shannon Hills,AR,352500.0
92251,Imperial,CA,285000.0
13039,Cicero,NY,239990.0
35406,Tuscaloosa,AL,449900.0
08361,Vineland,NJ,234900.0
28539,Hubert,NC,229000.0
16046,Mars,PA,466656.0
16105,Neshannock,PA,214450.0
92625,Newport Beach,CA,2795000.0
45502,Northridge,OH,205000.0
91381,Santa Clarita,CA,1089000.0
71602,White Hall,AR,179900.0
07751,Marlboro,NJ,850000.0
07405,Kinnelon,NJ,939000.0
33149,Key Biscayne,FL,1649000.0
96161,Truckee,CA,1090000.0
32903,Melbourne,FL,497000.0
06119,West Hartford,CT,375000.0
83442,Rigby,ID,350000.0
08033,Haddonfield,NJ,614900.0
48323,West Bloomfield,MI,422250.0
87122,Albuquerque,NM,563250.0
38237,Martin,TN,169500.0
08406,Ventnor City,NJ,399000.0
06415,Colchester,CT,399900.0
15009,Brighton,PA,294950.0
22124,Oakton,VA,939000.0
48302,Bloomfield Hills,MI,719900.0
76008,Aledo,TX,448990.0
52002,Dubuque,IA,307900.0
92014,Del Mar,CA,2595000.0
37416,Chattanooga,TN,365000.0
08852,South Brunswick,NJ,799900.0
39562,Moss Point,MS,241950.0
08008,Long Beach,NJ,1145000.0
96821,Honolulu,HI,2088000.0
33565,Plant City,FL,419900.0
77302,Conroe,TX,449500.0
29078,Lugoff,SC,244900.0
75707,Tyler,TX,322400.0
77541,Freeport,TX,385000.0
10538,Larchmont,NY,1099000.0
70518,Broussard,LA,272100.0
19947,Georgetown,DE,372000.0
67460,McPherson,KS,256500.0
81623,Carbondale,CO,1795000.0
29572,Myrtle Beach,SC,439900.0
16648,Frankstown,PA,239900.0
37090,Lebanon,TN,434900.0
13413,New Hartford,NY,269900.0
28711,Black Mountain,NC,475000.0
78737,Austin,TX,492990.0
19465,North Coventry,PA,467850.0
29693,Westminster,SC,310000.0
60546,Riverside,IL,459000.0
48051,Chesterfield,MI,275900.0
33896,Citrus Ridge,FL,319900.0
60084,Wauconda,IL,385000.0
86426,Mohave Valley,AZ,320000.0
97459,North Bend,OR,386950.0
70006,Metairie,LA,323500.0
95366,Ripon,CA,575000.0
38120,Memphis,TN,449425.0
14564,Victor,NY,363650.0
63131,Des Peres,MO,777450.0
36106,Montgomery,AL,259900.0
21108,Glen Burnie,MD,549990.0
81507,Grand Junction,CO,480000.0
19707,Hockessin,DE,494250.0
33327,Weston,FL,649999.5
89005,Boulder City,NV,506500.0
97524,Eagle Point,OR,549000.0
33935,Labelle,FL,243700.0
39520,Bay Saint Louis,MS,309500.0
99016,Spokane Valley,WA,370670.0
59912,Columbia Falls,MT,550000.0
01028,East Longmeadow,MA,439900.0
63005,Chesterfield,MO,613900.0
15201,Pittsburgh,PA,359700.0
29118,Orangeburg,SC,189900.0
37377,Signal Mountain,TN,439500.0
81521,Fruita,CO,399700.0
27370,Trinity,NC,305990.0
39571,Pass Christian,MS,362450.0
30747,Summerville,GA,204949.5
60070,Prospect Heights,IL,409700.0
61114,Rockford,IL,207500.0
68136,Omaha,NE,309900.0
25314,Charleston,WV,269900.0
33545,Wesley Chapel,FL,329945.0
11356,New York,NY,769000.0
28584,Swansboro,NC,325000.0
33305,Fort Lauderdale,FL,790000.0
60118,West Dundee,IL,375000.0
21532,Frostburg,MD,170000.0
29601,Greenville,SC,526950.0
32317,Tallahassee,FL,320000.0
78739,Austin,TX,497245.0
45631,Gallipolis,OH,159900.0
35475,Northport,AL,334900.0
55364,Mound,MN,649900.0
10580,Rye,NY,2300000.0
02806,Barrington,RI,724900.0
10567,Cortlandt Manor,NY,692997.0
48324,West Bloomfield,MI,410000.0
55346,Eden Prairie,MN,428700.0
97381,Silverton,OR,436450.0
77378,Willis,TX,380000.0
20816,Bethesda,MD,1295000.0
06897,Wilton,CT,889000.0
49331,Lowell,MI,364800.0
37663,Kingsport,TN,246450.0
47111,Charlestown,IN,284450.0
77030,Houston,TX,789900.0
13104,Manlius,NY,344950.0
18707,Mountain Top,PA,283900.0
35111,Lake View,AL,224950.0
33315,Fort Lauderdale,FL,549900.0
34715,Clermont,FL,365000.0
28460,North Topsail Beach,NC,279900.0
77713,Beaumont,TX,294900.0
07079,South Orange,NJ,797000.0
36054,Millbrook,AL,243900.0
33184,Tamiami,FL,495000.0
83858,Rathdrum,ID,532631.0
59803,Missoula,MT,494500.0
78726,Austin,TX,486000.0
85658,Marana,AZ,394950.0
10018,New York,NY,3425000.0
80534,Johnstown,CO,455000.0
65265,Mexico,MO,189900.0
85083,Phoenix,AZ,447900.0
78015,Fair Oaks Ranch,TX,419000.0
44041,Geneva,OH,162449.5
29388,Woodruff,SC,256895.0
30317,Atlanta,GA,499900.0
74955,Sallisaw,OK,212500.0
31029,Forsyth,GA,369900.0
78732,Austin,TX,614245.0
34949,Fort Pierce,FL,429000.0
11733,Setauket,NY,825000.0
81503,Grand Junction,CO,356950.0
57703,Rapid Valley,SD,290000.0
37617,Blountville,TN,319900.0
11030,Manhasset,NY,1749000.0
44140,Bay Village,OH,339000.0
85653,Marana,AZ,310995.0
73801,Woodward,OK,229500.0
63132,Olivette,MO,469900.0
63050,Hillsboro,MO,287935.0
89138,Las Vegas,NV,531000.0
99353,West Richland,WA,429900.0
18040,Forks,PA,367450.0
72202,Little Rock,AR,260000.0
28791,Hendersonville,NC,429900.0
40514,Lexington,KY,308450.0
80517,Estes Park,CO,695000.0
12019,Ballston,NY,349945.0
60521,Hinsdale,IL,1025000.0
64870,Webb City,MO,189848.0
60490,Bolingbrook,IL,349900.0
19975,Selbyville,DE,442000.0
29902,Beaufort,SC,688174.0
87506,Santa Fe,NM,1057000.0
33981,Port Charlotte,FL,415000.0
01748,Hopkinton,MA,794450.0
92075,Solana Beach,CA,1412400.0
34241,Sarasota,FL,594990.0
85650,Sierra Vista,AZ,255000.0
27525,Franklinton,NC,344900.0
46122,Danville,IN,299900.0
15203,Pittsburgh,PA,338000.0
44321,Copley,OH,348000.0
01938,Ipswich,MA,918900.0
65706,Marshfield,MO,269500.0
01776,Sudbury,MA,929500.0
31533,Douglas,GA,183200.0
33523,Ridge Manor,FL,460000.0
33559,Lutz,FL,450000.0
49319,Cedar Springs,MI,285000.0
22066,Great Falls,VA,1439500.0
22026,Dumfries,VA,649999.0
33412,West Palm Beach,FL,620000.0
98903,Yakima,WA,399500.0
77401,Bellaire,TX,734500.0
33050,Marathon,FL,1295000.0
06355,Groton,CT,549500.0
08203,Brigantine,NJ,399945.0
07746,Marlboro,NJ,799000.0
29860,North Augusta,SC,259495.0
22603,Winchester,VA,447000.0
27006,Advance,NC,303454.5
30276,Senoia,GA,365000.0
44839,Huron,OH,269900.0
44904,Lexington,OH,190000.0
87113,Albuquerque,NM,365000.0
55804,Duluth,MN,307450.0
30523,Clarkesville,GA,419200.0
36527,Spanish Fort,AL,364995.0
75409,Anna,TX,379450.0
11782,Islip,NY,854000.0
86336,Sedona,AZ,895000.0
77059,Houston,TX,448093.0
33715,Saint Petersburg,FL,525000.0
28164,Stanley,NC,409450.0
22039,Lorton,VA,864000.0
01007,Belchertown,MA,397450.0
66205,Roeland Park,KS,425000.0
48451,Fenton,MI,249900.0
20187,Warrenton,VA,622400.0
10005,New York,NY,1290000.0
04064,Old Orchard Beach,ME,468450.0
18938,Solebury,PA,924900.0
19363,East Nottingham,PA,427400.0
28465,Oak Island,NC,389900.0
26726,Keyser,WV,169900.0
06716,Wolcott,CT,341200.0
77488,Wharton,TX,297250.0
30360,Dunwoody,GA,427990.0
34211,Bradenton,FL,479000.0
78645,Lago Vista,TX,580000.0
77002,Houston,TX,525000.0
06070,Simsbury,CT,444900.0
76643,Hewitt,TX,254450.0
29369,Moore,SC,239900.0
06831,Greenwich,CT,3097500.0
70037,Belle Chasse,LA,335000.0
97408,Eugene,OR,539900.0
92344,Hesperia,CA,527000.0
31516,Blackshear,GA,226950.0
32827,Orlando,FL,468990.0
74070,Skiatook,OK,292200.0
28516,Beaufort,NC,469450.0
37135,Nolensville,TN,517000.0
19508,Robeson,PA,348930.5
04043,Kennebunk,ME,544900.0
33957,Sanibel,FL,849000.0
30461,Statesboro,GA,249450.0
28467,Carolina Shores,NC,319900.0
19968,Milton,DE,365445.0
23838,Chesterfield,VA,410950.0
48840,Haslett,MI,306950.0
77554,Galveston,TX,489700.0
06470,Newtown,CT,699900.0
30011,Auburn,GA,414900.0
32669,Newberry,FL,349900.0
15211,Pittsburgh,PA,342450.0
29631,Clemson,SC,325900.0
42211,Cadiz,KY,335000.0
92587,Canyon Lake,CA,627000.0
48025,Beverly Hills,MI,489000.0
48362,Orion,MI,414800.0
77447,Hockley,TX,349500.0
48130,Dexter,MI,514900.0
63069,Pacific,MO,387450.0
01106,Longmeadow,MA,429900.0
55436,Edina,MN,862400.0
29334,Duncan,SC,239945.0
78064,Pleasanton,TX,334000.0
93263,Shafter,CA,310500.0
94920,Tiburon,CA,3895000.0
30656,Monroe,GA,412000.0
76309,Wichita Falls,TX,249900.0
32951,Melbourne Beach,FL,559000.0
77441,Fulshear,TX,439900.0
15057,Mc Donald,PA,341400.0
06117,West Hartford,CT,409900.0
31220,Macon,GA,279450.0
15238,O'Hara,PA,582000.0
45243,Madeira,OH,687500.0
04090,Wells,ME,577000.0
46373,Saint John,IN,410000.0
32615,Alachua,FL,349950.0
54636,Holmen,WI,319950.0
78642,Liberty Hill,TX,472900.0
97386,Sweet Home,OR,419900.0
21074,Hampstead,MD,460289.5
08062,Harrison,NJ,462900.0
72936,Greenwood,AR,204000.0
02090,Westwood,MA,920000.0
72908,Fort Smith,AR,215150.0
19518,Amity,PA,299900.0
07940,Madison,NJ,1079000.0
01520,Holden,MA,479900.0
32653,Gainesville,FL,389000.0
96743,Waimea,HI,1199000.0
21210,Baltimore,MD,599450.0
74104,Tulsa,OK,268900.0
20186,Warrenton,VA,709943.5
63628,Bonne Terre,MO,210000.0
99338,Kennewick,WA,417445.0
70447,Madisonville,LA,337000.0
07882,Washington,NJ,364950.0
94507,Alamo,CA,2188000.0
48855,Howell,MI,299900.0
07005,Boonton,NJ,829000.0
97138,Seaside,OR,619499.5
62034,Glen Carbon,IL,349950.0
79556,Sweetwater,TX,185000.0
62294,Troy,IL,303000.0
32968,Vero Beach,FL,400000.0
64082,Lees Summit,MO,371200.0
93923,Carmel-by-the-Sea,CA,2395000.0
20619,California,MD,399000.0
06413,Clinton,CT,439499.5
78255,San Antonio,TX,454000.0
15243,Pittsburgh,PA,304900.0
33947,Rotonda West,FL,349000.0
55376,Saint Michael,MN,434900.0
97367,Lincoln City,OR,496750.0
06357,Niantic,CT,439000.0
45249,Montgomery,OH,500000.0
63025,Eureka,MO,396000.0
11963,Noyack,NY,2250000.0
72921,Alma,AR,199900.0
87104,Albuquerque,NM,425000.0
62629,Chatham,IL,245450.0
28315,Aberdeen,NC,309484.5
30107,Ball Ground,GA,439900.0
66207,Overland Park,KS,425000.0
34972,Okeechobee,FL,345700.0
40071,Taylorsville,KY,313500.0
01532,Northborough,MA,528000.0
11780,Saint James,NY,999000.0
38571,Crossville,TN,279000.0
19806,Wilmington,DE,467450.0
25313,Cross Lanes,WV,189900.0
34432,Dunnellon,FL,271500.0
45233,Cincinnati,OH,389000.0
11362,New York,NY,1088000.0
35645,Killen,AL,283000.0
53532,De Forest,WI,375000.0
75762,Tyler,TX,299450.0
48381,Milford,MI,407500.0
60463,Palos Heights,IL,379450.0
37854,Rockwood,TN,437450.0
46582,Warsaw,IN,324500.0
64112,Kansas City,MO,499000.0
67002,Andover,KS,272450.0
25309,South Charleston,WV,275000.0
38139,Germantown,TN,499900.0
91436,Los Angeles,CA,2149500.0
07481,Wyckoff,NJ,884000.0
11702,Babylon,NY,797000.0
97365,Newport,OR,525000.0
40175,Vine Grove,KY,243900.0
07044,Verona,NJ,785000.0
07733,Holmdel,NJ,849999.5
29920,Saint Helena Island,SC,640000.0
75244,Dallas,TX,525000.0
48374,Novi,MI,473495.0
06461,Milford,CT,419000.0
01095,Wilbraham,MA,374450.0
28604,Banner Elk,NC,449900.0
44718,Canton,OH,414933.0
52003,Dubuque,IA,380000.0
48189,Whitmore Lake,MI,379000.0
37777,Louisville,TN,472500.0
49079,Paw Paw,MI,257200.0
72227,Little Rock,AR,269997.5
78248,San Antonio,TX,394000.0
53074,Port Washington,WI,429900.0
02632,Barnstable,MA,895000.0
85266,Scottsdale,AZ,850000.0
13215,Onondaga,NY,315000.0
11426,New York,NY,739999.0
13066,Manlius,NY,309900.0
20650,Leonardtown,MD,429950.0
08736,Manasquan,NJ,842000.0
29672,Seneca,SC,599000.0
30517,Braselton,GA,479800.0
33955,Punta Gorda,FL,389000.0
48001,Algonac,MI,367450.0
70538,Franklin,LA,189300.0
07059,Warren,NJ,995000.0
37179,Thompsons Station,TN,451900.0
38572,Crossville,TN,325000.0
10601,White Plains,NY,1087450.0
28748,Leicester,NC,439000.0
02767,Raynham,MA,513400.0
03106,Hooksett,NH,359950.0
83406,Ammon,ID,359900.0
86327,Dewey-Humboldt,AZ,475000.0
07446,Ramsey,NJ,804500.0
19096,Wynnewood,PA,650000.0
60026,Glenview,IL,617500.0
27358,Summerfield,NC,464950.0
19522,Fleetwood,PA,315900.0
72714,Bella Vista,AR,299900.0
29626,Anderson,SC,422500.0
33859,Lake Wales,FL,298000.0
19473,Perkiomen,PA,489900.0
24121,Moneta,VA,484520.0
34450,Inverness,FL,294500.0
33966,Fort Myers,FL,399000.0
95451,Kelseyville,CA,449000.0
01527,Millbury,MA,369900.0
02540,Falmouth,MA,899450.0
18202,Hazle,PA,274950.0
48301,Bloomfield Hills,MI,634900.0
93442,Morro Bay,CA,889000.0
06084,Tolland,CT,387000.0
33498,Boca Raton,FL,498600.0
64060,Kearney,MO,339900.0
20132,Purcellville,VA,812200.0
06795,Watertown,CT,449950.0
60526,La Grange Park,IL,399900.0
77445,Hempstead,TX,557500.0
76550,Lampasas,TX,294850.0
77336,Houston,TX,499000.0
80513,Berthoud,CO,692000.0
95453,Lakeport,CA,447250.0
99114,Colville,WA,391975.0
21128,Perry Hall,MD,529990.0
31523,Brunswick,GA,424950.0
80424,Breckenridge,CO,1792000.0
19525,New Hanover,PA,383945.0
15668,Murrysville,PA,349900.0
64079,Platte City,MO,377450.0
81008,Pueblo,CO,254950.0
77003,Houston,TX,363900.0
03087,Windham,NH,784158.0
50111,Grimes,IA,319000.0
36111,Montgomery,AL,329950.0
50323,Urbandale,IA,399400.0
12528,Lloyd,NY,374000.0
45002,Cleves,OH,324900.0
15224,Pittsburgh,PA,266500.0
85387,Surprise,AZ,409000.0
29907,Beaufort,SC,659000.0
23836,Chester,VA,390990.0
33187,Richmond West,FL,479000.0
60192,Hoffman Estates,IL,405990.0
37772,Lenoir City,TN,419900.0
62236,Columbia,IL,329900.0
43064,Plain City,OH,416990.0
89423,Minden,NV,639900.0
11949,Manorville,NY,699000.0
90402,Santa Monica,CA,4188000.0
27249,Gibsonville,NC,240000.0
39540,Diberville,MS,289449.5
68512,Lincoln,NE,374886.0
78256,San Antonio,TX,449450.0
72012,Beebe,AR,230000.0
95030,Los Gatos,CA,3295000.0
21704,Frederick,MD,635000.0
45885,Saint Marys,OH,244900.0
44721,Canton,OH,219990.0
30650,Madison,GA,450000.0
02332,Duxbury,MA,899000.0
08244,Somers Point,NJ,349450.0
64505,Saint Joseph,MO,249900.0
19970,Ocean View,DE,410000.0
81506,Grand Junction,CO,386000.0
34448,Homosassa,FL,399450.0
78121,La Vernia,TX,409900.0
33875,Sebring,FL,259000.0
75791,Whitehouse,TX,288249.5
18444,Spring Brook,PA,269000.0
28753,Marshall,NC,574800.0
41048,Hebron,KY,304900.0
98674,Woodland,WA,499900.0
81620,Avon,CO,2835000.0
02631,Brewster,MA,849000.0
76247,Justin,TX,442000.0
37341,Harrison,TN,367000.0
19934,Camden,DE,362450.0
50211,Norwalk,IA,349900.0
27023,Lewisville,NC,399900.0
55387,Waconia,MN,420000.0
61764,Pontiac,IL,164900.0
14063,Fredonia,NY,211887.0
32136,Flagler Beach,FL,399000.0
39574,Saucier,MS,247450.0
18036,Upper Saucon,PA,481400.0
31047,Kathleen,GA,279900.0
17362,North Codorus,PA,294500.0
74604,Ponca City,OK,185000.0
15065,Harrison,PA,248950.0
61853,Mahomet,IL,324900.0
80007,Arvada,CO,621425.0
13676,Potsdam,NY,195000.0
61705,Bloomington,IL,315000.0
33776,Seminole,FL,373250.0
77808,Bryan,TX,357450.0
17754,Montoursville,PA,272000.0
21666,Stevensville,MD,549900.0
75054,Grand Prairie,TX,399900.0
06475,Old Saybrook,CT,529000.0
20639,Huntingtown,MD,599900.0
33146,Coral Gables,FL,1098000.0
44614,Canal Fulton,OH,254900.0
64080,Pleasant Hill,MO,342450.0
92314,Big Bear City,CA,575000.0
16428,North East,PA,289500.0
55374,Rogers,MN,398950.0
99006,Deer Park,WA,435000.0
85007,Phoenix,AZ,483950.0
75757,Bullard,TX,351600.0
48079,Saint Clair,MI,319950.0
19425,Chester Springs,PA,569900.0
32766,Oviedo,FL,479500.0
41094,Walton,KY,282485.0
64154,Kansas City,MO,379975.0
02339,Carver,MA,754450.0
06424,East Hampton,CT,372400.0
28469,Ocean Isle Beach,NC,472450.0
78669,Spicewood,TX,699000.0
02748,Dartmouth,MA,749000.0
64108,Kansas City,MO,395000.0
91377,Oak Park,CA,1054000.0
36022,Deatsville,AL,229900.0
01569,Uxbridge,MA,459450.0
97221,Portland,OR,779000.0
75009,Celina,TX,412990.0
80863,Woodland Park,CO,450000.0
72212,Little Rock,AR,369950.0
95391,Tracy,CA,614999.5
25311,Charleston,WV,244900.0
54487,Tomahawk,WI,274900.0
02481,Wellesley,MA,1750000.0
10804,New Rochelle,NY,879990.0
19943,Felton,DE,278900.0
48623,Freeland,MI,234838.5
06238,Coventry,CT,359900.0
68028,Gretna,NE,335000.0
73089,Tuttle,OK,321750.0
14092,Lewiston,NY,347400.0
81611,Aspen,CO,5750000.0
50428,Clear Lake,IA,309950.0
80107,Elizabeth,CO,662450.0
27608,Raleigh,NC,699900.0
30326,Atlanta,GA,462200.0
74033,Glenpool,OK,239900.0
48462,Ortonville,MI,319945.0
55077,Inver Grove Heights,MN,489900.0
64089,Smithville,MO,325000.0
06903,Stamford,CT,799000.0
72719,Centerton,AR,362624.0
33812,Lakeland,FL,280000.0
03076,Pelham,NH,499900.0
04105,Falmouth,ME,603250.0
59911,Bigfork,MT,799950.0
93614,Coarsegold,CA,385000.0
85622,Green Valley,AZ,352500.0
77484,Waller,TX,603100.0
38558,Crossville,TN,309000.0
53965,Wisconsin Dells,WI,327450.0
61356,Princeton,IL,189900.0
15071,North Fayette,PA,349900.0
38672,Southaven,MS,283950.0
46204,Indianapolis,IN,399900.0
14519,Ontario,NY,257490.0
01940,Lynnfield,MA,779900.0
65742,Rogersville,MO,355000.0
33478,Jupiter,FL,667450.0
48166,Berlin,MI,239900.0
14425,Farmington,NY,272400.0
06371,Old Lyme,CT,549900.0
29365,Lyman,SC,216737.5
34453,Inverness,FL,259000.0
83333,Hailey,ID,1795000.0
74953,Poteau,OK,188250.0
40108,Brandenburg,KY,244900.0
70739,Greenwell Springs,LA,303450.0
28445,Surf City,NC,449000.0
64113,Kansas City,MO,430000.0
20124,Clifton,VA,925000.0
32222,Jacksonville,FL,315490.0
99019,Liberty Lake,WA,528900.0
28428,Carolina Beach,NC,462450.0
45434,Beavercreek,OH,290000.0
43440,Marblehead,OH,364900.0
44056,Macedonia,OH,280000.0
46163,New Palestine,IN,276400.0
59044,Laurel,MT,399900.0
46055,McCordsville,IN,295995.0
78003,Bandera,TX,349000.0
76354,Burkburnett,TX,189900.0
91914,Chula Vista,CA,949000.0
60152,Marengo,IL,399900.0
29401,Charleston,SC,1095000.0
73025,Edmond,OK,379527.5
18657,Tunkhannock,PA,242450.0
23662,Poquoson,VA,435000.0
67235,Wichita,KS,291250.0
77563,Hitchcock,TX,422000.0
78578,Port Isabel,TX,249000.0
27244,Elon,NC,300000.0
60548,Sandwich,IL,221500.0
63124,Ladue,MO,1249000.0
93449,Pismo Beach,CA,1015000.0
08048,Lumberton,NJ,439900.0
34475,Ocala,FL,328175.0
27040,Winston-Salem,NC,247400.0
93108,Montecito,CA,3795000.0
28470,Shallotte,NC,344950.0
34461,Lecanto,FL,290000.0
18353,Ross,PA,249000.0
48383,White Lake,MI,340000.0
80487,Steamboat Springs,CO,1689000.0
30054,Oxford,GA,385000.0
50677,Waverly,IA,264750.0
74948,Muldrow,OK,229900.0
32776,Sorrento,FL,429990.0
46040,Fishers,IN,414247.5
22308,Fort Hunt,VA,746500.0
43023,Granville,OH,437950.0
45152,Morrow,OH,294489.5
10280,New York,NY,1045000.0
32439,Freeport,FL,489000.0
34987,Port Saint Lucie,FL,366900.0
06478,Oxford,CT,399900.0
45669,Proctorville,OH,214000.0
49333,Middleville,MI,292950.0
22307,Belle Haven,VA,810000.0
32814,Orlando,FL,599250.0
93730,Fresno,CA,579000.0
19962,Magnolia,DE,291000.0
27214,Browns Summit,NC,265000.0
93644,Oakhurst,CA,379000.0
63117,Richmond Heights,MO,449900.0
61548,Metamora,IL,229900.0
66224,Leawood,KS,619950.0
33982,Punta Gorda,FL,425000.0
60523,Oak Brook,IL,845000.0
02563,Sandwich,MA,749900.0
65809,Springfield,MO,379650.0
81403,Montrose,CO,575000.0
08512,Cranbury,NJ,812450.0
32344,Monticello,FL,359000.0
28723,Cullowhee,NC,625000.0
20882,Damascus,MD,749900.0
81505,Grand Junction,CO,449900.0
34217,Holmes Beach,FL,825000.0
78336,Aransas Pass,TX,293575.0
32095,Saint Augustine,FL,409990.0
33330,Cooper City,FL,1097000.0
60558,Western Springs,IL,669000.0
27601,Raleigh,NC,508000.0
10528,Harrison,NY,1495000.0
30268,Palmetto,GA,589000.0
19004,Lower Merion,PA,575000.0
89109,Las Vegas,NV,545000.0
03909,York,ME,505000.0
27523,Apex,NC,521680.5
32643,High Springs,FL,339900.0
12211,Colonie,NY,459000.0
34429,Crystal River,FL,381500.0
11764,Miller Place,NY,669000.0
29829,Graniteville,SC,237115.0
34428,Crystal River,FL,384950.0
21047,Fallston,MD,523995.0
89441,Sparks,NV,540810.0
48360,Orion,MI,368760.0
36064,Pike Road,AL,319900.0
39819,Bainbridge,GA,249900.0
68007,Bennington,NE,375000.0
66226,Shawnee,KS,370000.0
97089,Damascus,OR,642500.0
77068,Houston,TX,449000.0
77423,Brookshire,TX,365400.0
85003,Phoenix,AZ,499950.0
35634,Florence,AL,319900.0
38060,Oakland,TN,269875.0
60554,Sugar Grove,IL,383490.0
37381,Spring City,TN,308000.0
34240,Sarasota,FL,569900.0
80435,Keystone,CO,1329000.0
19475,East Vincent,PA,493450.0
02921,Cranston,RI,475000.0
02769,Rehoboth,MA,499000.0
60712,Lincolnwood,IL,450000.0
99623,Knik-Fairview,AK,480000.0
11576,Roslyn,NY,1382000.0
14870,Erwin,NY,259900.0
17003,Annville,PA,304400.0
47119,Floyds Knobs,IN,424900.0
92067,Rancho Santa Fe,CA,3495000.0
89703,Carson City,NV,569000.0
19086,Nether Providence,PA,400000.0
92657,Newport Coast,CA,3702500.0
49097,Vicksburg,MI,234400.0
87004,Bernalillo,NM,354945.0
78257,San Antonio,TX,675000.0
14586,Henrietta,NY,259900.0
23664,Hampton,VA,386000.0
50327,Pleasant Hill,IA,289900.0
32561,Gulf Breeze,FL,575000.0
33170,Goulds,FL,499000.0
83340,Ketchum,ID,1795000.0
85054,Phoenix,AZ,452900.0
91108,San Marino,CA,2939500.0
83669,Star,ID,494900.0
10803,Pelham,NY,1229000.0
46259,Indianapolis,IN,339900.0
68133,Papillion,NE,312000.0
19734,Townsend,DE,371245.0
43021,Galena,OH,425990.0
02813,Charlestown,RI,569000.0
78163,Bulverde,TX,348999.0
94574,Saint Helena,CA,2350000.0
07078,Short Hills,NJ,1675000.0
19312,Easttown,PA,739000.0
06798,Woodbury,CT,510000.0
87048,Corrales,NM,550000.0
61072,Rockton,IL,195450.0
03031,Amherst,NH,459900.0
28731,Flat Rock,NC,534900.0
02052,Medfield,MA,889000.0
10570,Pleasantville,NY,888623.0
29054,Gilbert,SC,366950.0
28730,Fairview,NC,565000.0
40513,Lexington,KY,372250.0
56472,Breezy Point,MN,399450.0
95304,Tracy,CA,719975.0
13041,Clay,NY,259900.0
39525,Diamondhead,MS,254000.0
11766,Mount Sinai,NY,731995.0
62712,Springfield,IL,279900.0
36093,Wetumpka,AL,269900.0
31411,Skidaway Island,GA,569000.0
27958,Moyock,NC,349743.0
60143,Itasca,IL,425000.0
63390,Wright City,MO,460000.0
60305,River Forest,IL,804450.0
60190,Winfield,IL,472400.0
77461,Needville,TX,407450.0
08402,Margate City,NJ,587500.0
34229,Osprey,FL,649500.0
29356,Landrum,SC,592450.0
07922,Berkeley Heights,NJ,727000.0
31535,Douglas,GA,229000.0
11577,Roslyn Heights,NY,1164500.0
11753,Jericho,NY,928500.0
85390,Wickenburg,AZ,550000.0
91708,Chino,CA,528645.0
85615,Hereford,AZ,349950.0
78063,Pipe Creek,TX,452500.0
93636,Madera,CA,398500.0
84335,Smithfield,UT,368950.0
11366,New York,NY,968000.0
87059,Tijeras,NM,380000.0
19072,Lower Merion,PA,850000.0
11598,Woodmere,NY,849000.0
28166,Troutman,NC,474900.0
07458,Upper Saddle River,NJ,1499000.0
45050,Monroe,OH,262935.0
24211,Abingdon,VA,329000.0
27376,Seven Lakes,NC,345000.0
78721,Austin,TX,475000.0
25541,Milton,WV,237450.0
34688,Tarpon Springs,FL,493944.0
97411,Bandon,OR,409000.0
48065,Romeo,MI,339450.0
27377,Whitsett,NC,262900.0
32736,Eustis,FL,419999.0
34607,Hernando Beach,FL,398950.0
06078,Suffield,CT,479900.0
19317,Chadds Ford,PA,589900.0
80230,Denver,CO,785000.0
10307,New York,NY,912449.5
97530,Jacksonville,OR,637250.0
18031,Upper Macungie,PA,330000.0
19102,Philadelphia,PA,800000.0
21617,Centreville,MD,475000.0
27850,Littleton,NC,392500.0
32134,Fort Mc Coy,FL,325000.0
66206,Leawood,KS,492500.0
06019,Canton,CT,429900.0
60044,Lake Bluff,IL,599949.5
17319,Newberry,PA,301765.5
02482,Wellesley,MA,1295000.0
20636,Hollywood,MD,406900.0
78730,Austin,TX,795000.0
04046,Kennebunkport,ME,807450.0
32456,Port Saint Joe,FL,437500.0
25560,Scott Depot,WV,239900.0
98569,Ocean Shores,WA,302475.0
49696,Garfield,MI,399000.0
77094,Houston,TX,424950.0
74132,Tulsa,OK,407200.0
48144,Lambertville,MI,279450.0
07760,Rumson,NJ,1649000.0
11545,Glen Head,NY,1999993.5
33785,Indian Rocks Beach,FL,550000.0
72916,Fort Smith,AR,289250.0
67230,Wichita,KS,324450.0
81632,Edwards,CO,2625000.0
14031,Clarence,NY,519900.0
10514,Chappaqua,NY,999000.0
78202,San Antonio,TX,353950.0
49408,Fennville,MI,509900.0
92210,Indian Wells,CA,954000.0
01077,Southwick,MA,379900.0
33042,Summerland Key,FL,1399000.0
27301,Greensboro,NC,209700.0
93428,Cambria,CA,985000.0
28207,Charlotte,NC,1197000.0
65737,Reeds Spring,MO,349900.0
60464,Palos Park,IL,501200.0
33473,Boynton Beach,FL,599000.0
97383,Stayton,OR,447450.0
77565,League City,TX,640000.0
03249,Gilford,NH,674000.0
85355,Waddell,AZ,479000.0
86429,Bullhead City,AZ,389000.0
70818,Baton Rouge,LA,351250.0
61874,Savoy,IL,302400.0
89519,Reno,NV,809500.0
02493,Weston,MA,2337000.0
19350,New Garden,PA,425000.0
49461,Whitehall,MI,314900.0
06480,Portland,CT,336900.0
76657,Mc Gregor,TX,331000.0
11771,Oyster Bay,NY,1625000.0
32409,Lynn Haven,FL,365000.0
30622,Bogart,GA,343900.0
01230,Great Barrington,MA,664500.0
73078,Piedmont,OK,257100.0
80924,Colorado Springs,CO,469900.0
25304,Charleston,WV,245500.0
80433,Conifer,CO,672000.0
80125,Roxborough Park,CO,649500.0
49071,Mattawan,MI,270900.0
74434,Fort Gibson,OK,182900.0
07045,Montville,NJ,872400.0
61525,Dunlap,IL,314950.0
14905,Elmira,NY,157000.0
15658,Ligonier,PA,399000.0
66086,Tonganoxie,KS,367000.0
85012,Phoenix,AZ,612450.0
30025,Social Circle,GA,499450.0
02061,Norwell,MA,856950.0
02657,Provincetown,MA,969000.0
19807,Wilmington,DE,750000.0
23120,Moseley,VA,405950.0
28761,Nebo,NC,484000.0
78231,San Antonio,TX,399900.0
35652,Rogersville,AL,274900.0
23314,Carrollton,VA,424245.0
47448,Nashville,IN,337450.0
22932,Crozet,VA,522400.0
44047,Jefferson,OH,209900.0
07417,Franklin Lakes,NJ,1249000.0
60119,Elburn,IL,380000.0
12983,Saranac Lake,NY,372500.0
92315,Big Bear Lake,CA,699900.0
19945,Frankford,DE,372495.0
75454,Melissa,TX,356900.0
21029,Clarksville,MD,924990.0
60442,Manhattan,IL,349945.0
61065,Poplar Grove,IL,214750.0
60012,Crystal Lake,IL,373450.0
04444,Hampden,ME,295000.0
28785,Waynesville,NC,435950.0
11954,Montauk,NY,1895000.0
84060,Park City,UT,2557500.0
55042,Lake Elmo,MN,475000.0
66083,Spring Hill,KS,355360.0
98922,Cle Elum,WA,859000.0
08022,Mansfield,NJ,492450.0
78736,Austin,TX,559913.5
49306,Belmont,MI,399950.0
85929,Lakeside,AZ,369000.0
10069,New York,NY,2740000.0
10709,Eastchester,NY,850000.0
55439,Edina,MN,694000.0
08502,Montgomery,NJ,799800.0
10536,Somers,NY,923944.0
13078,De Witt,NY,380000.0
53551,Lake Mills,WI,384950.0
98826,Leavenworth,WA,699900.0
13152,Skaneateles,NY,404900.0
97759,Sisters,OR,810000.0
48359,Orion,MI,387900.0
12159,Slingerlands,NY,445000.0
86315,Prescott Valley,AZ,498000.0
30666,Statham,GA,539000.0
64834,Carl Junction,MO,199941.0
98816,Chelan,WA,785000.0
70112,New Orleans,LA,439450.0
17363,Hopewell,PA,299900.0
03253,Meredith,NH,725000.0
16415,Fairview,PA,314900.0
18058,Polk,PA,307499.5
86351,Sedona,AZ,576500.0
60081,Spring Grove,IL,367450.0
37686,Piney Flats,TN,349900.0
21032,Crownsville,MD,750000.0
33449,Wellington,FL,569450.0
31052,Lizella,GA,235000.0
60083,Wadsworth,IL,422500.0
27051,Walkertown,NC,239245.0
66610,Topeka,KS,264900.0
28422,Bolivia,NC,379900.0
29449,Hollywood,SC,695000.0
27357,Stokesdale,NC,335245.0
33070,Tavernier,FL,1499000.0
70420,Abita Springs,LA,415000.0
18073,Upper Hanover,PA,359990.0
06712,Prospect,CT,329900.0
28468,Sunset Beach,NC,427450.0
32833,Wedgefield,FL,446950.0
11971,Southold,NY,899999.0
54942,Greenville,WI,309900.0
06071,Somers,CT,405000.0
08833,Clinton,NJ,899450.0
85087,New River,AZ,439674.5
02539,Edgartown,MA,3050000.0
89179,Las Vegas,NV,359999.5
65672,Hollister,MO,344900.0
99567,Anchorage,AK,499000.0
33953,Port Charlotte,FL,391900.0
06883,Weston,CT,912000.0
96738,Waikoloa,HI,739000.0
76571,Salado,TX,359000.0
81657,Vail,CO,2995000.0
16059,Middlesex,PA,329990.0
10510,Briarcliff Manor,NY,997499.5
78009,Castroville,TX,447900.0
07722,Colts Neck,NJ,1083250.0
70392,Patterson,LA,179000.0
32179,Ocklawaha,FL,421000.0
93924,Carmel Valley,CA,1647500.0
70437,Folsom,LA,473500.0
30290,Tyrone,GA,452200.0
85603,Bisbee,AZ,264000.0
37738,Gatlinburg,TN,361200.0
06498,Chester,CT,499000.0
16063,Zelienople,PA,316900.0
66007,Basehor,KS,364966.0
06525,Woodbridge,CT,539900.0
19938,Clayton,DE,299990.0
66085,Overland Park,KS,573000.0
75167,Waxahachie,TX,401900.0
07825,Blairstown,NJ,390500.0
50273,Winterset,IA,325000.0
10007,New York,NY,4012500.0
81621,Basalt,CO,1810000.0
60449,Monee,IL,425000.0
44028,Grafton,OH,322975.0
55328,Delano,MN,376900.0
11740,Huntington,NY,884900.0
91935,Jamul,CA,945000.0
76539,Kempner,TX,268500.0
76655,Lorena,TX,238590.0
48357,Highland,MI,412236.0
33332,Weston,FL,686500.0
01590,Sutton,MA,531950.0
48165,New Hudson,MI,349949.5
84738,Ivins,UT,545000.0
97707,Bend,OR,797000.0
02653,Orleans,MA,1049000.0
13035,Cazenovia,NY,327900.0
02633,Chatham,MA,1350000.0
11023,Great Neck,NY,1287000.0
07945,Mendham,NJ,932000.0
16055,Buffalo,PA,313900.0
28305,Fayetteville,NC,255000.0
32266,Neptune Beach,FL,549900.0
46737,Clear Lake,IN,479900.0
11797,Woodbury,NY,1099444.0
93723,Fresno,CA,384900.0
60069,Lincolnshire,IL,530000.0
19939,Dagsboro,DE,399990.0
80615,Eaton,CO,457900.0
93463,Solvang,CA,1392000.0
57049,North Sioux City,SD,394750.0
50003,Adel,IA,324580.0
28107,Midland,NC,394990.0
61856,Monticello,IL,249900.0
88008,Santa Teresa,NM,247975.0
63040,Wildwood,MO,342900.0
76060,Kennedale,TX,369209.5
28768,Pisgah Forest,NC,447000.0
02025,Cohasset,MA,1147499.5
33548,Lutz,FL,475000.0
63348,Wentzville,MO,362400.0
49083,Richland,MI,310000.0
38651,Nesbit,MS,284350.0
19930,Bethany Beach,DE,699000.0
21797,Woodbine,MD,700000.0
19333,Easttown,PA,842500.0
15367,Peters,PA,625000.0
78733,Austin,TX,1095000.0
17345,Manchester,PA,252603.0
79382,Wolfforth,TX,299700.0
21619,Chester,MD,549000.0
39556,Kiln,MS,275000.0
33956,Saint James City,FL,472450.0
11978,Westhampton Beach,NY,1999999.5
53018,Delafield,WI,549900.0
17349,New Freedom,PA,322112.0
32820,Bithlo,FL,421950.0
81303,Durango,CO,724875.0
14032,Clarence,NY,479900.0
23168,Toano,VA,430000.0
43566,Waterville,OH,239900.0
36310,Abbeville,AL,249000.0
28759,Mills River,NC,525000.0
19311,Avondale,PA,429900.0
03049,Hollis,NH,589000.0
01267,Williamstown,MA,745000.0
01240,Lenox,MA,619000.0
29130,Ridgeway,SC,345000.0
96712,Haleiwa,HI,1525000.0
06762,Middlebury,CT,423995.0
07930,Chester,NJ,862499.5
93921,Carmel-by-the-Sea,CA,2099000.0
44233,Hinckley,OH,399900.0
02835,Jamestown,RI,734900.0
06085,Farmington,CT,459900.0
07626,Cresskill,NJ,1249000.0
23141,Quinton,VA,356024.5
37034,Chapel Hill,TN,262400.0
55920,Byron,MN,388500.0
60022,Glencoe,IL,1030000.0
62232,Caseyville,IL,298900.0
64034,Greenwood,MO,415000.0
28605,Blowing Rock,NC,717450.0
18929,Warwick,PA,454950.0
98625,Kalama,WA,449900.0
37863,Pigeon Forge,TN,329450.0
28371,Parkton,NC,226900.0
20181,Nokesville,VA,659900.0
06333,East Lyme,CT,467450.0
11557,Hewlett,NY,1137500.0
27310,Oak Ridge,NC,459900.0
37722,Cosby,TN,202400.0
06878,Greenwich,CT,2170000.0
43571,Whitehouse,OH,325125.0
12986,Tupper Lake,NY,262500.0
43617,Toledo,OH,259000.0
06807,Greenwich,CT,1195000.0
33036,Islamorada,FL,1500000.0
14085,Hamburg,NY,299900.0
70462,Killian,LA,315400.0
01568,Upton,MA,484900.0
79922,El Paso,TX,399000.0
66220,Lenexa,KS,519950.0
55386,Victoria,MN,458445.0
70734,Geismar,LA,299950.0
21035,Davidsonville,MD,749000.0
46106,Bargersville,IN,344900.0
54155,Hobart,WI,339900.0
95683,Sloughhouse,CA,599800.0
27571,Rolesville,NC,414995.0
06870,Greenwich,CT,1995000.0
55340,Medina,MN,579990.0
48350,Springfield,MI,329000.0
10504,North Castle,NY,1449499.5
02655,Barnstable,MA,1695000.0
34637,Land O Lakes,FL,370000.0
24101,Hardy,VA,359900.0
80443,Frisco,CO,1422500.0
33920,Alva,FL,599900.0
36024,Eclectic,AL,475000.0
38028,Hickory Withe,TN,550000.0
65686,Kimberling City,MO,279900.0
01921,Boxford,MA,949000.0
83341,Kimberly,ID,384000.0
29451,Isle of Palms,SC,1075000.0
19041,Haverford,PA,899000.0
07924,Bernardsville,NJ,1087000.0
96756,Koloa,HI,1490000.0
12077,Bethlehem,NY,389900.0
52333,Solon,IA,417678.5
80498,Silverthorne,CO,1453750.0
18424,Lehigh,PA,227000.0
85935,Pinetop,AZ,435950.0
85045,Phoenix,AZ,539900.0
48380,Milford,MI,577000.0
11942,East Quogue,NY,995000.0
52411,Cedar Rapids,IA,391900.0
08558,Montgomery,NJ,830750.0
21131,Phoenix,MD,699450.0
50035,Bondurant,IA,284800.0
08221,Linwood,NJ,407000.0
37220,Nashville,TN,609900.0
28512,Atlantic Beach,NC,595000.0
02537,East Sandwich,MA,823700.0
12186,New Scotland,NY,539900.0
66227,Lenexa,KS,440025.0
68526,Lincoln,NE,424925.0
28594,Emerald Isle,NC,600000.0
56468,Nisswa,MN,544450.0
84664,Mapleton,UT,512475.0
73165,Oklahoma City,OK,329250.0
16033,Forward,PA,342900.0
97444,Gold Beach,OR,649000.0
46075,Whitestown,IN,282500.0
78575,Rancho Viejo,TX,259900.0
92661,Newport Beach,CA,3712499.5
11952,Mattituck,NY,850000.0
30183,Waleska,GA,479450.0
11709,Bayville,NY,799444.0
10590,Lewisboro,NY,780000.0
20833,Brookeville,MD,816400.0
25213,Winfield,WV,336950.0
78266,Garden Ridge,TX,473950.0
07092,Mountainside,NJ,749450.0
06419,Chester,CT,472500.0
87043,Placitas,NM,469000.0
64156,Kansas City,MO,363500.0
28751,Maggie Valley,NC,479500.0
96704,Captain Cook,HI,699475.0
13326,Cooperstown,NY,437000.0
77362,Pinehurst,TX,430945.0
87047,Sandia Park,NM,562000.0
11560,Locust Valley,NY,1499000.0
23140,Providence Forge,VA,389000.0
17361,Shrewsbury,PA,348036.0
84332,Providence,UT,374900.0
28479,Winnabow,NC,291920.0
63038,Wildwood,MO,559900.0
19034,Upper Dublin,PA,575000.0
44286,Richfield,OH,454950.0
14750,Lakewood,NY,249700.0
93225,Frazier Park,CA,309000.0
23103,Oilville,VA,585000.0
84765,Santa Clara,UT,494112.5
80118,Larkspur,CO,766000.0
55359,Independence,MN,642000.0
76559,Nolanville,TX,326000.0
29142,Santee,SC,219000.0
95467,Hidden Valley Lake,CA,365000.0
92549,Idyllwild,CA,565000.0
52753,Le Claire,IA,349000.0
02642,Eastham,MA,940000.0
48363,Oakland,MI,605400.0
49635,Frankfort,MI,569000.0
33922,Bokeelia,FL,474500.0
17360,Springfield,PA,286245.0
56442,Cross Lake,MN,499900.0
84049,Midway,UT,688000.0
07738,Middletown,NJ,735359.0
30557,Martin,GA,330000.0
07739,Little Silver,NJ,889900.0
08243,Sea Isle City,NJ,854500.0
97392,Turner,OR,419900.0
20115,Marshall,VA,827449.5
89451,Incline Village,NV,1295000.0
73179,Oklahoma City,OK,297000.0
22936,Earlysville,VA,650000.0
31328,Tybee Island,GA,529900.0
33158,Village of Palmetto Bay,FL,799900.0
56288,Spicer,MN,525000.0
03257,New London,NH,497000.0
08735,Lavallette,NJ,839900.0
34201,Sarasota,FL,525000.0
79911,El Paso,TX,239500.0
10506,Bedford,NY,1265000.0
50226,Polk City,IA,349900.0
17366,Windsor,PA,253286.0
06073,Glastonbury,CT,499900.0
20759,Fulton,MD,874990.0
22947,Keswick,VA,679900.0
21638,Grasonville,MD,572450.0
75182,Sunnyvale,TX,507990.0
85933,Overgaard,AZ,364400.0
28480,Wrightsville Beach,NC,872500.0
46511,Culver,IN,290000.0
55415,Minneapolis,MN,527400.0
18925,Buckingham,PA,559900.0
18947,Plumstead,PA,650000.0
02108,Boston,MA,2584000.0
40067,Simpsonville,KY,582000.0
33946,Port Charlotte,FL,525000.0
03070,New Boston,NH,449900.0
59068,Red Lodge,MT,549900.0
33031,Homestead,FL,599450.0
28356,Linden,NC,268460.0
02030,Dover,MA,1772450.0
70657,Ragley,LA,259582.0
07677,Woodcliff Lake,NJ,794000.0
53097,Mequon,WI,576650.0
33306,Fort Lauderdale,FL,755500.0
05255,Manchester,VT,445000.0
93430,Cayucos,CA,1207450.0
19085,Radnor,PA,1150000.0
28717,Cashiers,NC,872000.0
07704,Fair Haven,NJ,904450.0
12170,Stillwater,NY,352500.0
78619,Driftwood,TX,627495.0
10576,Pound Ridge,NY,1200000.0
59634,Clancy,MT,389000.0
07648,Norwood,NJ,789000.0
08515,Chesterfield,NJ,459500.0
06417,Deep River,CT,419000.0
51054,Sergeant Bluff,IA,309925.0
55315,Carver,MN,385495.0
06524,Bethany,CT,416350.0
76802,Early,TX,207000.0
67101,Maize,KS,257000.0
19031,Flourtown,PA,637400.0
37046,College Grove,TN,689900.0
96754,Kilauea,HI,2850000.0
48095,Washington,MI,474950.0
19504,Washington,PA,354109.0
85263,Rio Verde,AZ,599000.0
11935,Cutchogue,NY,795000.0
11020,Great Neck,NY,1392000.0
12833,Greenfield Center,NY,499000.0
01740,Bolton,MA,599900.0
06890,Fairfield,CT,1150000.0
78373,Port Aransas,TX,437000.0
16037,Lancaster,PA,429000.0
24104,Huddleston,VA,459900.0
21663,Saint Michaels,MD,810000.0
11976,Water Mill,NY,3430000.0
85377,Carefree,AZ,834000.0
74451,Pettit,OK,247400.0
79562,Tuscola,TX,277020.0
08751,Ortley Beach,NJ,712450.0
92590,Temecula,CA,1250000.0
37882,Townsend,TN,389000.0
08535,Millstone,NJ,774500.0
93737,Fresno,CA,395900.0
06426,Essex,CT,587450.0
49453,Saugatuck,MI,449000.0
83353,Sun Valley,ID,1600000.0
08752,Seaside Park,NJ,794000.0
76044,Godley,TX,387995.0
22656,Stephenson,VA,356250.0
19035,Lower Merion,PA,1100000.0
37302,Collegedale,TN,379900.0
92352,Lake Arrowhead,CA,697000.0
15026,Hanover,PA,302900.0
97341,Depoe Bay,OR,502000.0
11977,Westhampton,NY,1050000.0
28571,Oriental,NC,357800.0
53191,Williams Bay,WI,422500.0
96722,Princeville,HI,1221500.0
06412,Chester,CT,585000.0
60203,Evanston,IL,470000.0
07627,Demarest,NJ,1399950.0
18347,Pocono Lake,PA,244356.0
48367,Leonard,MI,404450.0
03753,Grantham,NH,334500.0
78597,South Padre Island,TX,330000.0
29643,Fair Play,SC,439000.0
03576,Colebrook,NH,254450.0
72718,Cave Springs,AR,330000.0
14712,Ellery,NY,390000.0
55327,Dayton,MN,422450.0
01770,Sherborn,MA,829500.0
06853,Norwalk,CT,1395000.0
11930,Amagansett,NY,2750000.0
53125,Fontana,WI,495000.0
32461,Panama City Beach,FL,892000.0
10987,Tuxedo,NY,1250000.0
08403,Longport,NJ,939000.0
80547,Timnath,CO,615995.0
07046,Mountain Lakes,NJ,964495.0
05149,Ludlow,VT,524500.0
12529,Hillsdale,NY,590000.0
29439,Folly Beach,SC,817000.0
44040,Gates Mills,OH,659000.0
34737,Howey in the Hills,FL,439999.0
77650,Port Bolivar,TX,399000.0
30259,Moreland,GA,364900.0
05735,Castleton,VT,299900.0
81615,Snowmass Village,CO,3586000.0
38066,Rossville,TN,435830.5
06069,Sharon,CT,875000.0
02807,New Shoreham,RI,1197000.0
07931,Far Hills,NJ,1450000.0
30205,Brooks,GA,554000.0
59922,Lakeside,MT,799000.0
76449,Graford,TX,460000.0
18350,Pocono Pines,PA,307900.0
18372,Pocono,PA,229000.0
65611,Blue Eye,MO,349900.0
73173,Oklahoma City,OK,419990.0
11932,Bridgehampton,NY,4995000.0
11509,Atlantic Beach,NY,999999.0
08738,Mantoloking,NJ,1524000.0
50109,Granger,IA,345950.0
28449,Kure Beach,NC,575000.0
76005,Arlington,TX,400500.0
29482,Sullivans Island,SC,2295000.0
32949,Grant-Valkaria,FL,475000.0
06783,Roxbury,CT,975000.0
28774,Sapphire,NC,649000.0
22958,Nellysford,VA,499000.0
11568,Old Westbury,NY,2198000.0
61528,Edwards,IL,328950.0
11724,Cold Spring Harbor,NY,1399000.0
97753,Powell Butte,OR,667450.0
73007,Edmond,OK,750000.0
29685,Sunset,SC,1099500.0
14731,Ellicottville,NY,279450.0
11964,Shelter Island,NY,1500000.0
22967,Roseland,VA,479000.0
93222,Pine Mountain Club,CA,359000.0
60184,Wayne,IL,659500.0
27562,New Hill,NC,406188.0
34216,Anna Maria,FL,1495000.0
83429,Island Park,ID,542000.0
01262,Stockbridge,MA,685000.0
02666,Truro,MA,1075000.0
10577,Purchase,NY,2500000.0
13420,Webb,NY,462000.0
05059,Hartford,VT,449000.0
24176,Union Hall,VA,549900.0
37866,Sharps Chapel,TN,446475.0
14722,Mayville,NY,355000.0
14724,French Creek,NY,237250.0
33786,Belleair Beach,FL,802000.0
31527,Brunswick,GA,539000.0
96146,Tahoe City,CA,995000.0
27927,Corolla,NC,649900.0
60043,Kenilworth,IL,1299000.0
05251,Dorset,VT,680000.0
11960,Remsenburg,NY,1250000.0
49726,Paradise,MI,260000.0
15622,Saltlick,PA,325000.0
92091,Rancho Santa Fe,CA,3142500.0
07620,Alpine,NJ,3649000.0
97110,Cannon Beach,OR,719000.0
60603,Chicago,IL,619000.0
11975,Wainscott,NY,2699000.0
66013,Bucyrus,KS,599900.0
33109,Fisher Island,FL,3987000.0
28736,Glenville,NC,650000.0
49636,Glen Arbor,MI,647000.0
89124,Mount Charleston,NV,604000.0
70358,Grand Isle,LA,339450.0
08006,Barnegat Light,NJ,895000.0
87520,Chama,NM,392900.0
05340,Winhall,VT,502000.0
33924,Captiva,FL,1080000.0
93664,Shaver Lake,CA,539000.0
31561,Sea Island,GA,2972500.0
29915,Bluffton,SC,639000.0
05056,Plymouth,VT,467000.0
15502,Hidden Valley,PA,209900.0
